<?xml version="1.0" encoding="UTF-8"?>
<gpx creator="Wikiloc - https://www.wikiloc.com" version="1.1" xmlns="http://www.topografix.com/GPX/1/1" xmlns:xsi="http://www.w3.org/2001/XMLSchema-instance" xsi:schemaLocation="http://www.topografix.com/GPX/1/1 http://www.topografix.com/GPX/1/1/gpx.xsd">
  <metadata>
    <name>Wikiloc - 662 ALLEGHE CASCATA RU DE RIALT</name>
    <link href="https://www.wikiloc.com/hiking-trails/662-alleghe-cascata-ru-de-rialt-83456830">
      <text>662 ALLEGHE CASCATA RU DE RIALT - Wikiloc on Wikiloc</text>
    </link>
    <time>2021-09-09T08:16:41Z</time>
  </metadata>
  <trk>
    <name>662 ALLEGHE CASCATA RU DE RIALT - Wikiloc</name>
    <cmt></cmt>
    <desc></desc>
    <trkseg>
      <trkpt lat="46.407211" lon="12.019856">
        <ele>968.142</ele>
        <time>2021-09-09T06:23:10Z</time>
      </trkpt>
      <trkpt lat="46.406940" lon="12.019499">
        <ele>975.322</ele>
        <time>2021-09-09T06:24:37Z</time>
      </trkpt>
      <trkpt lat="46.406883" lon="12.019043">
        <ele>975.314</ele>
        <time>2021-09-09T06:25:07Z</time>
      </trkpt>
      <trkpt lat="46.406639" lon="12.018518">
        <ele>975.308</ele>
        <time>2021-09-09T06:25:54Z</time>
      </trkpt>
      <trkpt lat="46.406425" lon="12.018358">
        <ele>975.312</ele>
        <time>2021-09-09T06:26:16Z</time>
      </trkpt>
      <trkpt lat="46.405773" lon="12.018397">
        <ele>974.917</ele>
        <time>2021-09-09T06:27:12Z</time>
      </trkpt>
      <trkpt lat="46.405293" lon="12.018734">
        <ele>975.818</ele>
        <time>2021-09-09T06:27:54Z</time>
      </trkpt>
      <trkpt lat="46.405243" lon="12.018984">
        <ele>975.319</ele>
        <time>2021-09-09T06:28:09Z</time>
      </trkpt>
      <trkpt lat="46.405430" lon="12.019932">
        <ele>975.350</ele>
        <time>2021-09-09T06:29:09Z</time>
      </trkpt>
      <trkpt lat="46.405380" lon="12.020211">
        <ele>975.362</ele>
        <time>2021-09-09T06:29:21Z</time>
      </trkpt>
      <trkpt lat="46.404652" lon="12.020639">
        <ele>978.767</ele>
        <time>2021-09-09T06:30:44Z</time>
      </trkpt>
      <trkpt lat="46.404385" lon="12.019741">
        <ele>978.724</ele>
        <time>2021-09-09T06:32:20Z</time>
      </trkpt>
      <trkpt lat="46.403847" lon="12.018737">
        <ele>978.215</ele>
        <time>2021-09-09T06:33:33Z</time>
      </trkpt>
      <trkpt lat="46.402882" lon="12.018100">
        <ele>977.365</ele>
        <time>2021-09-09T06:34:52Z</time>
      </trkpt>
      <trkpt lat="46.402260" lon="12.017172">
        <ele>977.311</ele>
        <time>2021-09-09T06:36:08Z</time>
      </trkpt>
      <trkpt lat="46.402157" lon="12.017130">
        <ele>976.808</ele>
        <time>2021-09-09T06:36:17Z</time>
      </trkpt>
      <trkpt lat="46.402058" lon="12.017265">
        <ele>976.329</ele>
        <time>2021-09-09T06:36:30Z</time>
      </trkpt>
      <trkpt lat="46.401733" lon="12.017168">
        <ele>976.344</ele>
        <time>2021-09-09T06:37:00Z</time>
      </trkpt>
      <trkpt lat="46.401566" lon="12.016976">
        <ele>977.345</ele>
        <time>2021-09-09T06:37:17Z</time>
      </trkpt>
      <trkpt lat="46.400116" lon="12.016076">
        <ele>975.856</ele>
        <time>2021-09-09T06:39:10Z</time>
      </trkpt>
      <trkpt lat="46.399612" lon="12.015434">
        <ele>975.347</ele>
        <time>2021-09-09T06:40:09Z</time>
      </trkpt>
      <trkpt lat="46.399315" lon="12.015266">
        <ele>977.359</ele>
        <time>2021-09-09T06:41:00Z</time>
      </trkpt>
      <trkpt lat="46.398987" lon="12.015448">
        <ele>984.534</ele>
        <time>2021-09-09T06:41:56Z</time>
      </trkpt>
      <trkpt lat="46.398392" lon="12.014900">
        <ele>994.631</ele>
        <time>2021-09-09T06:43:15Z</time>
      </trkpt>
      <trkpt lat="46.398041" lon="12.014854">
        <ele>1000.885</ele>
        <time>2021-09-09T06:43:53Z</time>
      </trkpt>
      <trkpt lat="46.397633" lon="12.015161">
        <ele>1000.889</ele>
        <time>2021-09-09T06:44:34Z</time>
      </trkpt>
      <trkpt lat="46.397629" lon="12.015263">
        <ele>1001.317</ele>
        <time>2021-09-09T06:44:45Z</time>
      </trkpt>
      <trkpt lat="46.397335" lon="12.014963">
        <ele>999.908</ele>
        <time>2021-09-09T06:45:23Z</time>
      </trkpt>
      <trkpt lat="46.396786" lon="12.014690">
        <ele>1005.286</ele>
        <time>2021-09-09T06:46:11Z</time>
      </trkpt>
      <trkpt lat="46.396465" lon="12.014690">
        <ele>1012.431</ele>
        <time>2021-09-09T06:46:48Z</time>
      </trkpt>
      <trkpt lat="46.396141" lon="12.014368">
        <ele>1015.742</ele>
        <time>2021-09-09T06:47:27Z</time>
      </trkpt>
      <trkpt lat="46.395927" lon="12.014342">
        <ele>1017.233</ele>
        <time>2021-09-09T06:48:06Z</time>
      </trkpt>
      <trkpt lat="46.395779" lon="12.013955">
        <ele>1023.474</ele>
        <time>2021-09-09T06:48:44Z</time>
      </trkpt>
      <trkpt lat="46.395287" lon="12.014052">
        <ele>1034.536</ele>
        <time>2021-09-09T06:50:10Z</time>
      </trkpt>
      <trkpt lat="46.395336" lon="12.014199">
        <ele>1037.441</ele>
        <time>2021-09-09T06:50:38Z</time>
      </trkpt>
      <trkpt lat="46.395145" lon="12.014294">
        <ele>1042.618</ele>
        <time>2021-09-09T06:51:38Z</time>
      </trkpt>
      <trkpt lat="46.394909" lon="12.014762">
        <ele>1048.436</ele>
        <time>2021-09-09T06:52:23Z</time>
      </trkpt>
      <trkpt lat="46.394779" lon="12.014829">
        <ele>1052.717</ele>
        <time>2021-09-09T06:52:42Z</time>
      </trkpt>
      <trkpt lat="46.394871" lon="12.014932">
        <ele>1055.618</ele>
        <time>2021-09-09T06:53:03Z</time>
      </trkpt>
      <trkpt lat="46.395061" lon="12.014861">
        <ele>1059.008</ele>
        <time>2021-09-09T06:53:26Z</time>
      </trkpt>
      <trkpt lat="46.395046" lon="12.015182">
        <ele>1067.651</ele>
        <time>2021-09-09T06:54:18Z</time>
      </trkpt>
      <trkpt lat="46.394650" lon="12.015243">
        <ele>1072.066</ele>
        <time>2021-09-09T06:55:02Z</time>
      </trkpt>
      <trkpt lat="46.394234" lon="12.015738">
        <ele>1081.117</ele>
        <time>2021-09-09T06:56:01Z</time>
      </trkpt>
      <trkpt lat="46.393669" lon="12.016034">
        <ele>1098.968</ele>
        <time>2021-09-09T06:57:34Z</time>
      </trkpt>
      <trkpt lat="46.393440" lon="12.016088">
        <ele>1106.619</ele>
        <time>2021-09-09T06:58:12Z</time>
      </trkpt>
      <trkpt lat="46.393066" lon="12.015952">
        <ele>1113.381</ele>
        <time>2021-09-09T06:58:47Z</time>
      </trkpt>
      <trkpt lat="46.392864" lon="12.015981">
        <ele>1114.726</ele>
        <time>2021-09-09T06:59:30Z</time>
      </trkpt>
      <trkpt lat="46.392986" lon="12.016069">
        <ele>1119.193</ele>
        <time>2021-09-09T07:00:08Z</time>
      </trkpt>
      <trkpt lat="46.392925" lon="12.015870">
        <ele>1110.996</ele>
        <time>2021-09-09T07:01:05Z</time>
      </trkpt>
      <trkpt lat="46.393230" lon="12.015911">
        <ele>1104.631</ele>
        <time>2021-09-09T07:01:34Z</time>
      </trkpt>
      <trkpt lat="46.393566" lon="12.016123">
        <ele>1101.824</ele>
        <time>2021-09-09T07:01:46Z</time>
      </trkpt>
      <trkpt lat="46.393734" lon="12.016098">
        <ele>1099.408</ele>
        <time>2021-09-09T07:01:58Z</time>
      </trkpt>
      <trkpt lat="46.394718" lon="12.015202">
        <ele>1076.397</ele>
        <time>2021-09-09T07:04:37Z</time>
      </trkpt>
      <trkpt lat="46.394875" lon="12.015222">
        <ele>1073.492</ele>
        <time>2021-09-09T07:05:01Z</time>
      </trkpt>
      <trkpt lat="46.395203" lon="12.015063">
        <ele>1071.013</ele>
        <time>2021-09-09T07:05:49Z</time>
      </trkpt>
      <trkpt lat="46.395370" lon="12.014868">
        <ele>1073.994</ele>
        <time>2021-09-09T07:06:13Z</time>
      </trkpt>
      <trkpt lat="46.395317" lon="12.014825">
        <ele>1074.415</ele>
        <time>2021-09-09T07:07:09Z</time>
      </trkpt>
      <trkpt lat="46.395134" lon="12.015235">
        <ele>1068.147</ele>
        <time>2021-09-09T07:07:58Z</time>
      </trkpt>
      <trkpt lat="46.395542" lon="12.015611">
        <ele>1058.062</ele>
        <time>2021-09-09T07:09:15Z</time>
      </trkpt>
      <trkpt lat="46.395458" lon="12.015220">
        <ele>1049.489</ele>
        <time>2021-09-09T07:10:02Z</time>
      </trkpt>
      <trkpt lat="46.395580" lon="12.015227">
        <ele>1046.598</ele>
        <time>2021-09-09T07:10:17Z</time>
      </trkpt>
      <trkpt lat="46.395531" lon="12.014982">
        <ele>1041.715</ele>
        <time>2021-09-09T07:10:44Z</time>
      </trkpt>
      <trkpt lat="46.395798" lon="12.015057">
        <ele>1037.426</ele>
        <time>2021-09-09T07:11:06Z</time>
      </trkpt>
      <trkpt lat="46.395672" lon="12.014705">
        <ele>1032.508</ele>
        <time>2021-09-09T07:11:29Z</time>
      </trkpt>
      <trkpt lat="46.395725" lon="12.014676">
        <ele>1031.637</ele>
        <time>2021-09-09T07:11:35Z</time>
      </trkpt>
      <trkpt lat="46.396076" lon="12.014907">
        <ele>1025.362</ele>
        <time>2021-09-09T07:12:16Z</time>
      </trkpt>
      <trkpt lat="46.396141" lon="12.014393">
        <ele>1018.633</ele>
        <time>2021-09-09T07:12:55Z</time>
      </trkpt>
      <trkpt lat="46.396515" lon="12.014731">
        <ele>1014.374</ele>
        <time>2021-09-09T07:13:48Z</time>
      </trkpt>
      <trkpt lat="46.397190" lon="12.014857">
        <ele>1004.785</ele>
        <time>2021-09-09T07:14:56Z</time>
      </trkpt>
      <trkpt lat="46.397232" lon="12.014552">
        <ele>1005.297</ele>
        <time>2021-09-09T07:15:26Z</time>
      </trkpt>
      <trkpt lat="46.397396" lon="12.014505">
        <ele>1000.352</ele>
        <time>2021-09-09T07:15:49Z</time>
      </trkpt>
      <trkpt lat="46.397518" lon="12.014185">
        <ele>993.649</ele>
        <time>2021-09-09T07:16:50Z</time>
      </trkpt>
      <trkpt lat="46.397606" lon="12.014201">
        <ele>993.637</ele>
        <time>2021-09-09T07:17:02Z</time>
      </trkpt>
      <trkpt lat="46.397598" lon="12.013919">
        <ele>983.549</ele>
        <time>2021-09-09T07:17:51Z</time>
      </trkpt>
      <trkpt lat="46.398136" lon="12.013416">
        <ele>979.713</ele>
        <time>2021-09-09T07:18:49Z</time>
      </trkpt>
      <trkpt lat="46.398106" lon="12.013074">
        <ele>979.208</ele>
        <time>2021-09-09T07:20:10Z</time>
      </trkpt>
      <trkpt lat="46.397915" lon="12.012900">
        <ele>979.261</ele>
        <time>2021-09-09T07:20:29Z</time>
      </trkpt>
      <trkpt lat="46.397472" lon="12.012032">
        <ele>976.856</ele>
        <time>2021-09-09T07:22:32Z</time>
      </trkpt>
      <trkpt lat="46.397572" lon="12.012047">
        <ele>975.357</ele>
        <time>2021-09-09T07:22:57Z</time>
      </trkpt>
      <trkpt lat="46.397720" lon="12.011703">
        <ele>975.818</ele>
        <time>2021-09-09T07:24:57Z</time>
      </trkpt>
      <trkpt lat="46.398296" lon="12.011423">
        <ele>979.289</ele>
        <time>2021-09-09T07:25:57Z</time>
      </trkpt>
      <trkpt lat="46.398819" lon="12.011625">
        <ele>981.671</ele>
        <time>2021-09-09T07:26:44Z</time>
      </trkpt>
      <trkpt lat="46.399181" lon="12.011655">
        <ele>982.186</ele>
        <time>2021-09-09T07:27:11Z</time>
      </trkpt>
      <trkpt lat="46.399483" lon="12.011857">
        <ele>980.663</ele>
        <time>2021-09-09T07:27:32Z</time>
      </trkpt>
      <trkpt lat="46.399628" lon="12.012137">
        <ele>980.646</ele>
        <time>2021-09-09T07:27:57Z</time>
      </trkpt>
      <trkpt lat="46.399937" lon="12.012391">
        <ele>982.688</ele>
        <time>2021-09-09T07:28:23Z</time>
      </trkpt>
      <trkpt lat="46.400784" lon="12.012655">
        <ele>994.616</ele>
        <time>2021-09-09T07:29:49Z</time>
      </trkpt>
      <trkpt lat="46.400925" lon="12.012818">
        <ele>997.508</ele>
        <time>2021-09-09T07:30:12Z</time>
      </trkpt>
      <trkpt lat="46.402164" lon="12.012987">
        <ele>1000.892</ele>
        <time>2021-09-09T07:32:13Z</time>
      </trkpt>
      <trkpt lat="46.402500" lon="12.012656">
        <ele>996.517</ele>
        <time>2021-09-09T07:32:49Z</time>
      </trkpt>
      <trkpt lat="46.402912" lon="12.012795">
        <ele>994.648</ele>
        <time>2021-09-09T07:33:20Z</time>
      </trkpt>
      <trkpt lat="46.403168" lon="12.013133">
        <ele>988.899</ele>
        <time>2021-09-09T07:34:17Z</time>
      </trkpt>
      <trkpt lat="46.403549" lon="12.012965">
        <ele>991.260</ele>
        <time>2021-09-09T07:34:51Z</time>
      </trkpt>
      <trkpt lat="46.403809" lon="12.013214">
        <ele>992.292</ele>
        <time>2021-09-09T07:35:12Z</time>
      </trkpt>
      <trkpt lat="46.404099" lon="12.013126">
        <ele>993.647</ele>
        <time>2021-09-09T07:35:34Z</time>
      </trkpt>
      <trkpt lat="46.404362" lon="12.012651">
        <ele>995.114</ele>
        <time>2021-09-09T07:36:21Z</time>
      </trkpt>
      <trkpt lat="46.405048" lon="12.012361">
        <ele>991.259</ele>
        <time>2021-09-09T07:37:12Z</time>
      </trkpt>
      <trkpt lat="46.405247" lon="12.012084">
        <ele>989.803</ele>
        <time>2021-09-09T07:37:30Z</time>
      </trkpt>
      <trkpt lat="46.405392" lon="12.012037">
        <ele>988.823</ele>
        <time>2021-09-09T07:37:42Z</time>
      </trkpt>
      <trkpt lat="46.405979" lon="12.012041">
        <ele>985.908</ele>
        <time>2021-09-09T07:38:32Z</time>
      </trkpt>
      <trkpt lat="46.406307" lon="12.012364">
        <ele>984.573</ele>
        <time>2021-09-09T07:40:25Z</time>
      </trkpt>
      <trkpt lat="46.406925" lon="12.012496">
        <ele>980.658</ele>
        <time>2021-09-09T07:41:22Z</time>
      </trkpt>
      <trkpt lat="46.407318" lon="12.012269">
        <ele>978.779</ele>
        <time>2021-09-09T07:42:07Z</time>
      </trkpt>
      <trkpt lat="46.407738" lon="12.012341">
        <ele>976.850</ele>
        <time>2021-09-09T07:42:51Z</time>
      </trkpt>
      <trkpt lat="46.408520" lon="12.011804">
        <ele>973.981</ele>
        <time>2021-09-09T07:46:17Z</time>
      </trkpt>
      <trkpt lat="46.409122" lon="12.011964">
        <ele>973.973</ele>
        <time>2021-09-09T07:46:57Z</time>
      </trkpt>
      <trkpt lat="46.409576" lon="12.011931">
        <ele>973.968</ele>
        <time>2021-09-09T07:47:24Z</time>
      </trkpt>
      <trkpt lat="46.409782" lon="12.012155">
        <ele>973.445</ele>
        <time>2021-09-09T07:47:47Z</time>
      </trkpt>
      <trkpt lat="46.409874" lon="12.012527">
        <ele>973.441</ele>
        <time>2021-09-09T07:48:06Z</time>
      </trkpt>
      <trkpt lat="46.410046" lon="12.012715">
        <ele>973.481</ele>
        <time>2021-09-09T07:48:24Z</time>
      </trkpt>
      <trkpt lat="46.410568" lon="12.012928">
        <ele>974.409</ele>
        <time>2021-09-09T07:49:09Z</time>
      </trkpt>
      <trkpt lat="46.410690" lon="12.013311">
        <ele>973.408</ele>
        <time>2021-09-09T07:49:33Z</time>
      </trkpt>
      <trkpt lat="46.410545" lon="12.014234">
        <ele>974.982</ele>
        <time>2021-09-09T07:50:24Z</time>
      </trkpt>
      <trkpt lat="46.410614" lon="12.014704">
        <ele>974.447</ele>
        <time>2021-09-09T07:50:54Z</time>
      </trkpt>
      <trkpt lat="46.410892" lon="12.013619">
        <ele>981.688</ele>
        <time>2021-09-09T07:52:55Z</time>
      </trkpt>
      <trkpt lat="46.410801" lon="12.014158">
        <ele>985.069</ele>
        <time>2021-09-09T07:53:31Z</time>
      </trkpt>
      <trkpt lat="46.410862" lon="12.014550">
        <ele>985.430</ele>
        <time>2021-09-09T07:53:59Z</time>
      </trkpt>
      <trkpt lat="46.411129" lon="12.014283">
        <ele>991.742</ele>
        <time>2021-09-09T07:54:29Z</time>
      </trkpt>
      <trkpt lat="46.411232" lon="12.013997">
        <ele>996.537</ele>
        <time>2021-09-09T07:55:00Z</time>
      </trkpt>
      <trkpt lat="46.411411" lon="12.013985">
        <ele>993.144</ele>
        <time>2021-09-09T07:55:24Z</time>
      </trkpt>
      <trkpt lat="46.412216" lon="12.013592">
        <ele>991.299</ele>
        <time>2021-09-09T07:56:20Z</time>
      </trkpt>
      <trkpt lat="46.412815" lon="12.012976">
        <ele>994.607</ele>
        <time>2021-09-09T07:57:14Z</time>
      </trkpt>
      <trkpt lat="46.413170" lon="12.013165">
        <ele>997.527</ele>
        <time>2021-09-09T07:57:53Z</time>
      </trkpt>
      <trkpt lat="46.413265" lon="12.013397">
        <ele>993.108</ele>
        <time>2021-09-09T07:58:25Z</time>
      </trkpt>
      <trkpt lat="46.414131" lon="12.013288">
        <ele>982.167</ele>
        <time>2021-09-09T08:00:17Z</time>
      </trkpt>
      <trkpt lat="46.414295" lon="12.014360">
        <ele>979.282</ele>
        <time>2021-09-09T08:02:08Z</time>
      </trkpt>
      <trkpt lat="46.413437" lon="12.014769">
        <ele>977.373</ele>
        <time>2021-09-09T08:03:53Z</time>
      </trkpt>
      <trkpt lat="46.412514" lon="12.015597">
        <ele>976.864</ele>
        <time>2021-09-09T08:05:19Z</time>
      </trkpt>
      <trkpt lat="46.411430" lon="12.016324">
        <ele>976.325</ele>
        <time>2021-09-09T08:06:47Z</time>
      </trkpt>
      <trkpt lat="46.411446" lon="12.016791">
        <ele>974.997</ele>
        <time>2021-09-09T08:07:24Z</time>
      </trkpt>
      <trkpt lat="46.411335" lon="12.017299">
        <ele>974.942</ele>
        <time>2021-09-09T08:07:56Z</time>
      </trkpt>
      <trkpt lat="46.410645" lon="12.017480">
        <ele>975.329</ele>
        <time>2021-09-09T08:08:48Z</time>
      </trkpt>
      <trkpt lat="46.409515" lon="12.017314">
        <ele>974.952</ele>
        <time>2021-09-09T08:10:28Z</time>
      </trkpt>
      <trkpt lat="46.409225" lon="12.017484">
        <ele>974.953</ele>
        <time>2021-09-09T08:10:53Z</time>
      </trkpt>
      <trkpt lat="46.408825" lon="12.017785">
        <ele>974.908</ele>
        <time>2021-09-09T08:11:28Z</time>
      </trkpt>
      <trkpt lat="46.408241" lon="12.018539">
        <ele>975.308</ele>
        <time>2021-09-09T08:12:58Z</time>
      </trkpt>
      <trkpt lat="46.408310" lon="12.019085">
        <ele>975.813</ele>
        <time>2021-09-09T08:13:28Z</time>
      </trkpt>
      <trkpt lat="46.408001" lon="12.019114">
        <ele>973.418</ele>
        <time>2021-09-09T08:13:51Z</time>
      </trkpt>
      <trkpt lat="46.407631" lon="12.019279">
        <ele>974.479</ele>
        <time>2021-09-09T08:14:18Z</time>
      </trkpt>
      <trkpt lat="46.407215" lon="12.019736">
        <ele>973.410</ele>
        <time>2021-09-09T08:14:59Z</time>
      </trkpt>
      <trkpt lat="46.407192" lon="12.019882">
        <ele>974.921</ele>
        <time>2021-09-09T08:16:41Z</time>
      </trkpt>
    </trkseg>
  </trk></gpx>