<?xml version="1.0" encoding="UTF-8"?>
<gpx creator="Wikiloc - https://www.wikiloc.com" version="1.1" xmlns="http://www.topografix.com/GPX/1/1" xmlns:xsi="http://www.w3.org/2001/XMLSchema-instance" xsi:schemaLocation="http://www.topografix.com/GPX/1/1 http://www.topografix.com/GPX/1/1/gpx.xsd">
  <metadata>
    <name>Wikiloc - Anello S. Maria del Giudice/Passo di Dante/Passo Croce/Croce...</name>
    <link href="https://www.wikiloc.com/hiking-trails/anello-s-maria-del-giudice-passo-di-dante-passo-croce-croce-a-vaccoli-moriglione-di-penna-s-maria-d-87576262">
      <text>Anello S. Maria del Giudice/Passo di Dante/Passo Croce/Croce... on Wikiloc</text>
    </link>
    <time>2021-10-28T14:05:13Z</time>
  </metadata>
  <trk>
    <name>Anello S. Maria del Giudice/Passo di Dante/Passo Croce/Croce... - Wikiloc</name>
    <cmt></cmt>
    <desc></desc>
    <trkseg>
      <trkpt lat="43.779674" lon="10.457835">
        <ele>85.231</ele>
        <time>2021-10-28T10:35:59Z</time>
      </trkpt>
      <trkpt lat="43.779574" lon="10.457902">
        <ele>84.161</ele>
        <time>2021-10-28T10:36:10Z</time>
      </trkpt>
      <trkpt lat="43.779530" lon="10.458030">
        <ele>82.807</ele>
        <time>2021-10-28T10:36:18Z</time>
      </trkpt>
      <trkpt lat="43.779451" lon="10.457522">
        <ele>82.508</ele>
        <time>2021-10-28T10:36:46Z</time>
      </trkpt>
      <trkpt lat="43.779379" lon="10.457398">
        <ele>83.271</ele>
        <time>2021-10-28T10:36:58Z</time>
      </trkpt>
      <trkpt lat="43.779375" lon="10.457149">
        <ele>85.140</ele>
        <time>2021-10-28T10:37:13Z</time>
      </trkpt>
      <trkpt lat="43.779320" lon="10.457110">
        <ele>85.838</ele>
        <time>2021-10-28T10:37:21Z</time>
      </trkpt>
      <trkpt lat="43.779173" lon="10.457206">
        <ele>86.410</ele>
        <time>2021-10-28T10:37:34Z</time>
      </trkpt>
      <trkpt lat="43.779092" lon="10.457200">
        <ele>86.959</ele>
        <time>2021-10-28T10:37:44Z</time>
      </trkpt>
      <trkpt lat="43.778898" lon="10.456819">
        <ele>94.025</ele>
        <time>2021-10-28T10:38:12Z</time>
      </trkpt>
      <trkpt lat="43.778731" lon="10.456719">
        <ele>97.919</ele>
        <time>2021-10-28T10:38:31Z</time>
      </trkpt>
      <trkpt lat="43.778620" lon="10.456352">
        <ele>102.835</ele>
        <time>2021-10-28T10:38:58Z</time>
      </trkpt>
      <trkpt lat="43.778304" lon="10.456025">
        <ele>108.323</ele>
        <time>2021-10-28T10:39:32Z</time>
      </trkpt>
      <trkpt lat="43.777777" lon="10.455786">
        <ele>116.083</ele>
        <time>2021-10-28T10:40:27Z</time>
      </trkpt>
      <trkpt lat="43.777154" lon="10.455351">
        <ele>119.611</ele>
        <time>2021-10-28T10:41:21Z</time>
      </trkpt>
      <trkpt lat="43.776857" lon="10.455190">
        <ele>119.308</ele>
        <time>2021-10-28T10:41:46Z</time>
      </trkpt>
      <trkpt lat="43.776814" lon="10.455060">
        <ele>119.540</ele>
        <time>2021-10-28T10:41:53Z</time>
      </trkpt>
      <trkpt lat="43.776662" lon="10.455043">
        <ele>121.099</ele>
        <time>2021-10-28T10:42:03Z</time>
      </trkpt>
      <trkpt lat="43.776166" lon="10.454532">
        <ele>123.877</ele>
        <time>2021-10-28T10:42:53Z</time>
      </trkpt>
      <trkpt lat="43.775945" lon="10.454405">
        <ele>125.969</ele>
        <time>2021-10-28T10:43:11Z</time>
      </trkpt>
      <trkpt lat="43.775749" lon="10.454408">
        <ele>128.418</ele>
        <time>2021-10-28T10:43:26Z</time>
      </trkpt>
      <trkpt lat="43.774965" lon="10.454836">
        <ele>140.784</ele>
        <time>2021-10-28T10:44:39Z</time>
      </trkpt>
      <trkpt lat="43.774841" lon="10.454807">
        <ele>142.358</ele>
        <time>2021-10-28T10:44:50Z</time>
      </trkpt>
      <trkpt lat="43.774529" lon="10.454630">
        <ele>148.864</ele>
        <time>2021-10-28T10:45:21Z</time>
      </trkpt>
      <trkpt lat="43.774450" lon="10.454613">
        <ele>149.316</ele>
        <time>2021-10-28T10:45:27Z</time>
      </trkpt>
      <trkpt lat="43.774366" lon="10.454656">
        <ele>149.176</ele>
        <time>2021-10-28T10:45:35Z</time>
      </trkpt>
      <trkpt lat="43.774143" lon="10.454446">
        <ele>153.613</ele>
        <time>2021-10-28T10:45:56Z</time>
      </trkpt>
      <trkpt lat="43.773681" lon="10.454448">
        <ele>167.508</ele>
        <time>2021-10-28T10:46:41Z</time>
      </trkpt>
      <trkpt lat="43.773488" lon="10.454586">
        <ele>170.959</ele>
        <time>2021-10-28T10:47:00Z</time>
      </trkpt>
      <trkpt lat="43.773438" lon="10.455046">
        <ele>166.998</ele>
        <time>2021-10-28T10:47:38Z</time>
      </trkpt>
      <trkpt lat="43.773263" lon="10.455233">
        <ele>169.666</ele>
        <time>2021-10-28T10:47:59Z</time>
      </trkpt>
      <trkpt lat="43.773060" lon="10.455295">
        <ele>173.598</ele>
        <time>2021-10-28T10:48:18Z</time>
      </trkpt>
      <trkpt lat="43.772910" lon="10.455266">
        <ele>176.547</ele>
        <time>2021-10-28T10:48:31Z</time>
      </trkpt>
      <trkpt lat="43.772809" lon="10.455196">
        <ele>178.923</ele>
        <time>2021-10-28T10:48:41Z</time>
      </trkpt>
      <trkpt lat="43.772719" lon="10.455107">
        <ele>181.297</ele>
        <time>2021-10-28T10:48:50Z</time>
      </trkpt>
      <trkpt lat="43.772692" lon="10.455006">
        <ele>182.633</ele>
        <time>2021-10-28T10:48:58Z</time>
      </trkpt>
      <trkpt lat="43.772710" lon="10.454573">
        <ele>189.034</ele>
        <time>2021-10-28T10:49:25Z</time>
      </trkpt>
      <trkpt lat="43.772412" lon="10.454101">
        <ele>195.755</ele>
        <time>2021-10-28T10:50:00Z</time>
      </trkpt>
      <trkpt lat="43.772400" lon="10.453976">
        <ele>196.410</ele>
        <time>2021-10-28T10:50:12Z</time>
      </trkpt>
      <trkpt lat="43.772208" lon="10.453485">
        <ele>198.608</ele>
        <time>2021-10-28T10:50:44Z</time>
      </trkpt>
      <trkpt lat="43.771869" lon="10.452907">
        <ele>201.581</ele>
        <time>2021-10-28T10:51:23Z</time>
      </trkpt>
      <trkpt lat="43.771387" lon="10.452343">
        <ele>202.090</ele>
        <time>2021-10-28T10:52:11Z</time>
      </trkpt>
      <trkpt lat="43.771219" lon="10.451862">
        <ele>210.038</ele>
        <time>2021-10-28T10:52:44Z</time>
      </trkpt>
      <trkpt lat="43.770959" lon="10.451510">
        <ele>216.020</ele>
        <time>2021-10-28T10:53:12Z</time>
      </trkpt>
      <trkpt lat="43.770735" lon="10.451089">
        <ele>219.249</ele>
        <time>2021-10-28T10:53:45Z</time>
      </trkpt>
      <trkpt lat="43.770674" lon="10.450866">
        <ele>219.235</ele>
        <time>2021-10-28T10:53:59Z</time>
      </trkpt>
      <trkpt lat="43.770602" lon="10.450813">
        <ele>218.059</ele>
        <time>2021-10-28T10:54:08Z</time>
      </trkpt>
      <trkpt lat="43.770497" lon="10.450852">
        <ele>218.045</ele>
        <time>2021-10-28T10:54:23Z</time>
      </trkpt>
      <trkpt lat="43.770508" lon="10.450755">
        <ele>218.228</ele>
        <time>2021-10-28T10:54:41Z</time>
      </trkpt>
      <trkpt lat="43.770379" lon="10.450798">
        <ele>217.789</ele>
        <time>2021-10-28T10:55:24Z</time>
      </trkpt>
      <trkpt lat="43.770477" lon="10.450878">
        <ele>216.617</ele>
        <time>2021-10-28T10:55:52Z</time>
      </trkpt>
      <trkpt lat="43.770534" lon="10.450859">
        <ele>216.108</ele>
        <time>2021-10-28T10:55:57Z</time>
      </trkpt>
      <trkpt lat="43.770678" lon="10.450658">
        <ele>218.440</ele>
        <time>2021-10-28T10:56:20Z</time>
      </trkpt>
      <trkpt lat="43.770671" lon="10.450592">
        <ele>220.269</ele>
        <time>2021-10-28T10:56:33Z</time>
      </trkpt>
      <trkpt lat="43.770705" lon="10.450631">
        <ele>223.097</ele>
        <time>2021-10-28T10:56:42Z</time>
      </trkpt>
      <trkpt lat="43.770705" lon="10.450551">
        <ele>224.339</ele>
        <time>2021-10-28T10:56:51Z</time>
      </trkpt>
      <trkpt lat="43.770831" lon="10.450800">
        <ele>225.358</ele>
        <time>2021-10-28T10:57:13Z</time>
      </trkpt>
      <trkpt lat="43.770884" lon="10.450783">
        <ele>226.844</ele>
        <time>2021-10-28T10:57:21Z</time>
      </trkpt>
      <trkpt lat="43.770905" lon="10.450708">
        <ele>228.238</ele>
        <time>2021-10-28T10:57:34Z</time>
      </trkpt>
      <trkpt lat="43.770877" lon="10.450559">
        <ele>227.884</ele>
        <time>2021-10-28T10:57:47Z</time>
      </trkpt>
      <trkpt lat="43.770924" lon="10.450276">
        <ele>225.288</ele>
        <time>2021-10-28T10:58:15Z</time>
      </trkpt>
      <trkpt lat="43.770885" lon="10.450252">
        <ele>223.324</ele>
        <time>2021-10-28T10:58:27Z</time>
      </trkpt>
      <trkpt lat="43.770910" lon="10.449853">
        <ele>222.626</ele>
        <time>2021-10-28T10:58:59Z</time>
      </trkpt>
      <trkpt lat="43.770856" lon="10.449662">
        <ele>221.108</ele>
        <time>2021-10-28T10:59:13Z</time>
      </trkpt>
      <trkpt lat="43.770793" lon="10.448998">
        <ele>220.246</ele>
        <time>2021-10-28T10:59:56Z</time>
      </trkpt>
      <trkpt lat="43.770692" lon="10.448652">
        <ele>218.115</ele>
        <time>2021-10-28T11:00:31Z</time>
      </trkpt>
      <trkpt lat="43.770739" lon="10.448134">
        <ele>220.283</ele>
        <time>2021-10-28T11:01:11Z</time>
      </trkpt>
      <trkpt lat="43.770937" lon="10.447770">
        <ele>218.395</ele>
        <time>2021-10-28T11:01:50Z</time>
      </trkpt>
      <trkpt lat="43.771395" lon="10.447264">
        <ele>218.014</ele>
        <time>2021-10-28T11:02:40Z</time>
      </trkpt>
      <trkpt lat="43.771535" lon="10.446838">
        <ele>209.880</ele>
        <time>2021-10-28T11:03:14Z</time>
      </trkpt>
      <trkpt lat="43.771627" lon="10.446774">
        <ele>210.534</ele>
        <time>2021-10-28T11:03:23Z</time>
      </trkpt>
      <trkpt lat="43.771827" lon="10.446488">
        <ele>211.830</ele>
        <time>2021-10-28T11:03:50Z</time>
      </trkpt>
      <trkpt lat="43.772197" lon="10.445686">
        <ele>213.353</ele>
        <time>2021-10-28T11:04:57Z</time>
      </trkpt>
      <trkpt lat="43.772500" lon="10.445214">
        <ele>215.504</ele>
        <time>2021-10-28T11:05:48Z</time>
      </trkpt>
      <trkpt lat="43.772630" lon="10.445088">
        <ele>216.414</ele>
        <time>2021-10-28T11:06:02Z</time>
      </trkpt>
      <trkpt lat="43.772654" lon="10.444915">
        <ele>211.908</ele>
        <time>2021-10-28T11:06:35Z</time>
      </trkpt>
      <trkpt lat="43.772874" lon="10.444545">
        <ele>208.753</ele>
        <time>2021-10-28T11:07:13Z</time>
      </trkpt>
      <trkpt lat="43.772867" lon="10.444399">
        <ele>205.832</ele>
        <time>2021-10-28T11:07:29Z</time>
      </trkpt>
      <trkpt lat="43.773013" lon="10.444320">
        <ele>205.640</ele>
        <time>2021-10-28T11:07:46Z</time>
      </trkpt>
      <trkpt lat="43.773113" lon="10.444329">
        <ele>206.472</ele>
        <time>2021-10-28T11:07:56Z</time>
      </trkpt>
      <trkpt lat="43.773233" lon="10.444204">
        <ele>206.411</ele>
        <time>2021-10-28T11:08:10Z</time>
      </trkpt>
      <trkpt lat="43.773539" lon="10.444193">
        <ele>206.887</ele>
        <time>2021-10-28T11:08:39Z</time>
      </trkpt>
      <trkpt lat="43.773573" lon="10.444009">
        <ele>203.321</ele>
        <time>2021-10-28T11:09:09Z</time>
      </trkpt>
      <trkpt lat="43.774330" lon="10.444529">
        <ele>211.757</ele>
        <time>2021-10-28T11:10:27Z</time>
      </trkpt>
      <trkpt lat="43.774751" lon="10.444717">
        <ele>212.711</ele>
        <time>2021-10-28T11:11:14Z</time>
      </trkpt>
      <trkpt lat="43.774948" lon="10.445018">
        <ele>214.821</ele>
        <time>2021-10-28T11:11:39Z</time>
      </trkpt>
      <trkpt lat="43.775054" lon="10.445086">
        <ele>215.103</ele>
        <time>2021-10-28T11:11:48Z</time>
      </trkpt>
      <trkpt lat="43.775150" lon="10.445215">
        <ele>215.808</ele>
        <time>2021-10-28T11:11:59Z</time>
      </trkpt>
      <trkpt lat="43.775362" lon="10.445294">
        <ele>216.149</ele>
        <time>2021-10-28T11:12:17Z</time>
      </trkpt>
      <trkpt lat="43.775398" lon="10.445264">
        <ele>216.248</ele>
        <time>2021-10-28T11:12:22Z</time>
      </trkpt>
      <trkpt lat="43.775422" lon="10.444998">
        <ele>217.186</ele>
        <time>2021-10-28T11:12:59Z</time>
      </trkpt>
      <trkpt lat="43.775541" lon="10.444981">
        <ele>218.438</ele>
        <time>2021-10-28T11:13:19Z</time>
      </trkpt>
      <trkpt lat="43.775755" lon="10.444663">
        <ele>223.547</ele>
        <time>2021-10-28T11:13:48Z</time>
      </trkpt>
      <trkpt lat="43.775851" lon="10.444608">
        <ele>224.743</ele>
        <time>2021-10-28T11:13:59Z</time>
      </trkpt>
      <trkpt lat="43.776017" lon="10.444285">
        <ele>233.947</ele>
        <time>2021-10-28T11:14:40Z</time>
      </trkpt>
      <trkpt lat="43.776186" lon="10.444206">
        <ele>238.483</ele>
        <time>2021-10-28T11:15:01Z</time>
      </trkpt>
      <trkpt lat="43.776540" lon="10.444178">
        <ele>245.681</ele>
        <time>2021-10-28T11:15:38Z</time>
      </trkpt>
      <trkpt lat="43.776699" lon="10.444227">
        <ele>249.361</ele>
        <time>2021-10-28T11:15:54Z</time>
      </trkpt>
      <trkpt lat="43.776753" lon="10.444205">
        <ele>250.617</ele>
        <time>2021-10-28T11:16:00Z</time>
      </trkpt>
      <trkpt lat="43.776744" lon="10.444148">
        <ele>251.308</ele>
        <time>2021-10-28T11:16:05Z</time>
      </trkpt>
      <trkpt lat="43.776521" lon="10.443853">
        <ele>254.176</ele>
        <time>2021-10-28T11:16:41Z</time>
      </trkpt>
      <trkpt lat="43.776375" lon="10.443738">
        <ele>253.195</ele>
        <time>2021-10-28T11:16:58Z</time>
      </trkpt>
      <trkpt lat="43.776246" lon="10.443521">
        <ele>253.963</ele>
        <time>2021-10-28T11:17:19Z</time>
      </trkpt>
      <trkpt lat="43.776129" lon="10.443014">
        <ele>263.215</ele>
        <time>2021-10-28T11:18:17Z</time>
      </trkpt>
      <trkpt lat="43.776263" lon="10.443080">
        <ele>266.074</ele>
        <time>2021-10-28T11:18:36Z</time>
      </trkpt>
      <trkpt lat="43.776421" lon="10.443084">
        <ele>270.610</ele>
        <time>2021-10-28T11:18:53Z</time>
      </trkpt>
      <trkpt lat="43.776529" lon="10.443031">
        <ele>274.644</ele>
        <time>2021-10-28T11:19:10Z</time>
      </trkpt>
      <trkpt lat="43.776996" lon="10.443210">
        <ele>286.160</ele>
        <time>2021-10-28T11:20:15Z</time>
      </trkpt>
      <trkpt lat="43.777123" lon="10.443219">
        <ele>289.589</ele>
        <time>2021-10-28T11:20:30Z</time>
      </trkpt>
      <trkpt lat="43.777176" lon="10.443301">
        <ele>291.406</ele>
        <time>2021-10-28T11:20:45Z</time>
      </trkpt>
      <trkpt lat="43.777407" lon="10.443391">
        <ele>295.526</ele>
        <time>2021-10-28T11:21:12Z</time>
      </trkpt>
      <trkpt lat="43.777628" lon="10.443574">
        <ele>300.808</ele>
        <time>2021-10-28T11:21:37Z</time>
      </trkpt>
      <trkpt lat="43.777797" lon="10.443622">
        <ele>305.686</ele>
        <time>2021-10-28T11:21:52Z</time>
      </trkpt>
      <trkpt lat="43.777949" lon="10.443762">
        <ele>304.655</ele>
        <time>2021-10-28T11:22:20Z</time>
      </trkpt>
      <trkpt lat="43.777924" lon="10.443581">
        <ele>309.213</ele>
        <time>2021-10-28T11:22:52Z</time>
      </trkpt>
      <trkpt lat="43.777955" lon="10.443566">
        <ele>310.085</ele>
        <time>2021-10-28T11:23:03Z</time>
      </trkpt>
      <trkpt lat="43.777922" lon="10.443600">
        <ele>309.584</ele>
        <time>2021-10-28T11:23:11Z</time>
      </trkpt>
      <trkpt lat="43.777976" lon="10.443733">
        <ele>306.660</ele>
        <time>2021-10-28T11:23:30Z</time>
      </trkpt>
      <trkpt lat="43.778010" lon="10.443738">
        <ele>306.524</ele>
        <time>2021-10-28T11:23:34Z</time>
      </trkpt>
      <trkpt lat="43.778043" lon="10.443636">
        <ele>308.490</ele>
        <time>2021-10-28T11:23:52Z</time>
      </trkpt>
      <trkpt lat="43.777959" lon="10.443772">
        <ele>306.396</ele>
        <time>2021-10-28T11:24:15Z</time>
      </trkpt>
      <trkpt lat="43.778035" lon="10.443731">
        <ele>305.831</ele>
        <time>2021-10-28T11:24:35Z</time>
      </trkpt>
      <trkpt lat="43.778077" lon="10.443647">
        <ele>308.224</ele>
        <time>2021-10-28T11:24:45Z</time>
      </trkpt>
      <trkpt lat="43.778048" lon="10.443736">
        <ele>308.208</ele>
        <time>2021-10-28T11:25:06Z</time>
      </trkpt>
      <trkpt lat="43.778102" lon="10.443674">
        <ele>309.167</ele>
        <time>2021-10-28T11:25:41Z</time>
      </trkpt>
      <trkpt lat="43.777998" lon="10.443667">
        <ele>310.086</ele>
        <time>2021-10-28T11:26:20Z</time>
      </trkpt>
      <trkpt lat="43.777988" lon="10.443767">
        <ele>306.424</ele>
        <time>2021-10-28T11:28:53Z</time>
      </trkpt>
      <trkpt lat="43.778025" lon="10.443803">
        <ele>305.496</ele>
        <time>2021-10-28T11:29:04Z</time>
      </trkpt>
      <trkpt lat="43.778273" lon="10.443830">
        <ele>303.615</ele>
        <time>2021-10-28T11:29:39Z</time>
      </trkpt>
      <trkpt lat="43.778455" lon="10.443765">
        <ele>305.051</ele>
        <time>2021-10-28T11:29:59Z</time>
      </trkpt>
      <trkpt lat="43.778618" lon="10.443630">
        <ele>307.895</ele>
        <time>2021-10-28T11:30:28Z</time>
      </trkpt>
      <trkpt lat="43.778700" lon="10.443411">
        <ele>310.111</ele>
        <time>2021-10-28T11:30:44Z</time>
      </trkpt>
      <trkpt lat="43.778672" lon="10.443009">
        <ele>315.781</ele>
        <time>2021-10-28T11:31:16Z</time>
      </trkpt>
      <trkpt lat="43.778459" lon="10.442024">
        <ele>327.461</ele>
        <time>2021-10-28T11:32:29Z</time>
      </trkpt>
      <trkpt lat="43.778474" lon="10.441693">
        <ele>334.917</ele>
        <time>2021-10-28T11:33:11Z</time>
      </trkpt>
      <trkpt lat="43.778539" lon="10.441463">
        <ele>337.908</ele>
        <time>2021-10-28T11:33:30Z</time>
      </trkpt>
      <trkpt lat="43.778489" lon="10.441291">
        <ele>343.166</ele>
        <time>2021-10-28T11:33:53Z</time>
      </trkpt>
      <trkpt lat="43.778541" lon="10.441024">
        <ele>345.645</ele>
        <time>2021-10-28T11:34:16Z</time>
      </trkpt>
      <trkpt lat="43.778477" lon="10.440835">
        <ele>345.993</ele>
        <time>2021-10-28T11:34:37Z</time>
      </trkpt>
      <trkpt lat="43.778452" lon="10.440543">
        <ele>339.575</ele>
        <time>2021-10-28T11:35:17Z</time>
      </trkpt>
      <trkpt lat="43.778525" lon="10.440516">
        <ele>339.264</ele>
        <time>2021-10-28T11:35:39Z</time>
      </trkpt>
      <trkpt lat="43.778590" lon="10.440548">
        <ele>339.980</ele>
        <time>2021-10-28T11:35:57Z</time>
      </trkpt>
      <trkpt lat="43.778862" lon="10.440472">
        <ele>341.344</ele>
        <time>2021-10-28T11:36:20Z</time>
      </trkpt>
      <trkpt lat="43.779033" lon="10.440372">
        <ele>342.950</ele>
        <time>2021-10-28T11:36:35Z</time>
      </trkpt>
      <trkpt lat="43.779125" lon="10.440282">
        <ele>343.044</ele>
        <time>2021-10-28T11:36:44Z</time>
      </trkpt>
      <trkpt lat="43.779390" lon="10.439831">
        <ele>341.405</ele>
        <time>2021-10-28T11:37:22Z</time>
      </trkpt>
      <trkpt lat="43.779794" lon="10.439587">
        <ele>347.315</ele>
        <time>2021-10-28T11:38:03Z</time>
      </trkpt>
      <trkpt lat="43.780310" lon="10.439583">
        <ele>358.008</ele>
        <time>2021-10-28T11:38:51Z</time>
      </trkpt>
      <trkpt lat="43.780594" lon="10.439434">
        <ele>358.512</ele>
        <time>2021-10-28T11:39:12Z</time>
      </trkpt>
      <trkpt lat="43.780690" lon="10.439422">
        <ele>359.571</ele>
        <time>2021-10-28T11:39:20Z</time>
      </trkpt>
      <trkpt lat="43.780666" lon="10.439535">
        <ele>361.789</ele>
        <time>2021-10-28T11:39:33Z</time>
      </trkpt>
      <trkpt lat="43.780475" lon="10.439707">
        <ele>365.961</ele>
        <time>2021-10-28T11:39:59Z</time>
      </trkpt>
      <trkpt lat="43.780315" lon="10.439948">
        <ele>369.020</ele>
        <time>2021-10-28T11:40:25Z</time>
      </trkpt>
      <trkpt lat="43.780316" lon="10.440053">
        <ele>369.316</ele>
        <time>2021-10-28T11:40:32Z</time>
      </trkpt>
      <trkpt lat="43.780499" lon="10.440318">
        <ele>372.150</ele>
        <time>2021-10-28T11:41:20Z</time>
      </trkpt>
      <trkpt lat="43.780793" lon="10.440291">
        <ele>377.616</ele>
        <time>2021-10-28T11:41:48Z</time>
      </trkpt>
      <trkpt lat="43.781077" lon="10.440335">
        <ele>385.984</ele>
        <time>2021-10-28T11:42:22Z</time>
      </trkpt>
      <trkpt lat="43.781470" lon="10.440161">
        <ele>397.607</ele>
        <time>2021-10-28T11:43:23Z</time>
      </trkpt>
      <trkpt lat="43.781807" lon="10.439867">
        <ele>403.717</ele>
        <time>2021-10-28T11:44:08Z</time>
      </trkpt>
      <trkpt lat="43.782137" lon="10.439675">
        <ele>406.708</ele>
        <time>2021-10-28T11:44:50Z</time>
      </trkpt>
      <trkpt lat="43.782294" lon="10.439647">
        <ele>408.356</ele>
        <time>2021-10-28T11:45:05Z</time>
      </trkpt>
      <trkpt lat="43.782399" lon="10.439565">
        <ele>410.035</ele>
        <time>2021-10-28T11:45:17Z</time>
      </trkpt>
      <trkpt lat="43.782852" lon="10.439382">
        <ele>415.073</ele>
        <time>2021-10-28T11:45:57Z</time>
      </trkpt>
      <trkpt lat="43.783372" lon="10.439430">
        <ele>414.415</ele>
        <time>2021-10-28T11:46:39Z</time>
      </trkpt>
      <trkpt lat="43.783583" lon="10.439366">
        <ele>418.764</ele>
        <time>2021-10-28T11:47:00Z</time>
      </trkpt>
      <trkpt lat="43.784191" lon="10.439330">
        <ele>428.770</ele>
        <time>2021-10-28T11:48:09Z</time>
      </trkpt>
      <trkpt lat="43.784395" lon="10.439211">
        <ele>430.724</ele>
        <time>2021-10-28T11:48:28Z</time>
      </trkpt>
      <trkpt lat="43.784657" lon="10.438960">
        <ele>429.230</ele>
        <time>2021-10-28T11:49:00Z</time>
      </trkpt>
      <trkpt lat="43.784836" lon="10.438929">
        <ele>426.933</ele>
        <time>2021-10-28T11:49:14Z</time>
      </trkpt>
      <trkpt lat="43.784922" lon="10.438986">
        <ele>425.923</ele>
        <time>2021-10-28T11:49:22Z</time>
      </trkpt>
      <trkpt lat="43.784979" lon="10.439373">
        <ele>424.915</ele>
        <time>2021-10-28T11:49:59Z</time>
      </trkpt>
      <trkpt lat="43.785046" lon="10.439448">
        <ele>423.508</ele>
        <time>2021-10-28T11:50:10Z</time>
      </trkpt>
      <trkpt lat="43.785187" lon="10.439477">
        <ele>420.271</ele>
        <time>2021-10-28T11:50:32Z</time>
      </trkpt>
      <trkpt lat="43.785266" lon="10.439604">
        <ele>417.950</ele>
        <time>2021-10-28T11:50:49Z</time>
      </trkpt>
      <trkpt lat="43.785478" lon="10.439709">
        <ele>411.578</ele>
        <time>2021-10-28T11:51:16Z</time>
      </trkpt>
      <trkpt lat="43.785665" lon="10.439795">
        <ele>408.010</ele>
        <time>2021-10-28T11:51:34Z</time>
      </trkpt>
      <trkpt lat="43.785763" lon="10.439790">
        <ele>407.269</ele>
        <time>2021-10-28T11:51:43Z</time>
      </trkpt>
      <trkpt lat="43.785832" lon="10.439746">
        <ele>406.345</ele>
        <time>2021-10-28T11:51:49Z</time>
      </trkpt>
      <trkpt lat="43.785972" lon="10.439476">
        <ele>401.999</ele>
        <time>2021-10-28T11:52:14Z</time>
      </trkpt>
      <trkpt lat="43.786250" lon="10.439518">
        <ele>401.255</ele>
        <time>2021-10-28T11:52:40Z</time>
      </trkpt>
      <trkpt lat="43.786414" lon="10.439629">
        <ele>401.726</ele>
        <time>2021-10-28T11:52:57Z</time>
      </trkpt>
      <trkpt lat="43.786521" lon="10.439632">
        <ele>401.947</ele>
        <time>2021-10-28T11:53:15Z</time>
      </trkpt>
      <trkpt lat="43.786879" lon="10.439434">
        <ele>405.611</ele>
        <time>2021-10-28T11:53:46Z</time>
      </trkpt>
      <trkpt lat="43.787084" lon="10.439145">
        <ele>415.008</ele>
        <time>2021-10-28T11:54:24Z</time>
      </trkpt>
      <trkpt lat="43.787494" lon="10.438340">
        <ele>429.070</ele>
        <time>2021-10-28T11:55:46Z</time>
      </trkpt>
      <trkpt lat="43.787682" lon="10.438366">
        <ele>430.699</ele>
        <time>2021-10-28T11:56:08Z</time>
      </trkpt>
      <trkpt lat="43.787836" lon="10.438596">
        <ele>431.617</ele>
        <time>2021-10-28T11:56:30Z</time>
      </trkpt>
      <trkpt lat="43.788072" lon="10.438712">
        <ele>432.929</ele>
        <time>2021-10-28T11:56:53Z</time>
      </trkpt>
      <trkpt lat="43.788340" lon="10.438917">
        <ele>435.258</ele>
        <time>2021-10-28T11:57:22Z</time>
      </trkpt>
      <trkpt lat="43.788558" lon="10.439240">
        <ele>436.664</ele>
        <time>2021-10-28T11:57:52Z</time>
      </trkpt>
      <trkpt lat="43.788644" lon="10.439566">
        <ele>436.918</ele>
        <time>2021-10-28T11:58:13Z</time>
      </trkpt>
      <trkpt lat="43.788794" lon="10.439728">
        <ele>437.884</ele>
        <time>2021-10-28T11:58:28Z</time>
      </trkpt>
      <trkpt lat="43.789178" lon="10.439925">
        <ele>445.875</ele>
        <time>2021-10-28T11:59:09Z</time>
      </trkpt>
      <trkpt lat="43.789608" lon="10.440055">
        <ele>447.428</ele>
        <time>2021-10-28T12:00:12Z</time>
      </trkpt>
      <trkpt lat="43.789760" lon="10.440177">
        <ele>445.520</ele>
        <time>2021-10-28T12:00:29Z</time>
      </trkpt>
      <trkpt lat="43.789795" lon="10.440352">
        <ele>444.108</ele>
        <time>2021-10-28T12:00:41Z</time>
      </trkpt>
      <trkpt lat="43.789878" lon="10.440447">
        <ele>442.965</ele>
        <time>2021-10-28T12:00:50Z</time>
      </trkpt>
      <trkpt lat="43.789948" lon="10.440412">
        <ele>442.174</ele>
        <time>2021-10-28T12:01:00Z</time>
      </trkpt>
      <trkpt lat="43.790196" lon="10.440054">
        <ele>438.032</ele>
        <time>2021-10-28T12:01:32Z</time>
      </trkpt>
      <trkpt lat="43.790278" lon="10.440008">
        <ele>436.384</ele>
        <time>2021-10-28T12:01:45Z</time>
      </trkpt>
      <trkpt lat="43.790357" lon="10.440028">
        <ele>434.473</ele>
        <time>2021-10-28T12:02:03Z</time>
      </trkpt>
      <trkpt lat="43.790648" lon="10.439925">
        <ele>427.359</ele>
        <time>2021-10-28T12:02:33Z</time>
      </trkpt>
      <trkpt lat="43.790957" lon="10.439933">
        <ele>419.393</ele>
        <time>2021-10-28T12:03:04Z</time>
      </trkpt>
      <trkpt lat="43.791350" lon="10.439781">
        <ele>411.829</ele>
        <time>2021-10-28T12:03:50Z</time>
      </trkpt>
      <trkpt lat="43.791562" lon="10.439641">
        <ele>405.543</ele>
        <time>2021-10-28T12:04:18Z</time>
      </trkpt>
      <trkpt lat="43.791567" lon="10.439601">
        <ele>401.964</ele>
        <time>2021-10-28T12:04:38Z</time>
      </trkpt>
      <trkpt lat="43.791737" lon="10.439530">
        <ele>398.910</ele>
        <time>2021-10-28T12:04:51Z</time>
      </trkpt>
      <trkpt lat="43.791799" lon="10.439534">
        <ele>397.208</ele>
        <time>2021-10-28T12:04:57Z</time>
      </trkpt>
      <trkpt lat="43.791999" lon="10.439689">
        <ele>393.372</ele>
        <time>2021-10-28T12:05:15Z</time>
      </trkpt>
      <trkpt lat="43.792134" lon="10.439727">
        <ele>390.181</ele>
        <time>2021-10-28T12:05:31Z</time>
      </trkpt>
      <trkpt lat="43.792199" lon="10.439813">
        <ele>388.729</ele>
        <time>2021-10-28T12:05:38Z</time>
      </trkpt>
      <trkpt lat="43.792177" lon="10.439870">
        <ele>387.771</ele>
        <time>2021-10-28T12:05:50Z</time>
      </trkpt>
      <trkpt lat="43.792237" lon="10.440104">
        <ele>385.860</ele>
        <time>2021-10-28T12:06:06Z</time>
      </trkpt>
      <trkpt lat="43.792181" lon="10.440385">
        <ele>383.756</ele>
        <time>2021-10-28T12:06:24Z</time>
      </trkpt>
      <trkpt lat="43.792218" lon="10.441793">
        <ele>380.190</ele>
        <time>2021-10-28T12:07:56Z</time>
      </trkpt>
      <trkpt lat="43.792258" lon="10.442014">
        <ele>380.096</ele>
        <time>2021-10-28T12:08:13Z</time>
      </trkpt>
      <trkpt lat="43.792211" lon="10.442489">
        <ele>377.959</ele>
        <time>2021-10-28T12:08:40Z</time>
      </trkpt>
      <trkpt lat="43.792247" lon="10.442762">
        <ele>377.103</ele>
        <time>2021-10-28T12:08:55Z</time>
      </trkpt>
      <trkpt lat="43.792518" lon="10.443633">
        <ele>372.423</ele>
        <time>2021-10-28T12:09:53Z</time>
      </trkpt>
      <trkpt lat="43.792582" lon="10.443691">
        <ele>372.508</ele>
        <time>2021-10-28T12:10:07Z</time>
      </trkpt>
      <trkpt lat="43.792594" lon="10.443760">
        <ele>371.943</ele>
        <time>2021-10-28T12:10:16Z</time>
      </trkpt>
      <trkpt lat="43.792747" lon="10.443833">
        <ele>371.242</ele>
        <time>2021-10-28T12:10:27Z</time>
      </trkpt>
      <trkpt lat="43.792829" lon="10.444124">
        <ele>368.280</ele>
        <time>2021-10-28T12:10:44Z</time>
      </trkpt>
      <trkpt lat="43.792973" lon="10.444394">
        <ele>363.932</ele>
        <time>2021-10-28T12:11:02Z</time>
      </trkpt>
      <trkpt lat="43.793092" lon="10.444747">
        <ele>359.391</ele>
        <time>2021-10-28T12:11:28Z</time>
      </trkpt>
      <trkpt lat="43.793304" lon="10.444890">
        <ele>357.887</ele>
        <time>2021-10-28T12:11:58Z</time>
      </trkpt>
      <trkpt lat="43.793546" lon="10.444801">
        <ele>358.921</ele>
        <time>2021-10-28T12:12:17Z</time>
      </trkpt>
      <trkpt lat="43.793785" lon="10.444916">
        <ele>358.197</ele>
        <time>2021-10-28T12:12:40Z</time>
      </trkpt>
      <trkpt lat="43.793812" lon="10.444989">
        <ele>356.861</ele>
        <time>2021-10-28T12:13:01Z</time>
      </trkpt>
      <trkpt lat="43.793960" lon="10.444937">
        <ele>356.821</ele>
        <time>2021-10-28T12:13:13Z</time>
      </trkpt>
      <trkpt lat="43.794160" lon="10.445010">
        <ele>357.713</ele>
        <time>2021-10-28T12:13:31Z</time>
      </trkpt>
      <trkpt lat="43.794610" lon="10.444875">
        <ele>358.808</ele>
        <time>2021-10-28T12:14:06Z</time>
      </trkpt>
      <trkpt lat="43.794774" lon="10.444701">
        <ele>359.294</ele>
        <time>2021-10-28T12:14:25Z</time>
      </trkpt>
      <trkpt lat="43.794856" lon="10.444752">
        <ele>359.023</ele>
        <time>2021-10-28T12:14:35Z</time>
      </trkpt>
      <trkpt lat="43.795448" lon="10.444773">
        <ele>356.331</ele>
        <time>2021-10-28T12:15:23Z</time>
      </trkpt>
      <trkpt lat="43.795639" lon="10.444940">
        <ele>355.133</ele>
        <time>2021-10-28T12:15:41Z</time>
      </trkpt>
      <trkpt lat="43.795962" lon="10.445094">
        <ele>356.592</ele>
        <time>2021-10-28T12:16:09Z</time>
      </trkpt>
      <trkpt lat="43.796065" lon="10.445334">
        <ele>356.368</ele>
        <time>2021-10-28T12:16:25Z</time>
      </trkpt>
      <trkpt lat="43.796266" lon="10.445622">
        <ele>357.512</ele>
        <time>2021-10-28T12:16:47Z</time>
      </trkpt>
      <trkpt lat="43.796376" lon="10.445659">
        <ele>357.518</ele>
        <time>2021-10-28T12:16:57Z</time>
      </trkpt>
      <trkpt lat="43.796653" lon="10.445556">
        <ele>354.348</ele>
        <time>2021-10-28T12:17:18Z</time>
      </trkpt>
      <trkpt lat="43.796754" lon="10.445594">
        <ele>352.061</ele>
        <time>2021-10-28T12:17:27Z</time>
      </trkpt>
      <trkpt lat="43.796843" lon="10.445786">
        <ele>350.717</ele>
        <time>2021-10-28T12:17:42Z</time>
      </trkpt>
      <trkpt lat="43.796863" lon="10.445939">
        <ele>349.708</ele>
        <time>2021-10-28T12:17:52Z</time>
      </trkpt>
      <trkpt lat="43.796866" lon="10.446266">
        <ele>347.892</ele>
        <time>2021-10-28T12:18:08Z</time>
      </trkpt>
      <trkpt lat="43.796807" lon="10.446466">
        <ele>349.441</ele>
        <time>2021-10-28T12:18:20Z</time>
      </trkpt>
      <trkpt lat="43.796834" lon="10.446566">
        <ele>350.419</ele>
        <time>2021-10-28T12:18:25Z</time>
      </trkpt>
      <trkpt lat="43.796958" lon="10.446621">
        <ele>351.991</ele>
        <time>2021-10-28T12:18:35Z</time>
      </trkpt>
      <trkpt lat="43.797062" lon="10.446786">
        <ele>354.790</ele>
        <time>2021-10-28T12:18:52Z</time>
      </trkpt>
      <trkpt lat="43.797254" lon="10.446736">
        <ele>356.096</ele>
        <time>2021-10-28T12:19:10Z</time>
      </trkpt>
      <trkpt lat="43.797463" lon="10.446781">
        <ele>358.050</ele>
        <time>2021-10-28T12:19:35Z</time>
      </trkpt>
      <trkpt lat="43.797564" lon="10.446890">
        <ele>361.116</ele>
        <time>2021-10-28T12:19:48Z</time>
      </trkpt>
      <trkpt lat="43.797686" lon="10.447220">
        <ele>362.696</ele>
        <time>2021-10-28T12:20:36Z</time>
      </trkpt>
      <trkpt lat="43.797836" lon="10.447388">
        <ele>363.131</ele>
        <time>2021-10-28T12:20:53Z</time>
      </trkpt>
      <trkpt lat="43.798067" lon="10.447829">
        <ele>360.124</ele>
        <time>2021-10-28T12:21:24Z</time>
      </trkpt>
      <trkpt lat="43.798203" lon="10.448443">
        <ele>362.408</ele>
        <time>2021-10-28T12:22:10Z</time>
      </trkpt>
      <trkpt lat="43.798166" lon="10.448789">
        <ele>365.817</ele>
        <time>2021-10-28T12:22:30Z</time>
      </trkpt>
      <trkpt lat="43.798237" lon="10.449215">
        <ele>367.326</ele>
        <time>2021-10-28T12:23:00Z</time>
      </trkpt>
      <trkpt lat="43.798221" lon="10.449380">
        <ele>367.584</ele>
        <time>2021-10-28T12:23:20Z</time>
      </trkpt>
      <trkpt lat="43.798343" lon="10.449521">
        <ele>365.626</ele>
        <time>2021-10-28T12:23:44Z</time>
      </trkpt>
      <trkpt lat="43.798522" lon="10.449633">
        <ele>363.695</ele>
        <time>2021-10-28T12:24:02Z</time>
      </trkpt>
      <trkpt lat="43.798892" lon="10.450425">
        <ele>367.251</ele>
        <time>2021-10-28T12:24:58Z</time>
      </trkpt>
      <trkpt lat="43.799711" lon="10.450934">
        <ele>363.025</ele>
        <time>2021-10-28T12:26:08Z</time>
      </trkpt>
      <trkpt lat="43.800114" lon="10.451323">
        <ele>355.221</ele>
        <time>2021-10-28T12:26:51Z</time>
      </trkpt>
      <trkpt lat="43.800261" lon="10.451617">
        <ele>354.685</ele>
        <time>2021-10-28T12:27:18Z</time>
      </trkpt>
      <trkpt lat="43.800307" lon="10.451639">
        <ele>354.789</ele>
        <time>2021-10-28T12:27:26Z</time>
      </trkpt>
      <trkpt lat="43.800262" lon="10.451712">
        <ele>355.217</ele>
        <time>2021-10-28T12:27:44Z</time>
      </trkpt>
      <trkpt lat="43.800137" lon="10.451678">
        <ele>355.408</ele>
        <time>2021-10-28T12:30:01Z</time>
      </trkpt>
      <trkpt lat="43.800019" lon="10.451724">
        <ele>356.886</ele>
        <time>2021-10-28T12:30:10Z</time>
      </trkpt>
      <trkpt lat="43.799811" lon="10.451892">
        <ele>360.345</ele>
        <time>2021-10-28T12:30:28Z</time>
      </trkpt>
      <trkpt lat="43.799666" lon="10.451880">
        <ele>364.163</ele>
        <time>2021-10-28T12:30:49Z</time>
      </trkpt>
      <trkpt lat="43.799422" lon="10.451959">
        <ele>368.435</ele>
        <time>2021-10-28T12:31:10Z</time>
      </trkpt>
      <trkpt lat="43.799253" lon="10.452111">
        <ele>370.554</ele>
        <time>2021-10-28T12:31:28Z</time>
      </trkpt>
      <trkpt lat="43.799061" lon="10.452435">
        <ele>373.660</ele>
        <time>2021-10-28T12:31:54Z</time>
      </trkpt>
      <trkpt lat="43.799076" lon="10.452502">
        <ele>375.524</ele>
        <time>2021-10-28T12:32:00Z</time>
      </trkpt>
      <trkpt lat="43.799312" lon="10.452768">
        <ele>375.170</ele>
        <time>2021-10-28T12:32:30Z</time>
      </trkpt>
      <trkpt lat="43.799500" lon="10.453315">
        <ele>379.231</ele>
        <time>2021-10-28T12:33:10Z</time>
      </trkpt>
      <trkpt lat="43.799522" lon="10.453523">
        <ele>382.661</ele>
        <time>2021-10-28T12:33:28Z</time>
      </trkpt>
      <trkpt lat="43.799487" lon="10.453949">
        <ele>392.407</ele>
        <time>2021-10-28T12:34:00Z</time>
      </trkpt>
      <trkpt lat="43.799527" lon="10.454176">
        <ele>392.708</ele>
        <time>2021-10-28T12:34:17Z</time>
      </trkpt>
      <trkpt lat="43.799449" lon="10.454313">
        <ele>393.051</ele>
        <time>2021-10-28T12:34:36Z</time>
      </trkpt>
      <trkpt lat="43.799442" lon="10.454439">
        <ele>392.540</ele>
        <time>2021-10-28T12:34:48Z</time>
      </trkpt>
      <trkpt lat="43.799357" lon="10.454494">
        <ele>391.938</ele>
        <time>2021-10-28T12:34:58Z</time>
      </trkpt>
      <trkpt lat="43.799304" lon="10.454630">
        <ele>391.380</ele>
        <time>2021-10-28T12:35:25Z</time>
      </trkpt>
      <trkpt lat="43.799439" lon="10.454325">
        <ele>394.239</ele>
        <time>2021-10-28T12:35:47Z</time>
      </trkpt>
      <trkpt lat="43.799429" lon="10.454245">
        <ele>394.875</ele>
        <time>2021-10-28T12:35:54Z</time>
      </trkpt>
      <trkpt lat="43.799099" lon="10.454241">
        <ele>397.399</ele>
        <time>2021-10-28T12:36:26Z</time>
      </trkpt>
      <trkpt lat="43.798990" lon="10.454131">
        <ele>399.655</ele>
        <time>2021-10-28T12:36:38Z</time>
      </trkpt>
      <trkpt lat="43.798754" lon="10.453736">
        <ele>401.923</ele>
        <time>2021-10-28T12:37:16Z</time>
      </trkpt>
      <trkpt lat="43.798561" lon="10.453629">
        <ele>404.583</ele>
        <time>2021-10-28T12:37:38Z</time>
      </trkpt>
      <trkpt lat="43.798444" lon="10.453676">
        <ele>408.611</ele>
        <time>2021-10-28T12:37:53Z</time>
      </trkpt>
      <trkpt lat="43.798234" lon="10.453888">
        <ele>416.708</ele>
        <time>2021-10-28T12:38:34Z</time>
      </trkpt>
      <trkpt lat="43.798033" lon="10.453956">
        <ele>423.070</ele>
        <time>2021-10-28T12:39:02Z</time>
      </trkpt>
      <trkpt lat="43.797976" lon="10.454047">
        <ele>424.879</ele>
        <time>2021-10-28T12:39:12Z</time>
      </trkpt>
      <trkpt lat="43.797897" lon="10.454072">
        <ele>425.927</ele>
        <time>2021-10-28T12:39:47Z</time>
      </trkpt>
      <trkpt lat="43.797859" lon="10.454161">
        <ele>427.959</ele>
        <time>2021-10-28T12:39:58Z</time>
      </trkpt>
      <trkpt lat="43.797792" lon="10.454123">
        <ele>429.628</ele>
        <time>2021-10-28T12:40:06Z</time>
      </trkpt>
      <trkpt lat="43.797644" lon="10.454146">
        <ele>433.744</ele>
        <time>2021-10-28T12:40:24Z</time>
      </trkpt>
      <trkpt lat="43.797446" lon="10.454063">
        <ele>440.118</ele>
        <time>2021-10-28T12:40:50Z</time>
      </trkpt>
      <trkpt lat="43.797282" lon="10.453950">
        <ele>443.874</ele>
        <time>2021-10-28T12:41:11Z</time>
      </trkpt>
      <trkpt lat="43.797014" lon="10.453665">
        <ele>450.591</ele>
        <time>2021-10-28T12:41:48Z</time>
      </trkpt>
      <trkpt lat="43.796829" lon="10.453569">
        <ele>454.381</ele>
        <time>2021-10-28T12:42:12Z</time>
      </trkpt>
      <trkpt lat="43.796741" lon="10.453238">
        <ele>453.519</ele>
        <time>2021-10-28T12:42:38Z</time>
      </trkpt>
      <trkpt lat="43.796533" lon="10.453091">
        <ele>456.008</ele>
        <time>2021-10-28T12:43:08Z</time>
      </trkpt>
      <trkpt lat="43.796396" lon="10.452865">
        <ele>457.097</ele>
        <time>2021-10-28T12:43:28Z</time>
      </trkpt>
      <trkpt lat="43.796271" lon="10.452745">
        <ele>457.026</ele>
        <time>2021-10-28T12:43:46Z</time>
      </trkpt>
      <trkpt lat="43.796122" lon="10.452734">
        <ele>460.124</ele>
        <time>2021-10-28T12:44:12Z</time>
      </trkpt>
      <trkpt lat="43.796167" lon="10.452710">
        <ele>460.696</ele>
        <time>2021-10-28T12:44:17Z</time>
      </trkpt>
      <trkpt lat="43.796072" lon="10.452809">
        <ele>462.675</ele>
        <time>2021-10-28T12:44:26Z</time>
      </trkpt>
      <trkpt lat="43.795850" lon="10.453225">
        <ele>472.211</ele>
        <time>2021-10-28T12:45:01Z</time>
      </trkpt>
      <trkpt lat="43.795699" lon="10.453294">
        <ele>475.845</ele>
        <time>2021-10-28T12:45:18Z</time>
      </trkpt>
      <trkpt lat="43.795498" lon="10.453539">
        <ele>482.121</ele>
        <time>2021-10-28T12:45:47Z</time>
      </trkpt>
      <trkpt lat="43.795144" lon="10.453792">
        <ele>492.334</ele>
        <time>2021-10-28T12:46:38Z</time>
      </trkpt>
      <trkpt lat="43.795042" lon="10.453792">
        <ele>494.355</ele>
        <time>2021-10-28T12:46:52Z</time>
      </trkpt>
      <trkpt lat="43.794879" lon="10.453718">
        <ele>498.210</ele>
        <time>2021-10-28T12:47:15Z</time>
      </trkpt>
      <trkpt lat="43.794676" lon="10.453823">
        <ele>504.808</ele>
        <time>2021-10-28T12:47:43Z</time>
      </trkpt>
      <trkpt lat="43.794273" lon="10.453818">
        <ele>514.631</ele>
        <time>2021-10-28T12:48:37Z</time>
      </trkpt>
      <trkpt lat="43.794151" lon="10.453773">
        <ele>517.520</ele>
        <time>2021-10-28T12:48:52Z</time>
      </trkpt>
      <trkpt lat="43.794002" lon="10.453587">
        <ele>520.698</ele>
        <time>2021-10-28T12:49:13Z</time>
      </trkpt>
      <trkpt lat="43.793898" lon="10.453615">
        <ele>523.070</ele>
        <time>2021-10-28T12:49:29Z</time>
      </trkpt>
      <trkpt lat="43.793902" lon="10.453672">
        <ele>524.149</ele>
        <time>2021-10-28T12:49:44Z</time>
      </trkpt>
      <trkpt lat="43.793628" lon="10.453745">
        <ele>528.365</ele>
        <time>2021-10-28T12:50:18Z</time>
      </trkpt>
      <trkpt lat="43.793443" lon="10.453590">
        <ele>529.659</ele>
        <time>2021-10-28T12:50:40Z</time>
      </trkpt>
      <trkpt lat="43.793336" lon="10.453622">
        <ele>530.395</ele>
        <time>2021-10-28T12:50:51Z</time>
      </trkpt>
      <trkpt lat="43.793311" lon="10.453590">
        <ele>530.745</ele>
        <time>2021-10-28T12:51:05Z</time>
      </trkpt>
      <trkpt lat="43.793160" lon="10.453909">
        <ele>533.447</ele>
        <time>2021-10-28T12:51:36Z</time>
      </trkpt>
      <trkpt lat="43.792932" lon="10.454084">
        <ele>535.811</ele>
        <time>2021-10-28T12:52:08Z</time>
      </trkpt>
      <trkpt lat="43.792971" lon="10.454251">
        <ele>537.908</ele>
        <time>2021-10-28T12:52:30Z</time>
      </trkpt>
      <trkpt lat="43.792905" lon="10.454443">
        <ele>538.792</ele>
        <time>2021-10-28T12:52:48Z</time>
      </trkpt>
      <trkpt lat="43.792971" lon="10.454606">
        <ele>537.441</ele>
        <time>2021-10-28T12:53:22Z</time>
      </trkpt>
      <trkpt lat="43.792866" lon="10.454633">
        <ele>537.919</ele>
        <time>2021-10-28T12:54:08Z</time>
      </trkpt>
      <trkpt lat="43.792893" lon="10.454349">
        <ele>537.641</ele>
        <time>2021-10-28T13:14:20Z</time>
      </trkpt>
      <trkpt lat="43.792967" lon="10.454228">
        <ele>537.190</ele>
        <time>2021-10-28T13:14:34Z</time>
      </trkpt>
      <trkpt lat="43.792939" lon="10.454079">
        <ele>535.916</ele>
        <time>2021-10-28T13:14:52Z</time>
      </trkpt>
      <trkpt lat="43.793182" lon="10.453929">
        <ele>534.240</ele>
        <time>2021-10-28T13:15:20Z</time>
      </trkpt>
      <trkpt lat="43.793296" lon="10.453647">
        <ele>531.696</ele>
        <time>2021-10-28T13:15:41Z</time>
      </trkpt>
      <trkpt lat="43.793240" lon="10.453456">
        <ele>530.596</ele>
        <time>2021-10-28T13:15:54Z</time>
      </trkpt>
      <trkpt lat="43.793232" lon="10.453054">
        <ele>527.231</ele>
        <time>2021-10-28T13:16:31Z</time>
      </trkpt>
      <trkpt lat="43.793130" lon="10.452950">
        <ele>526.224</ele>
        <time>2021-10-28T13:16:44Z</time>
      </trkpt>
      <trkpt lat="43.793125" lon="10.452849">
        <ele>525.308</ele>
        <time>2021-10-28T13:16:53Z</time>
      </trkpt>
      <trkpt lat="43.792975" lon="10.452741">
        <ele>522.767</ele>
        <time>2021-10-28T13:17:19Z</time>
      </trkpt>
      <trkpt lat="43.792673" lon="10.452355">
        <ele>514.826</ele>
        <time>2021-10-28T13:18:00Z</time>
      </trkpt>
      <trkpt lat="43.792319" lon="10.452290">
        <ele>503.874</ele>
        <time>2021-10-28T13:19:00Z</time>
      </trkpt>
      <trkpt lat="43.792135" lon="10.451967">
        <ele>496.586</ele>
        <time>2021-10-28T13:19:30Z</time>
      </trkpt>
      <trkpt lat="43.792022" lon="10.451966">
        <ele>493.725</ele>
        <time>2021-10-28T13:19:45Z</time>
      </trkpt>
      <trkpt lat="43.791945" lon="10.452065">
        <ele>490.291</ele>
        <time>2021-10-28T13:20:05Z</time>
      </trkpt>
      <trkpt lat="43.791811" lon="10.452480">
        <ele>479.255</ele>
        <time>2021-10-28T13:21:20Z</time>
      </trkpt>
      <trkpt lat="43.791581" lon="10.452905">
        <ele>465.181</ele>
        <time>2021-10-28T13:22:35Z</time>
      </trkpt>
      <trkpt lat="43.791503" lon="10.452914">
        <ele>461.478</ele>
        <time>2021-10-28T13:22:49Z</time>
      </trkpt>
      <trkpt lat="43.791354" lon="10.453050">
        <ele>455.733</ele>
        <time>2021-10-28T13:23:08Z</time>
      </trkpt>
      <trkpt lat="43.791280" lon="10.453023">
        <ele>452.226</ele>
        <time>2021-10-28T13:23:19Z</time>
      </trkpt>
      <trkpt lat="43.791234" lon="10.453061">
        <ele>450.508</ele>
        <time>2021-10-28T13:23:25Z</time>
      </trkpt>
      <trkpt lat="43.791160" lon="10.453039">
        <ele>449.035</ele>
        <time>2021-10-28T13:23:33Z</time>
      </trkpt>
      <trkpt lat="43.791133" lon="10.453078">
        <ele>447.994</ele>
        <time>2021-10-28T13:24:08Z</time>
      </trkpt>
      <trkpt lat="43.791038" lon="10.453061">
        <ele>446.592</ele>
        <time>2021-10-28T13:24:16Z</time>
      </trkpt>
      <trkpt lat="43.790870" lon="10.453227">
        <ele>442.434</ele>
        <time>2021-10-28T13:24:36Z</time>
      </trkpt>
      <trkpt lat="43.790923" lon="10.453329">
        <ele>437.993</ele>
        <time>2021-10-28T13:24:53Z</time>
      </trkpt>
      <trkpt lat="43.790871" lon="10.453391">
        <ele>433.919</ele>
        <time>2021-10-28T13:25:19Z</time>
      </trkpt>
      <trkpt lat="43.790835" lon="10.453634">
        <ele>424.993</ele>
        <time>2021-10-28T13:25:50Z</time>
      </trkpt>
      <trkpt lat="43.790925" lon="10.454137">
        <ele>413.539</ele>
        <time>2021-10-28T13:26:48Z</time>
      </trkpt>
      <trkpt lat="43.790822" lon="10.454359">
        <ele>404.536</ele>
        <time>2021-10-28T13:27:27Z</time>
      </trkpt>
      <trkpt lat="43.790792" lon="10.455028">
        <ele>386.817</ele>
        <time>2021-10-28T13:28:44Z</time>
      </trkpt>
      <trkpt lat="43.790477" lon="10.455959">
        <ele>355.318</ele>
        <time>2021-10-28T13:30:54Z</time>
      </trkpt>
      <trkpt lat="43.790370" lon="10.456149">
        <ele>349.408</ele>
        <time>2021-10-28T13:31:09Z</time>
      </trkpt>
      <trkpt lat="43.790373" lon="10.456318">
        <ele>343.881</ele>
        <time>2021-10-28T13:31:28Z</time>
      </trkpt>
      <trkpt lat="43.790241" lon="10.456569">
        <ele>331.760</ele>
        <time>2021-10-28T13:32:22Z</time>
      </trkpt>
      <trkpt lat="43.790193" lon="10.456874">
        <ele>324.768</ele>
        <time>2021-10-28T13:33:01Z</time>
      </trkpt>
      <trkpt lat="43.790045" lon="10.457122">
        <ele>315.910</ele>
        <time>2021-10-28T13:33:27Z</time>
      </trkpt>
      <trkpt lat="43.790045" lon="10.457268">
        <ele>312.549</ele>
        <time>2021-10-28T13:33:40Z</time>
      </trkpt>
      <trkpt lat="43.789874" lon="10.457577">
        <ele>301.555</ele>
        <time>2021-10-28T13:34:20Z</time>
      </trkpt>
      <trkpt lat="43.789826" lon="10.457781">
        <ele>293.759</ele>
        <time>2021-10-28T13:34:42Z</time>
      </trkpt>
      <trkpt lat="43.789988" lon="10.458371">
        <ele>280.545</ele>
        <time>2021-10-28T13:36:02Z</time>
      </trkpt>
      <trkpt lat="43.790013" lon="10.458635">
        <ele>275.461</ele>
        <time>2021-10-28T13:36:21Z</time>
      </trkpt>
      <trkpt lat="43.789977" lon="10.458803">
        <ele>272.221</ele>
        <time>2021-10-28T13:36:36Z</time>
      </trkpt>
      <trkpt lat="43.789962" lon="10.458771">
        <ele>271.413</ele>
        <time>2021-10-28T13:37:16Z</time>
      </trkpt>
      <trkpt lat="43.789895" lon="10.459505">
        <ele>262.608</ele>
        <time>2021-10-28T13:38:37Z</time>
      </trkpt>
      <trkpt lat="43.789762" lon="10.459795">
        <ele>255.724</ele>
        <time>2021-10-28T13:39:17Z</time>
      </trkpt>
      <trkpt lat="43.789624" lon="10.459986">
        <ele>249.613</ele>
        <time>2021-10-28T13:40:08Z</time>
      </trkpt>
      <trkpt lat="43.789580" lon="10.460222">
        <ele>244.041</ele>
        <time>2021-10-28T13:40:43Z</time>
      </trkpt>
      <trkpt lat="43.789609" lon="10.460194">
        <ele>243.273</ele>
        <time>2021-10-28T13:41:25Z</time>
      </trkpt>
      <trkpt lat="43.789619" lon="10.460234">
        <ele>243.522</ele>
        <time>2021-10-28T13:41:52Z</time>
      </trkpt>
      <trkpt lat="43.789485" lon="10.460412">
        <ele>238.228</ele>
        <time>2021-10-28T13:42:28Z</time>
      </trkpt>
      <trkpt lat="43.789404" lon="10.460448">
        <ele>235.852</ele>
        <time>2021-10-28T13:42:39Z</time>
      </trkpt>
      <trkpt lat="43.789389" lon="10.460532">
        <ele>234.178</ele>
        <time>2021-10-28T13:42:48Z</time>
      </trkpt>
      <trkpt lat="43.789271" lon="10.460685">
        <ele>229.572</ele>
        <time>2021-10-28T13:43:08Z</time>
      </trkpt>
      <trkpt lat="43.789264" lon="10.460878">
        <ele>225.013</ele>
        <time>2021-10-28T13:43:29Z</time>
      </trkpt>
      <trkpt lat="43.789116" lon="10.461043">
        <ele>220.214</ele>
        <time>2021-10-28T13:43:57Z</time>
      </trkpt>
      <trkpt lat="43.789085" lon="10.461185">
        <ele>218.908</ele>
        <time>2021-10-28T13:44:09Z</time>
      </trkpt>
      <trkpt lat="43.788752" lon="10.461440">
        <ele>210.925</ele>
        <time>2021-10-28T13:44:46Z</time>
      </trkpt>
      <trkpt lat="43.788705" lon="10.461433">
        <ele>210.184</ele>
        <time>2021-10-28T13:44:50Z</time>
      </trkpt>
      <trkpt lat="43.788634" lon="10.461311">
        <ele>207.842</ele>
        <time>2021-10-28T13:45:06Z</time>
      </trkpt>
      <trkpt lat="43.788479" lon="10.461271">
        <ele>204.644</ele>
        <time>2021-10-28T13:45:25Z</time>
      </trkpt>
      <trkpt lat="43.788196" lon="10.461277">
        <ele>196.453</ele>
        <time>2021-10-28T13:46:02Z</time>
      </trkpt>
      <trkpt lat="43.787991" lon="10.461373">
        <ele>188.779</ele>
        <time>2021-10-28T13:46:31Z</time>
      </trkpt>
      <trkpt lat="43.787796" lon="10.461410">
        <ele>182.753</ele>
        <time>2021-10-28T13:46:50Z</time>
      </trkpt>
      <trkpt lat="43.787825" lon="10.461388">
        <ele>181.799</ele>
        <time>2021-10-28T13:47:01Z</time>
      </trkpt>
      <trkpt lat="43.787753" lon="10.461455">
        <ele>177.913</ele>
        <time>2021-10-28T13:47:35Z</time>
      </trkpt>
      <trkpt lat="43.787636" lon="10.461441">
        <ele>173.543</ele>
        <time>2021-10-28T13:47:54Z</time>
      </trkpt>
      <trkpt lat="43.787592" lon="10.461397">
        <ele>170.007</ele>
        <time>2021-10-28T13:48:06Z</time>
      </trkpt>
      <trkpt lat="43.787531" lon="10.461435">
        <ele>167.908</ele>
        <time>2021-10-28T13:48:27Z</time>
      </trkpt>
      <trkpt lat="43.787315" lon="10.461448">
        <ele>158.929</ele>
        <time>2021-10-28T13:48:54Z</time>
      </trkpt>
      <trkpt lat="43.787085" lon="10.461539">
        <ele>148.098</ele>
        <time>2021-10-28T13:49:33Z</time>
      </trkpt>
      <trkpt lat="43.786672" lon="10.461393">
        <ele>128.126</ele>
        <time>2021-10-28T13:50:25Z</time>
      </trkpt>
      <trkpt lat="43.786509" lon="10.461448">
        <ele>121.458</ele>
        <time>2021-10-28T13:50:44Z</time>
      </trkpt>
      <trkpt lat="43.786390" lon="10.461437">
        <ele>118.417</ele>
        <time>2021-10-28T13:50:54Z</time>
      </trkpt>
      <trkpt lat="43.786184" lon="10.461190">
        <ele>115.583</ele>
        <time>2021-10-28T13:51:17Z</time>
      </trkpt>
      <trkpt lat="43.786174" lon="10.461084">
        <ele>116.087</ele>
        <time>2021-10-28T13:51:30Z</time>
      </trkpt>
      <trkpt lat="43.786153" lon="10.461169">
        <ele>115.393</ele>
        <time>2021-10-28T13:51:42Z</time>
      </trkpt>
      <trkpt lat="43.786056" lon="10.461195">
        <ele>113.447</ele>
        <time>2021-10-28T13:51:50Z</time>
      </trkpt>
      <trkpt lat="43.785672" lon="10.461004">
        <ele>107.329</ele>
        <time>2021-10-28T13:52:18Z</time>
      </trkpt>
      <trkpt lat="43.785459" lon="10.460947">
        <ele>106.021</ele>
        <time>2021-10-28T13:52:33Z</time>
      </trkpt>
      <trkpt lat="43.785433" lon="10.460912">
        <ele>106.108</ele>
        <time>2021-10-28T13:52:37Z</time>
      </trkpt>
      <trkpt lat="43.785461" lon="10.460780">
        <ele>107.852</ele>
        <time>2021-10-28T13:52:49Z</time>
      </trkpt>
      <trkpt lat="43.785437" lon="10.460869">
        <ele>108.211</ele>
        <time>2021-10-28T13:53:00Z</time>
      </trkpt>
      <trkpt lat="43.785337" lon="10.460850">
        <ele>107.549</ele>
        <time>2021-10-28T13:53:08Z</time>
      </trkpt>
      <trkpt lat="43.784731" lon="10.460029">
        <ele>107.831</ele>
        <time>2021-10-28T13:54:22Z</time>
      </trkpt>
      <trkpt lat="43.784689" lon="10.459906">
        <ele>107.660</ele>
        <time>2021-10-28T13:54:38Z</time>
      </trkpt>
      <trkpt lat="43.784560" lon="10.459792">
        <ele>106.656</ele>
        <time>2021-10-28T13:54:51Z</time>
      </trkpt>
      <trkpt lat="43.784349" lon="10.459393">
        <ele>103.750</ele>
        <time>2021-10-28T13:55:26Z</time>
      </trkpt>
      <trkpt lat="43.783895" lon="10.459285">
        <ele>100.936</ele>
        <time>2021-10-28T13:56:01Z</time>
      </trkpt>
      <trkpt lat="43.783530" lon="10.459126">
        <ele>93.858</ele>
        <time>2021-10-28T13:56:32Z</time>
      </trkpt>
      <trkpt lat="43.783351" lon="10.459225">
        <ele>91.652</ele>
        <time>2021-10-28T13:56:56Z</time>
      </trkpt>
      <trkpt lat="43.783288" lon="10.459172">
        <ele>90.317</ele>
        <time>2021-10-28T13:57:05Z</time>
      </trkpt>
      <trkpt lat="43.783029" lon="10.459241">
        <ele>88.908</ele>
        <time>2021-10-28T13:57:24Z</time>
      </trkpt>
      <trkpt lat="43.782968" lon="10.459060">
        <ele>89.013</ele>
        <time>2021-10-28T13:57:37Z</time>
      </trkpt>
      <trkpt lat="43.782992" lon="10.458938">
        <ele>89.312</ele>
        <time>2021-10-28T13:57:50Z</time>
      </trkpt>
      <trkpt lat="43.782908" lon="10.457965">
        <ele>89.940</ele>
        <time>2021-10-28T13:58:49Z</time>
      </trkpt>
      <trkpt lat="43.782936" lon="10.457153">
        <ele>92.542</ele>
        <time>2021-10-28T13:59:34Z</time>
      </trkpt>
      <trkpt lat="43.782861" lon="10.456941">
        <ele>93.631</ele>
        <time>2021-10-28T13:59:47Z</time>
      </trkpt>
      <trkpt lat="43.780977" lon="10.457252">
        <ele>86.637</ele>
        <time>2021-10-28T14:02:19Z</time>
      </trkpt>
      <trkpt lat="43.780904" lon="10.457220">
        <ele>86.091</ele>
        <time>2021-10-28T14:02:25Z</time>
      </trkpt>
      <trkpt lat="43.780785" lon="10.456994">
        <ele>85.037</ele>
        <time>2021-10-28T14:02:40Z</time>
      </trkpt>
      <trkpt lat="43.780573" lon="10.456965">
        <ele>85.384</ele>
        <time>2021-10-28T14:02:58Z</time>
      </trkpt>
      <trkpt lat="43.780511" lon="10.456848">
        <ele>85.307</ele>
        <time>2021-10-28T14:03:16Z</time>
      </trkpt>
      <trkpt lat="43.780212" lon="10.456918">
        <ele>83.617</ele>
        <time>2021-10-28T14:03:44Z</time>
      </trkpt>
      <trkpt lat="43.779731" lon="10.457136">
        <ele>83.208</ele>
        <time>2021-10-28T14:04:20Z</time>
      </trkpt>
      <trkpt lat="43.779668" lon="10.457199">
        <ele>82.686</ele>
        <time>2021-10-28T14:04:26Z</time>
      </trkpt>
      <trkpt lat="43.779692" lon="10.457351">
        <ele>81.815</ele>
        <time>2021-10-28T14:04:34Z</time>
      </trkpt>
      <trkpt lat="43.779880" lon="10.457761">
        <ele>82.253</ele>
        <time>2021-10-28T14:04:57Z</time>
      </trkpt>
      <trkpt lat="43.779848" lon="10.457838">
        <ele>82.155</ele>
        <time>2021-10-28T14:05:01Z</time>
      </trkpt>
      <trkpt lat="43.779684" lon="10.457898">
        <ele>81.654</ele>
        <time>2021-10-28T14:05:13Z</time>
      </trkpt>
    </trkseg>
  </trk></gpx>