<?xml version="1.0" encoding="UTF-8"?>
<gpx creator="Wikiloc - https://www.wikiloc.com" version="1.1" xmlns="http://www.topografix.com/GPX/1/1" xmlns:xsi="http://www.w3.org/2001/XMLSchema-instance" xsi:schemaLocation="http://www.topografix.com/GPX/1/1 http://www.topografix.com/GPX/1/1/gpx.xsd">
  <metadata>
    <name>Wikiloc - Apuane: Colonnata- Cima d'Uomo- Foce Luccica - Vergheto- Mon...</name>
    <link href="https://www.wikiloc.com/hiking-trails/apuane-colonnata-cima-duomo-foce-luccica-vergheto-cima-di-gioia-david-di-kobra-189202378">
      <text>Apuane: Colonnata- Cima d'Uomo- Foce Luccica - Vergheto- Mon... on Wikiloc</text>
    </link>
    <time>2024-10-20T15:53:06.819Z</time>
  </metadata>
  <trk>
    <name>Apuane: Colonnata- Cima d'Uomo- Foce Luccica - Vergheto- Mon... - Wikiloc</name>
    <cmt></cmt>
    <desc></desc>
    <trkseg>
      <trkpt lat="44.084572" lon="10.152674">
        <ele>463.429</ele>
        <time>2024-10-20T09:10:53.985Z</time>
      </trkpt>
      <trkpt lat="44.085215" lon="10.152974">
        <ele>465.700</ele>
        <time>2024-10-20T09:11:46.985Z</time>
      </trkpt>
      <trkpt lat="44.085592" lon="10.153443">
        <ele>473.120</ele>
        <time>2024-10-20T09:12:29.984Z</time>
      </trkpt>
      <trkpt lat="44.085904" lon="10.153602">
        <ele>480.709</ele>
        <time>2024-10-20T09:13:19.985Z</time>
      </trkpt>
      <trkpt lat="44.085619" lon="10.153473">
        <ele>477.743</ele>
        <time>2024-10-20T09:13:53.985Z</time>
      </trkpt>
      <trkpt lat="44.085410" lon="10.153156">
        <ele>472.730</ele>
        <time>2024-10-20T09:14:56.985Z</time>
      </trkpt>
      <trkpt lat="44.085154" lon="10.153073">
        <ele>472.681</ele>
        <time>2024-10-20T09:15:20.985Z</time>
      </trkpt>
      <trkpt lat="44.084991" lon="10.153127">
        <ele>473.244</ele>
        <time>2024-10-20T09:15:33.985Z</time>
      </trkpt>
      <trkpt lat="44.084587" lon="10.152843">
        <ele>475.012</ele>
        <time>2024-10-20T09:16:10.985Z</time>
      </trkpt>
      <trkpt lat="44.084323" lon="10.152873">
        <ele>477.654</ele>
        <time>2024-10-20T09:16:39.984Z</time>
      </trkpt>
      <trkpt lat="44.084191" lon="10.153143">
        <ele>471.865</ele>
        <time>2024-10-20T09:17:02.984Z</time>
      </trkpt>
      <trkpt lat="44.084167" lon="10.153612">
        <ele>480.039</ele>
        <time>2024-10-20T09:17:38.984Z</time>
      </trkpt>
      <trkpt lat="44.084235" lon="10.153692">
        <ele>480.560</ele>
        <time>2024-10-20T09:17:46.984Z</time>
      </trkpt>
      <trkpt lat="44.084340" lon="10.153188">
        <ele>488.292</ele>
        <time>2024-10-20T09:18:21.984Z</time>
      </trkpt>
      <trkpt lat="44.084403" lon="10.153078">
        <ele>488.373</ele>
        <time>2024-10-20T09:18:52.984Z</time>
      </trkpt>
      <trkpt lat="44.084500" lon="10.153104">
        <ele>488.120</ele>
        <time>2024-10-20T09:19:02.984Z</time>
      </trkpt>
      <trkpt lat="44.084381" lon="10.153404">
        <ele>490.409</ele>
        <time>2024-10-20T09:19:33.984Z</time>
      </trkpt>
      <trkpt lat="44.084426" lon="10.153673">
        <ele>493.320</ele>
        <time>2024-10-20T09:19:50.984Z</time>
      </trkpt>
      <trkpt lat="44.084760" lon="10.154365">
        <ele>497.647</ele>
        <time>2024-10-20T09:20:39.984Z</time>
      </trkpt>
      <trkpt lat="44.084866" lon="10.155217">
        <ele>504.428</ele>
        <time>2024-10-20T09:21:26.985Z</time>
      </trkpt>
      <trkpt lat="44.085185" lon="10.155782">
        <ele>508.171</ele>
        <time>2024-10-20T09:22:07.985Z</time>
      </trkpt>
      <trkpt lat="44.085523" lon="10.156128">
        <ele>512.499</ele>
        <time>2024-10-20T09:22:38.985Z</time>
      </trkpt>
      <trkpt lat="44.085448" lon="10.156547">
        <ele>516.491</ele>
        <time>2024-10-20T09:23:01.985Z</time>
      </trkpt>
      <trkpt lat="44.085551" lon="10.157031">
        <ele>517.612</ele>
        <time>2024-10-20T09:23:31.984Z</time>
      </trkpt>
      <trkpt lat="44.085641" lon="10.157042">
        <ele>518.436</ele>
        <time>2024-10-20T09:23:41.984Z</time>
      </trkpt>
      <trkpt lat="44.085582" lon="10.156629">
        <ele>520.227</ele>
        <time>2024-10-20T09:24:05.984Z</time>
      </trkpt>
      <trkpt lat="44.085761" lon="10.156487">
        <ele>521.724</ele>
        <time>2024-10-20T09:24:26.984Z</time>
      </trkpt>
      <trkpt lat="44.085863" lon="10.155871">
        <ele>528.904</ele>
        <time>2024-10-20T09:25:00.984Z</time>
      </trkpt>
      <trkpt lat="44.085594" lon="10.155256">
        <ele>530.414</ele>
        <time>2024-10-20T09:25:41.984Z</time>
      </trkpt>
      <trkpt lat="44.085575" lon="10.154923">
        <ele>530.009</ele>
        <time>2024-10-20T09:26:05.984Z</time>
      </trkpt>
      <trkpt lat="44.085648" lon="10.154807">
        <ele>534.463</ele>
        <time>2024-10-20T09:26:40.984Z</time>
      </trkpt>
      <trkpt lat="44.086003" lon="10.154749">
        <ele>531.460</ele>
        <time>2024-10-20T09:27:20.983Z</time>
      </trkpt>
      <trkpt lat="44.086717" lon="10.155269">
        <ele>539.821</ele>
        <time>2024-10-20T09:29:03.983Z</time>
      </trkpt>
      <trkpt lat="44.086970" lon="10.155342">
        <ele>542.584</ele>
        <time>2024-10-20T09:29:24.983Z</time>
      </trkpt>
      <trkpt lat="44.086974" lon="10.155405">
        <ele>543.082</ele>
        <time>2024-10-20T09:29:39.984Z</time>
      </trkpt>
      <trkpt lat="44.086768" lon="10.155384">
        <ele>550.444</ele>
        <time>2024-10-20T09:30:15.984Z</time>
      </trkpt>
      <trkpt lat="44.086791" lon="10.156153">
        <ele>563.895</ele>
        <time>2024-10-20T09:31:55.983Z</time>
      </trkpt>
      <trkpt lat="44.086812" lon="10.156081">
        <ele>565.859</ele>
        <time>2024-10-20T09:33:03.983Z</time>
      </trkpt>
      <trkpt lat="44.087053" lon="10.156088">
        <ele>574.240</ele>
        <time>2024-10-20T09:35:36.982Z</time>
      </trkpt>
      <trkpt lat="44.087352" lon="10.156688">
        <ele>601.782</ele>
        <time>2024-10-20T09:39:09.982Z</time>
      </trkpt>
      <trkpt lat="44.087446" lon="10.156542">
        <ele>608.543</ele>
        <time>2024-10-20T09:39:57.959Z</time>
      </trkpt>
      <trkpt lat="44.087732" lon="10.157068">
        <ele>624.117</ele>
        <time>2024-10-20T09:41:41.948Z</time>
      </trkpt>
      <trkpt lat="44.088058" lon="10.157293">
        <ele>639.109</ele>
        <time>2024-10-20T09:45:03.946Z</time>
      </trkpt>
      <trkpt lat="44.088301" lon="10.157252">
        <ele>646.779</ele>
        <time>2024-10-20T09:46:18.945Z</time>
      </trkpt>
      <trkpt lat="44.088151" lon="10.157345">
        <ele>647.526</ele>
        <time>2024-10-20T09:47:09.945Z</time>
      </trkpt>
      <trkpt lat="44.088125" lon="10.157719">
        <ele>650.257</ele>
        <time>2024-10-20T09:48:09.945Z</time>
      </trkpt>
      <trkpt lat="44.088142" lon="10.157522">
        <ele>651.030</ele>
        <time>2024-10-20T09:48:34.944Z</time>
      </trkpt>
      <trkpt lat="44.088236" lon="10.157509">
        <ele>651.858</ele>
        <time>2024-10-20T09:49:08.944Z</time>
      </trkpt>
      <trkpt lat="44.088570" lon="10.158076">
        <ele>677.470</ele>
        <time>2024-10-20T09:51:24.944Z</time>
      </trkpt>
      <trkpt lat="44.088760" lon="10.158121">
        <ele>678.661</ele>
        <time>2024-10-20T09:51:58.944Z</time>
      </trkpt>
      <trkpt lat="44.088875" lon="10.158357">
        <ele>683.625</ele>
        <time>2024-10-20T09:52:30.944Z</time>
      </trkpt>
      <trkpt lat="44.089121" lon="10.158549">
        <ele>688.886</ele>
        <time>2024-10-20T09:54:11.944Z</time>
      </trkpt>
      <trkpt lat="44.089099" lon="10.158731">
        <ele>692.515</ele>
        <time>2024-10-20T09:55:22.942Z</time>
      </trkpt>
      <trkpt lat="44.089218" lon="10.158651">
        <ele>705.865</ele>
        <time>2024-10-20T09:56:29.942Z</time>
      </trkpt>
      <trkpt lat="44.089483" lon="10.158684">
        <ele>717.311</ele>
        <time>2024-10-20T09:57:56.941Z</time>
      </trkpt>
      <trkpt lat="44.090077" lon="10.159266">
        <ele>731.309</ele>
        <time>2024-10-20T10:02:13.940Z</time>
      </trkpt>
      <trkpt lat="44.090024" lon="10.160071">
        <ele>737.492</ele>
        <time>2024-10-20T10:03:44.940Z</time>
      </trkpt>
      <trkpt lat="44.089358" lon="10.161059">
        <ele>743.039</ele>
        <time>2024-10-20T10:14:34.936Z</time>
      </trkpt>
      <trkpt lat="44.089485" lon="10.161223">
        <ele>745.980</ele>
        <time>2024-10-20T10:15:14.936Z</time>
      </trkpt>
      <trkpt lat="44.089759" lon="10.161235">
        <ele>759.893</ele>
        <time>2024-10-20T10:16:25.937Z</time>
      </trkpt>
      <trkpt lat="44.089973" lon="10.161052">
        <ele>771.241</ele>
        <time>2024-10-20T10:17:43.937Z</time>
      </trkpt>
      <trkpt lat="44.090245" lon="10.161043">
        <ele>784.493</ele>
        <time>2024-10-20T10:20:58.935Z</time>
      </trkpt>
      <trkpt lat="44.090411" lon="10.160934">
        <ele>790.534</ele>
        <time>2024-10-20T10:23:43.933Z</time>
      </trkpt>
      <trkpt lat="44.091065" lon="10.160990">
        <ele>814.998</ele>
        <time>2024-10-20T10:25:25.932Z</time>
      </trkpt>
      <trkpt lat="44.091079" lon="10.160928">
        <ele>814.949</ele>
        <time>2024-10-20T10:25:57.932Z</time>
      </trkpt>
      <trkpt lat="44.091249" lon="10.161046">
        <ele>821.674</ele>
        <time>2024-10-20T10:26:58.931Z</time>
      </trkpt>
      <trkpt lat="44.092108" lon="10.161002">
        <ele>832.856</ele>
        <time>2024-10-20T10:28:56.932Z</time>
      </trkpt>
      <trkpt lat="44.093292" lon="10.161448">
        <ele>861.221</ele>
        <time>2024-10-20T10:32:51.931Z</time>
      </trkpt>
      <trkpt lat="44.093433" lon="10.161389">
        <ele>867.109</ele>
        <time>2024-10-20T10:33:26.931Z</time>
      </trkpt>
      <trkpt lat="44.093969" lon="10.161602">
        <ele>895.348</ele>
        <time>2024-10-20T10:36:35.930Z</time>
      </trkpt>
      <trkpt lat="44.094107" lon="10.161558">
        <ele>902.115</ele>
        <time>2024-10-20T10:37:17.930Z</time>
      </trkpt>
      <trkpt lat="44.094440" lon="10.161809">
        <ele>923.166</ele>
        <time>2024-10-20T10:39:42.929Z</time>
      </trkpt>
      <trkpt lat="44.094826" lon="10.161754">
        <ele>943.429</ele>
        <time>2024-10-20T10:42:53.929Z</time>
      </trkpt>
      <trkpt lat="44.095014" lon="10.161879">
        <ele>952.367</ele>
        <time>2024-10-20T10:44:58.929Z</time>
      </trkpt>
      <trkpt lat="44.095683" lon="10.161931">
        <ele>951.699</ele>
        <time>2024-10-20T10:46:25.929Z</time>
      </trkpt>
      <trkpt lat="44.096230" lon="10.162109">
        <ele>950.670</ele>
        <time>2024-10-20T10:47:28.929Z</time>
      </trkpt>
      <trkpt lat="44.096498" lon="10.162054">
        <ele>946.384</ele>
        <time>2024-10-20T10:49:13.928Z</time>
      </trkpt>
      <trkpt lat="44.096828" lon="10.162179">
        <ele>944.925</ele>
        <time>2024-10-20T10:50:16.928Z</time>
      </trkpt>
      <trkpt lat="44.097662" lon="10.162120">
        <ele>946.373</ele>
        <time>2024-10-20T10:55:10.927Z</time>
      </trkpt>
      <trkpt lat="44.098893" lon="10.162851">
        <ele>962.985</ele>
        <time>2024-10-20T11:09:55.920Z</time>
      </trkpt>
      <trkpt lat="44.098862" lon="10.162744">
        <ele>965.713</ele>
        <time>2024-10-20T11:23:29.954Z</time>
      </trkpt>
      <trkpt lat="44.099109" lon="10.162839">
        <ele>961.009</ele>
        <time>2024-10-20T11:27:26.952Z</time>
      </trkpt>
      <trkpt lat="44.100049" lon="10.162829">
        <ele>967.578</ele>
        <time>2024-10-20T11:29:24.952Z</time>
      </trkpt>
      <trkpt lat="44.100883" lon="10.162509">
        <ele>986.855</ele>
        <time>2024-10-20T11:32:53.950Z</time>
      </trkpt>
      <trkpt lat="44.100915" lon="10.162694">
        <ele>1000.556</ele>
        <time>2024-10-20T11:34:04.950Z</time>
      </trkpt>
      <trkpt lat="44.101012" lon="10.162550">
        <ele>996.749</ele>
        <time>2024-10-20T11:35:00.950Z</time>
      </trkpt>
      <trkpt lat="44.101759" lon="10.162531">
        <ele>1024.917</ele>
        <time>2024-10-20T11:37:54.947Z</time>
      </trkpt>
      <trkpt lat="44.101839" lon="10.162597">
        <ele>1031.259</ele>
        <time>2024-10-20T11:38:19.947Z</time>
      </trkpt>
      <trkpt lat="44.102046" lon="10.162540">
        <ele>1038.920</ele>
        <time>2024-10-20T11:39:16.947Z</time>
      </trkpt>
      <trkpt lat="44.102012" lon="10.162669">
        <ele>1038.994</ele>
        <time>2024-10-20T11:39:51.946Z</time>
      </trkpt>
      <trkpt lat="44.102291" lon="10.162385">
        <ele>1059.545</ele>
        <time>2024-10-20T11:41:59.946Z</time>
      </trkpt>
      <trkpt lat="44.102379" lon="10.162501">
        <ele>1058.948</ele>
        <time>2024-10-20T11:44:38.945Z</time>
      </trkpt>
      <trkpt lat="44.102321" lon="10.162594">
        <ele>1058.961</ele>
        <time>2024-10-20T11:45:06.945Z</time>
      </trkpt>
      <trkpt lat="44.102505" lon="10.162651">
        <ele>1062.617</ele>
        <time>2024-10-20T11:45:43.945Z</time>
      </trkpt>
      <trkpt lat="44.102437" lon="10.162625">
        <ele>1063.209</ele>
        <time>2024-10-20T11:47:12.945Z</time>
      </trkpt>
      <trkpt lat="44.102173" lon="10.163020">
        <ele>1062.115</ele>
        <time>2024-10-20T11:47:58.944Z</time>
      </trkpt>
      <trkpt lat="44.101955" lon="10.164420">
        <ele>1022.882</ele>
        <time>2024-10-20T11:51:02.944Z</time>
      </trkpt>
      <trkpt lat="44.101659" lon="10.165318">
        <ele>1016.423</ele>
        <time>2024-10-20T11:52:32.944Z</time>
      </trkpt>
      <trkpt lat="44.101784" lon="10.165686">
        <ele>1018.726</ele>
        <time>2024-10-20T11:54:14.943Z</time>
      </trkpt>
      <trkpt lat="44.101643" lon="10.165869">
        <ele>1019.574</ele>
        <time>2024-10-20T11:57:57.971Z</time>
      </trkpt>
      <trkpt lat="44.101829" lon="10.165997">
        <ele>1024.086</ele>
        <time>2024-10-20T11:58:47.979Z</time>
      </trkpt>
      <trkpt lat="44.101913" lon="10.165939">
        <ele>1025.217</ele>
        <time>2024-10-20T11:58:59.979Z</time>
      </trkpt>
      <trkpt lat="44.102095" lon="10.166021">
        <ele>1027.081</ele>
        <time>2024-10-20T11:59:29.979Z</time>
      </trkpt>
      <trkpt lat="44.101808" lon="10.166057">
        <ele>1027.442</ele>
        <time>2024-10-20T12:02:07.979Z</time>
      </trkpt>
      <trkpt lat="44.101654" lon="10.165840">
        <ele>1012.823</ele>
        <time>2024-10-20T12:02:56.978Z</time>
      </trkpt>
      <trkpt lat="44.101466" lon="10.165854">
        <ele>1009.483</ele>
        <time>2024-10-20T12:03:26.978Z</time>
      </trkpt>
      <trkpt lat="44.101459" lon="10.165613">
        <ele>1000.211</ele>
        <time>2024-10-20T12:03:49.978Z</time>
      </trkpt>
      <trkpt lat="44.100684" lon="10.165859">
        <ele>970.909</ele>
        <time>2024-10-20T12:06:37.978Z</time>
      </trkpt>
      <trkpt lat="44.100370" lon="10.166057">
        <ele>967.023</ele>
        <time>2024-10-20T12:07:08.978Z</time>
      </trkpt>
      <trkpt lat="44.100158" lon="10.165996">
        <ele>967.660</ele>
        <time>2024-10-20T12:07:21.978Z</time>
      </trkpt>
      <trkpt lat="44.099748" lon="10.166178">
        <ele>961.471</ele>
        <time>2024-10-20T12:08:04.978Z</time>
      </trkpt>
      <trkpt lat="44.099484" lon="10.167096">
        <ele>944.764</ele>
        <time>2024-10-20T12:09:31.979Z</time>
      </trkpt>
      <trkpt lat="44.099370" lon="10.167305">
        <ele>941.742</ele>
        <time>2024-10-20T12:12:48.979Z</time>
      </trkpt>
      <trkpt lat="44.099267" lon="10.167319">
        <ele>936.814</ele>
        <time>2024-10-20T12:13:09.980Z</time>
      </trkpt>
      <trkpt lat="44.099206" lon="10.167641">
        <ele>932.755</ele>
        <time>2024-10-20T12:13:46.980Z</time>
      </trkpt>
      <trkpt lat="44.098939" lon="10.167909">
        <ele>926.199</ele>
        <time>2024-10-20T12:14:21.980Z</time>
      </trkpt>
      <trkpt lat="44.098952" lon="10.167983">
        <ele>926.760</ele>
        <time>2024-10-20T12:14:40.980Z</time>
      </trkpt>
      <trkpt lat="44.099055" lon="10.167939">
        <ele>927.389</ele>
        <time>2024-10-20T12:15:08.980Z</time>
      </trkpt>
      <trkpt lat="44.099050" lon="10.167876">
        <ele>928.406</ele>
        <time>2024-10-20T12:15:20.980Z</time>
      </trkpt>
      <trkpt lat="44.098967" lon="10.167990">
        <ele>927.226</ele>
        <time>2024-10-20T12:15:56.980Z</time>
      </trkpt>
      <trkpt lat="44.098916" lon="10.167941">
        <ele>929.509</ele>
        <time>2024-10-20T12:16:06.980Z</time>
      </trkpt>
      <trkpt lat="44.098993" lon="10.168044">
        <ele>927.929</ele>
        <time>2024-10-20T12:16:21.980Z</time>
      </trkpt>
      <trkpt lat="44.099013" lon="10.167980">
        <ele>930.516</ele>
        <time>2024-10-20T12:16:28.980Z</time>
      </trkpt>
      <trkpt lat="44.098148" lon="10.168867">
        <ele>918.277</ele>
        <time>2024-10-20T12:20:29.980Z</time>
      </trkpt>
      <trkpt lat="44.098061" lon="10.168866">
        <ele>915.290</ele>
        <time>2024-10-20T12:20:51.980Z</time>
      </trkpt>
      <trkpt lat="44.098116" lon="10.168737">
        <ele>913.958</ele>
        <time>2024-10-20T12:21:12.980Z</time>
      </trkpt>
      <trkpt lat="44.098121" lon="10.168868">
        <ele>914.950</ele>
        <time>2024-10-20T12:21:33.979Z</time>
      </trkpt>
      <trkpt lat="44.097946" lon="10.168991">
        <ele>916.791</ele>
        <time>2024-10-20T12:21:59.979Z</time>
      </trkpt>
      <trkpt lat="44.097050" lon="10.169177">
        <ele>908.525</ele>
        <time>2024-10-20T12:23:30.979Z</time>
      </trkpt>
      <trkpt lat="44.096549" lon="10.169590">
        <ele>905.046</ele>
        <time>2024-10-20T12:24:29.979Z</time>
      </trkpt>
      <trkpt lat="44.096226" lon="10.169629">
        <ele>904.841</ele>
        <time>2024-10-20T12:26:13.977Z</time>
      </trkpt>
      <trkpt lat="44.096318" lon="10.169577">
        <ele>904.381</ele>
        <time>2024-10-20T12:26:46.977Z</time>
      </trkpt>
      <trkpt lat="44.096226" lon="10.169536">
        <ele>904.909</ele>
        <time>2024-10-20T12:27:17.977Z</time>
      </trkpt>
      <trkpt lat="44.096191" lon="10.169636">
        <ele>905.009</ele>
        <time>2024-10-20T12:27:41.977Z</time>
      </trkpt>
      <trkpt lat="44.096335" lon="10.169554">
        <ele>903.675</ele>
        <time>2024-10-20T12:28:48.976Z</time>
      </trkpt>
      <trkpt lat="44.096148" lon="10.169635">
        <ele>905.272</ele>
        <time>2024-10-20T12:29:25.976Z</time>
      </trkpt>
      <trkpt lat="44.096101" lon="10.169569">
        <ele>904.923</ele>
        <time>2024-10-20T12:29:47.975Z</time>
      </trkpt>
      <trkpt lat="44.095697" lon="10.169617">
        <ele>900.966</ele>
        <time>2024-10-20T12:31:42.975Z</time>
      </trkpt>
      <trkpt lat="44.095031" lon="10.169906">
        <ele>889.134</ele>
        <time>2024-10-20T12:33:12.974Z</time>
      </trkpt>
      <trkpt lat="44.094554" lon="10.169971">
        <ele>875.176</ele>
        <time>2024-10-20T12:34:32.974Z</time>
      </trkpt>
      <trkpt lat="44.094310" lon="10.170264">
        <ele>864.267</ele>
        <time>2024-10-20T12:35:25.974Z</time>
      </trkpt>
      <trkpt lat="44.093605" lon="10.170513">
        <ele>854.371</ele>
        <time>2024-10-20T12:37:22.973Z</time>
      </trkpt>
      <trkpt lat="44.093674" lon="10.170659">
        <ele>855.162</ele>
        <time>2024-10-20T12:38:22.970Z</time>
      </trkpt>
      <trkpt lat="44.093562" lon="10.170574">
        <ele>858.683</ele>
        <time>2024-10-20T12:39:25.970Z</time>
      </trkpt>
      <trkpt lat="44.093209" lon="10.170567">
        <ele>852.225</ele>
        <time>2024-10-20T12:40:57.969Z</time>
      </trkpt>
      <trkpt lat="44.092945" lon="10.170751">
        <ele>842.517</ele>
        <time>2024-10-20T12:41:42.969Z</time>
      </trkpt>
      <trkpt lat="44.092360" lon="10.170743">
        <ele>822.909</ele>
        <time>2024-10-20T12:43:59.968Z</time>
      </trkpt>
      <trkpt lat="44.092141" lon="10.170581">
        <ele>818.689</ele>
        <time>2024-10-20T12:44:34.968Z</time>
      </trkpt>
      <trkpt lat="44.091513" lon="10.170443">
        <ele>803.656</ele>
        <time>2024-10-20T12:46:03.968Z</time>
      </trkpt>
      <trkpt lat="44.090926" lon="10.170101">
        <ele>796.267</ele>
        <time>2024-10-20T12:47:27.968Z</time>
      </trkpt>
      <trkpt lat="44.090512" lon="10.170031">
        <ele>793.910</ele>
        <time>2024-10-20T12:48:06.968Z</time>
      </trkpt>
      <trkpt lat="44.089912" lon="10.170147">
        <ele>793.588</ele>
        <time>2024-10-20T12:49:21.968Z</time>
      </trkpt>
      <trkpt lat="44.089599" lon="10.170365">
        <ele>792.220</ele>
        <time>2024-10-20T12:51:08.968Z</time>
      </trkpt>
      <trkpt lat="44.088709" lon="10.170589">
        <ele>790.671</ele>
        <time>2024-10-20T12:52:22.968Z</time>
      </trkpt>
      <trkpt lat="44.088837" lon="10.170505">
        <ele>791.125</ele>
        <time>2024-10-20T12:52:43.968Z</time>
      </trkpt>
      <trkpt lat="44.088652" lon="10.170503">
        <ele>791.616</ele>
        <time>2024-10-20T12:53:23.968Z</time>
      </trkpt>
      <trkpt lat="44.088636" lon="10.170294">
        <ele>789.343</ele>
        <time>2024-10-20T12:54:32.968Z</time>
      </trkpt>
      <trkpt lat="44.088694" lon="10.170506">
        <ele>787.964</ele>
        <time>2024-10-20T12:54:58.968Z</time>
      </trkpt>
      <trkpt lat="44.089082" lon="10.170457">
        <ele>789.610</ele>
        <time>2024-10-20T12:55:37.968Z</time>
      </trkpt>
      <trkpt lat="44.090113" lon="10.170131">
        <ele>793.009</ele>
        <time>2024-10-20T12:57:13.968Z</time>
      </trkpt>
      <trkpt lat="44.090175" lon="10.170000">
        <ele>794.115</ele>
        <time>2024-10-20T12:57:36.968Z</time>
      </trkpt>
      <trkpt lat="44.091092" lon="10.170076">
        <ele>792.092</ele>
        <time>2024-10-20T12:59:20.968Z</time>
      </trkpt>
      <trkpt lat="44.091141" lon="10.169921">
        <ele>794.573</ele>
        <time>2024-10-20T13:00:09.968Z</time>
      </trkpt>
      <trkpt lat="44.091103" lon="10.170083">
        <ele>794.956</ele>
        <time>2024-10-20T13:00:31.968Z</time>
      </trkpt>
      <trkpt lat="44.090138" lon="10.169993">
        <ele>792.794</ele>
        <time>2024-10-20T13:02:01.969Z</time>
      </trkpt>
      <trkpt lat="44.089929" lon="10.170166">
        <ele>789.146</ele>
        <time>2024-10-20T13:02:30.969Z</time>
      </trkpt>
      <trkpt lat="44.089777" lon="10.169828">
        <ele>784.077</ele>
        <time>2024-10-20T13:03:35.969Z</time>
      </trkpt>
      <trkpt lat="44.088945" lon="10.169636">
        <ele>780.671</ele>
        <time>2024-10-20T13:07:19.969Z</time>
      </trkpt>
      <trkpt lat="44.088934" lon="10.169700">
        <ele>780.692</ele>
        <time>2024-10-20T13:07:25.970Z</time>
      </trkpt>
      <trkpt lat="44.089031" lon="10.169668">
        <ele>774.024</ele>
        <time>2024-10-20T13:09:34.970Z</time>
      </trkpt>
      <trkpt lat="44.089017" lon="10.169574">
        <ele>776.604</ele>
        <time>2024-10-20T13:09:49.970Z</time>
      </trkpt>
      <trkpt lat="44.088951" lon="10.169765">
        <ele>780.014</ele>
        <time>2024-10-20T13:10:15.970Z</time>
      </trkpt>
      <trkpt lat="44.089020" lon="10.169616">
        <ele>780.709</ele>
        <time>2024-10-20T13:11:13.970Z</time>
      </trkpt>
      <trkpt lat="44.089020" lon="10.169720">
        <ele>782.623</ele>
        <time>2024-10-20T13:12:19.970Z</time>
      </trkpt>
      <trkpt lat="44.088340" lon="10.169426">
        <ele>764.440</ele>
        <time>2024-10-20T13:13:27.970Z</time>
      </trkpt>
      <trkpt lat="44.088171" lon="10.169272">
        <ele>759.321</ele>
        <time>2024-10-20T13:13:44.970Z</time>
      </trkpt>
      <trkpt lat="44.088071" lon="10.168860">
        <ele>754.654</ele>
        <time>2024-10-20T13:14:12.970Z</time>
      </trkpt>
      <trkpt lat="44.087813" lon="10.168675">
        <ele>750.312</ele>
        <time>2024-10-20T13:14:39.970Z</time>
      </trkpt>
      <trkpt lat="44.087567" lon="10.168645">
        <ele>742.014</ele>
        <time>2024-10-20T13:15:33.970Z</time>
      </trkpt>
      <trkpt lat="44.087334" lon="10.168272">
        <ele>734.395</ele>
        <time>2024-10-20T13:16:17.970Z</time>
      </trkpt>
      <trkpt lat="44.087079" lon="10.168118">
        <ele>731.489</ele>
        <time>2024-10-20T13:16:53.970Z</time>
      </trkpt>
      <trkpt lat="44.086786" lon="10.167680">
        <ele>725.480</ele>
        <time>2024-10-20T13:17:58.970Z</time>
      </trkpt>
      <trkpt lat="44.086514" lon="10.167467">
        <ele>717.354</ele>
        <time>2024-10-20T13:19:19.970Z</time>
      </trkpt>
      <trkpt lat="44.086070" lon="10.166699">
        <ele>716.656</ele>
        <time>2024-10-20T13:20:39.970Z</time>
      </trkpt>
      <trkpt lat="44.085648" lon="10.166548">
        <ele>724.511</ele>
        <time>2024-10-20T13:21:53.970Z</time>
      </trkpt>
      <trkpt lat="44.085256" lon="10.166273">
        <ele>727.609</ele>
        <time>2024-10-20T13:23:28.969Z</time>
      </trkpt>
      <trkpt lat="44.085229" lon="10.166142">
        <ele>727.536</ele>
        <time>2024-10-20T13:25:22.970Z</time>
      </trkpt>
      <trkpt lat="44.084074" lon="10.164889">
        <ele>745.743</ele>
        <time>2024-10-20T13:29:02.968Z</time>
      </trkpt>
      <trkpt lat="44.083883" lon="10.164453">
        <ele>748.864</ele>
        <time>2024-10-20T13:31:37.968Z</time>
      </trkpt>
      <trkpt lat="44.083595" lon="10.163143">
        <ele>759.937</ele>
        <time>2024-10-20T13:33:41.968Z</time>
      </trkpt>
      <trkpt lat="44.083040" lon="10.162033">
        <ele>768.635</ele>
        <time>2024-10-20T13:35:22.967Z</time>
      </trkpt>
      <trkpt lat="44.082784" lon="10.161831">
        <ele>772.987</ele>
        <time>2024-10-20T13:35:50.967Z</time>
      </trkpt>
      <trkpt lat="44.081997" lon="10.161582">
        <ele>781.288</ele>
        <time>2024-10-20T13:38:30.967Z</time>
      </trkpt>
      <trkpt lat="44.081833" lon="10.161314">
        <ele>779.482</ele>
        <time>2024-10-20T13:38:57.967Z</time>
      </trkpt>
      <trkpt lat="44.081579" lon="10.161180">
        <ele>780.643</ele>
        <time>2024-10-20T13:42:56.968Z</time>
      </trkpt>
      <trkpt lat="44.080862" lon="10.160198">
        <ele>795.439</ele>
        <time>2024-10-20T13:45:52.967Z</time>
      </trkpt>
      <trkpt lat="44.080766" lon="10.159547">
        <ele>802.501</ele>
        <time>2024-10-20T13:47:09.967Z</time>
      </trkpt>
      <trkpt lat="44.080557" lon="10.159199">
        <ele>809.021</ele>
        <time>2024-10-20T13:47:52.967Z</time>
      </trkpt>
      <trkpt lat="44.080542" lon="10.158787">
        <ele>812.309</ele>
        <time>2024-10-20T13:48:23.967Z</time>
      </trkpt>
      <trkpt lat="44.080477" lon="10.159052">
        <ele>816.424</ele>
        <time>2024-10-20T13:49:05.967Z</time>
      </trkpt>
      <trkpt lat="44.080379" lon="10.158373">
        <ele>823.961</ele>
        <time>2024-10-20T13:50:15.966Z</time>
      </trkpt>
      <trkpt lat="44.080217" lon="10.158381">
        <ele>828.452</ele>
        <time>2024-10-20T13:52:49.966Z</time>
      </trkpt>
      <trkpt lat="44.080258" lon="10.158281">
        <ele>828.475</ele>
        <time>2024-10-20T13:54:53.966Z</time>
      </trkpt>
      <trkpt lat="44.080455" lon="10.158453">
        <ele>827.213</ele>
        <time>2024-10-20T13:57:24.967Z</time>
      </trkpt>
      <trkpt lat="44.080457" lon="10.159041">
        <ele>821.495</ele>
        <time>2024-10-20T13:58:36.967Z</time>
      </trkpt>
      <trkpt lat="44.080574" lon="10.158735">
        <ele>813.756</ele>
        <time>2024-10-20T13:59:11.967Z</time>
      </trkpt>
      <trkpt lat="44.080588" lon="10.159137">
        <ele>814.070</ele>
        <time>2024-10-20T13:59:52.967Z</time>
      </trkpt>
      <trkpt lat="44.080904" lon="10.160185">
        <ele>802.461</ele>
        <time>2024-10-20T14:01:49.966Z</time>
      </trkpt>
      <trkpt lat="44.081966" lon="10.161499">
        <ele>777.675</ele>
        <time>2024-10-20T14:05:31.967Z</time>
      </trkpt>
      <trkpt lat="44.081991" lon="10.161416">
        <ele>778.028</ele>
        <time>2024-10-20T14:05:55.967Z</time>
      </trkpt>
      <trkpt lat="44.082291" lon="10.161372">
        <ele>770.920</ele>
        <time>2024-10-20T14:06:43.967Z</time>
      </trkpt>
      <trkpt lat="44.082260" lon="10.161247">
        <ele>766.809</ele>
        <time>2024-10-20T14:07:21.967Z</time>
      </trkpt>
      <trkpt lat="44.082372" lon="10.161126">
        <ele>759.798</ele>
        <time>2024-10-20T14:07:53.967Z</time>
      </trkpt>
      <trkpt lat="44.082562" lon="10.161142">
        <ele>751.955</ele>
        <time>2024-10-20T14:08:28.967Z</time>
      </trkpt>
      <trkpt lat="44.082869" lon="10.160898">
        <ele>738.366</ele>
        <time>2024-10-20T14:09:49.968Z</time>
      </trkpt>
      <trkpt lat="44.082699" lon="10.160819">
        <ele>730.559</ele>
        <time>2024-10-20T14:10:40.967Z</time>
      </trkpt>
      <trkpt lat="44.082700" lon="10.160643">
        <ele>727.917</ele>
        <time>2024-10-20T14:11:08.967Z</time>
      </trkpt>
      <trkpt lat="44.082461" lon="10.160239">
        <ele>718.089</ele>
        <time>2024-10-20T14:12:29.967Z</time>
      </trkpt>
      <trkpt lat="44.082438" lon="10.159992">
        <ele>714.160</ele>
        <time>2024-10-20T14:13:06.966Z</time>
      </trkpt>
      <trkpt lat="44.082634" lon="10.159885">
        <ele>702.094</ele>
        <time>2024-10-20T14:14:01.966Z</time>
      </trkpt>
      <trkpt lat="44.082668" lon="10.159653">
        <ele>694.735</ele>
        <time>2024-10-20T14:14:41.967Z</time>
      </trkpt>
      <trkpt lat="44.082606" lon="10.159133">
        <ele>680.895</ele>
        <time>2024-10-20T14:15:59.968Z</time>
      </trkpt>
      <trkpt lat="44.082800" lon="10.159137">
        <ele>671.849</ele>
        <time>2024-10-20T14:16:26.968Z</time>
      </trkpt>
      <trkpt lat="44.082918" lon="10.159265">
        <ele>671.823</ele>
        <time>2024-10-20T14:16:49.968Z</time>
      </trkpt>
      <trkpt lat="44.083113" lon="10.159098">
        <ele>663.409</ele>
        <time>2024-10-20T14:17:53.967Z</time>
      </trkpt>
      <trkpt lat="44.083559" lon="10.159050">
        <ele>642.790</ele>
        <time>2024-10-20T14:19:08.968Z</time>
      </trkpt>
      <trkpt lat="44.083822" lon="10.158596">
        <ele>622.187</ele>
        <time>2024-10-20T14:20:57.969Z</time>
      </trkpt>
      <trkpt lat="44.083983" lon="10.158653">
        <ele>614.488</ele>
        <time>2024-10-20T14:21:15.969Z</time>
      </trkpt>
      <trkpt lat="44.084125" lon="10.158313">
        <ele>603.391</ele>
        <time>2024-10-20T14:22:13.969Z</time>
      </trkpt>
      <trkpt lat="44.084059" lon="10.158089">
        <ele>598.339</ele>
        <time>2024-10-20T14:22:58.969Z</time>
      </trkpt>
      <trkpt lat="44.084180" lon="10.157891">
        <ele>592.321</ele>
        <time>2024-10-20T14:23:22.968Z</time>
      </trkpt>
      <trkpt lat="44.084322" lon="10.157913">
        <ele>585.732</ele>
        <time>2024-10-20T14:23:43.968Z</time>
      </trkpt>
      <trkpt lat="44.084381" lon="10.157809">
        <ele>581.586</ele>
        <time>2024-10-20T14:24:12.968Z</time>
      </trkpt>
      <trkpt lat="44.084700" lon="10.157992">
        <ele>569.417</ele>
        <time>2024-10-20T14:25:07.969Z</time>
      </trkpt>
      <trkpt lat="44.084919" lon="10.158269">
        <ele>557.658</ele>
        <time>2024-10-20T14:25:43.968Z</time>
      </trkpt>
      <trkpt lat="44.085078" lon="10.158261">
        <ele>554.352</ele>
        <time>2024-10-20T14:26:19.968Z</time>
      </trkpt>
      <trkpt lat="44.085441" lon="10.158491">
        <ele>540.117</ele>
        <time>2024-10-20T14:27:07.967Z</time>
      </trkpt>
      <trkpt lat="44.085424" lon="10.158726">
        <ele>529.409</ele>
        <time>2024-10-20T14:27:27.967Z</time>
      </trkpt>
      <trkpt lat="44.085615" lon="10.158810">
        <ele>528.176</ele>
        <time>2024-10-20T14:27:46.967Z</time>
      </trkpt>
      <trkpt lat="44.086028" lon="10.159325">
        <ele>532.273</ele>
        <time>2024-10-20T14:28:27.967Z</time>
      </trkpt>
      <trkpt lat="44.086221" lon="10.159760">
        <ele>529.094</ele>
        <time>2024-10-20T14:29:03.967Z</time>
      </trkpt>
      <trkpt lat="44.086275" lon="10.160201">
        <ele>539.197</ele>
        <time>2024-10-20T14:30:35.968Z</time>
      </trkpt>
      <trkpt lat="44.086090" lon="10.159836">
        <ele>539.135</ele>
        <time>2024-10-20T14:31:30.967Z</time>
      </trkpt>
      <trkpt lat="44.086346" lon="10.159134">
        <ele>534.317</ele>
        <time>2024-10-20T14:32:33.967Z</time>
      </trkpt>
      <trkpt lat="44.086185" lon="10.158857">
        <ele>539.348</ele>
        <time>2024-10-20T14:33:04.967Z</time>
      </trkpt>
      <trkpt lat="44.086214" lon="10.158422">
        <ele>534.592</ele>
        <time>2024-10-20T14:33:31.968Z</time>
      </trkpt>
      <trkpt lat="44.086319" lon="10.158126">
        <ele>536.383</ele>
        <time>2024-10-20T14:33:58.967Z</time>
      </trkpt>
      <trkpt lat="44.086428" lon="10.158230">
        <ele>537.594</ele>
        <time>2024-10-20T14:34:34.967Z</time>
      </trkpt>
      <trkpt lat="44.086434" lon="10.158101">
        <ele>529.957</ele>
        <time>2024-10-20T14:34:43.967Z</time>
      </trkpt>
      <trkpt lat="44.086245" lon="10.157540">
        <ele>533.022</ele>
        <time>2024-10-20T14:35:11.967Z</time>
      </trkpt>
      <trkpt lat="44.086213" lon="10.155882">
        <ele>539.209</ele>
        <time>2024-10-20T14:37:10.968Z</time>
      </trkpt>
      <trkpt lat="44.086076" lon="10.155740">
        <ele>536.080</ele>
        <time>2024-10-20T14:38:31.968Z</time>
      </trkpt>
      <trkpt lat="44.086170" lon="10.155607">
        <ele>535.667</ele>
        <time>2024-10-20T14:39:17.968Z</time>
      </trkpt>
      <trkpt lat="44.086104" lon="10.155430">
        <ele>537.088</ele>
        <time>2024-10-20T14:39:35.968Z</time>
      </trkpt>
      <trkpt lat="44.086158" lon="10.155378">
        <ele>537.241</ele>
        <time>2024-10-20T14:40:15.968Z</time>
      </trkpt>
      <trkpt lat="44.086337" lon="10.155585">
        <ele>538.429</ele>
        <time>2024-10-20T14:41:15.968Z</time>
      </trkpt>
      <trkpt lat="44.086261" lon="10.155575">
        <ele>538.331</ele>
        <time>2024-10-20T14:41:19.107Z</time>
      </trkpt>
      <trkpt lat="44.086438" lon="10.155648">
        <ele>538.832</ele>
        <time>2024-10-20T14:41:21.108Z</time>
      </trkpt>
      <trkpt lat="44.086256" lon="10.155490">
        <ele>542.866</ele>
        <time>2024-10-20T14:42:38.107Z</time>
      </trkpt>
      <trkpt lat="44.086143" lon="10.155516">
        <ele>541.567</ele>
        <time>2024-10-20T14:44:29.107Z</time>
      </trkpt>
      <trkpt lat="44.086233" lon="10.155509">
        <ele>540.847</ele>
        <time>2024-10-20T14:45:01.107Z</time>
      </trkpt>
      <trkpt lat="44.086151" lon="10.155521">
        <ele>540.129</ele>
        <time>2024-10-20T14:45:10.111Z</time>
      </trkpt>
      <trkpt lat="44.086204" lon="10.155577">
        <ele>538.121</ele>
        <time>2024-10-20T14:45:37.107Z</time>
      </trkpt>
      <trkpt lat="44.086303" lon="10.155455">
        <ele>538.109</ele>
        <time>2024-10-20T14:46:05.968Z</time>
      </trkpt>
      <trkpt lat="44.086298" lon="10.155547">
        <ele>540.195</ele>
        <time>2024-10-20T14:50:17.967Z</time>
      </trkpt>
      <trkpt lat="44.085821" lon="10.154975">
        <ele>542.482</ele>
        <time>2024-10-20T15:29:11.995Z</time>
      </trkpt>
      <trkpt lat="44.085859" lon="10.154779">
        <ele>539.683</ele>
        <time>2024-10-20T15:29:36.995Z</time>
      </trkpt>
      <trkpt lat="44.085819" lon="10.154983">
        <ele>532.386</ele>
        <time>2024-10-20T15:30:25.995Z</time>
      </trkpt>
      <trkpt lat="44.085980" lon="10.155122">
        <ele>533.924</ele>
        <time>2024-10-20T15:31:37.995Z</time>
      </trkpt>
      <trkpt lat="44.086033" lon="10.155061">
        <ele>536.086</ele>
        <time>2024-10-20T15:32:46.995Z</time>
      </trkpt>
      <trkpt lat="44.086034" lon="10.155147">
        <ele>538.167</ele>
        <time>2024-10-20T15:32:59.995Z</time>
      </trkpt>
      <trkpt lat="44.085863" lon="10.155033">
        <ele>535.131</ele>
        <time>2024-10-20T15:33:55.995Z</time>
      </trkpt>
      <trkpt lat="44.085840" lon="10.154894">
        <ele>532.982</ele>
        <time>2024-10-20T15:34:18.995Z</time>
      </trkpt>
      <trkpt lat="44.085555" lon="10.154849">
        <ele>530.041</ele>
        <time>2024-10-20T15:34:48.995Z</time>
      </trkpt>
      <trkpt lat="44.085554" lon="10.155201">
        <ele>527.281</ele>
        <time>2024-10-20T15:35:16.995Z</time>
      </trkpt>
      <trkpt lat="44.085755" lon="10.155546">
        <ele>522.409</ele>
        <time>2024-10-20T15:35:43.994Z</time>
      </trkpt>
      <trkpt lat="44.085812" lon="10.156116">
        <ele>522.009</ele>
        <time>2024-10-20T15:36:18.994Z</time>
      </trkpt>
      <trkpt lat="44.085707" lon="10.156495">
        <ele>524.145</ele>
        <time>2024-10-20T15:36:49.994Z</time>
      </trkpt>
      <trkpt lat="44.085559" lon="10.156645">
        <ele>518.672</ele>
        <time>2024-10-20T15:37:05.994Z</time>
      </trkpt>
      <trkpt lat="44.085633" lon="10.156897">
        <ele>516.433</ele>
        <time>2024-10-20T15:37:26.822Z</time>
      </trkpt>
      <trkpt lat="44.085528" lon="10.157001">
        <ele>512.456</ele>
        <time>2024-10-20T15:37:40.823Z</time>
      </trkpt>
      <trkpt lat="44.085407" lon="10.156624">
        <ele>509.944</ele>
        <time>2024-10-20T15:38:08.823Z</time>
      </trkpt>
      <trkpt lat="44.085501" lon="10.156249">
        <ele>508.756</ele>
        <time>2024-10-20T15:38:34.823Z</time>
      </trkpt>
      <trkpt lat="44.084820" lon="10.155263">
        <ele>500.817</ele>
        <time>2024-10-20T15:40:03.824Z</time>
      </trkpt>
      <trkpt lat="44.084761" lon="10.154588">
        <ele>497.931</ele>
        <time>2024-10-20T15:40:49.824Z</time>
      </trkpt>
      <trkpt lat="44.084365" lon="10.153788">
        <ele>489.112</ele>
        <time>2024-10-20T15:41:59.824Z</time>
      </trkpt>
      <trkpt lat="44.084332" lon="10.153511">
        <ele>489.189</ele>
        <time>2024-10-20T15:42:16.824Z</time>
      </trkpt>
      <trkpt lat="44.084519" lon="10.153197">
        <ele>487.006</ele>
        <time>2024-10-20T15:42:44.824Z</time>
      </trkpt>
      <trkpt lat="44.084472" lon="10.153074">
        <ele>487.326</ele>
        <time>2024-10-20T15:42:53.824Z</time>
      </trkpt>
      <trkpt lat="44.084296" lon="10.153192">
        <ele>487.809</ele>
        <time>2024-10-20T15:43:12.824Z</time>
      </trkpt>
      <trkpt lat="44.084198" lon="10.153729">
        <ele>479.219</ele>
        <time>2024-10-20T15:43:48.824Z</time>
      </trkpt>
      <trkpt lat="44.084120" lon="10.153654">
        <ele>476.716</ele>
        <time>2024-10-20T15:44:00.824Z</time>
      </trkpt>
      <trkpt lat="44.084208" lon="10.153186">
        <ele>475.637</ele>
        <time>2024-10-20T15:44:38.824Z</time>
      </trkpt>
      <trkpt lat="44.084396" lon="10.152867">
        <ele>472.540</ele>
        <time>2024-10-20T15:45:11.824Z</time>
      </trkpt>
      <trkpt lat="44.085201" lon="10.153135">
        <ele>468.288</ele>
        <time>2024-10-20T15:46:29.823Z</time>
      </trkpt>
      <trkpt lat="44.085135" lon="10.152962">
        <ele>462.420</ele>
        <time>2024-10-20T15:46:41.823Z</time>
      </trkpt>
      <trkpt lat="44.084624" lon="10.152795">
        <ele>464.081</ele>
        <time>2024-10-20T15:47:31.823Z</time>
      </trkpt>
      <trkpt lat="44.084241" lon="10.152464">
        <ele>453.895</ele>
        <time>2024-10-20T15:48:13.822Z</time>
      </trkpt>
      <trkpt lat="44.084252" lon="10.152130">
        <ele>450.326</ele>
        <time>2024-10-20T15:48:28.822Z</time>
      </trkpt>
      <trkpt lat="44.084388" lon="10.152028">
        <ele>446.487</ele>
        <time>2024-10-20T15:49:02.822Z</time>
      </trkpt>
      <trkpt lat="44.084409" lon="10.152139">
        <ele>443.442</ele>
        <time>2024-10-20T15:49:38.822Z</time>
      </trkpt>
      <trkpt lat="44.084349" lon="10.152008">
        <ele>448.326</ele>
        <time>2024-10-20T15:52:40.819Z</time>
      </trkpt>
      <trkpt lat="44.084426" lon="10.152080">
        <ele>448.409</ele>
        <time>2024-10-20T15:53:06.819Z</time>
      </trkpt>
    </trkseg>
  </trk></gpx>