<?xml version="1.0" encoding="UTF-8"?>
<gpx creator="Wikiloc - https://www.wikiloc.com" version="1.1" xmlns="http://www.topografix.com/GPX/1/1" xmlns:xsi="http://www.w3.org/2001/XMLSchema-instance" xsi:schemaLocation="http://www.topografix.com/GPX/1/1 http://www.topografix.com/GPX/1/1/gpx.xsd">
  <metadata>
    <name>Wikiloc - Baite di Mezzeno-Baita Branchino-Passo Branchino-Lago Branch...</name>
    <link href="https://www.wikiloc.com/hiking-trails/baite-di-mezzeno-baita-branchino-passo-branchino-lago-branchino-stars-box-rifugio-branchino-baite-d-148700459">
      <text>Baite di Mezzeno-Baita Branchino-Passo Branchino-Lago Branch... on Wikiloc</text>
    </link>
    <time>2023-09-09T13:45:49Z</time>
  </metadata>
  <trk>
    <name>Baite di Mezzeno-Baita Branchino-Passo Branchino-Lago Branch... - Wikiloc</name>
    <cmt></cmt>
    <desc></desc>
    <trkseg>
      <trkpt lat="45.962955" lon="9.797867">
        <ele>1546.434</ele>
        <time>2023-09-09T09:01:42Z</time>
      </trkpt>
      <trkpt lat="45.963152" lon="9.798143">
        <ele>1561.055</ele>
        <time>2023-09-09T09:02:33Z</time>
      </trkpt>
      <trkpt lat="45.963225" lon="9.798543">
        <ele>1563.810</ele>
        <time>2023-09-09T09:03:08Z</time>
      </trkpt>
      <trkpt lat="45.963712" lon="9.799685">
        <ele>1574.809</ele>
        <time>2023-09-09T09:05:09Z</time>
      </trkpt>
      <trkpt lat="45.964296" lon="9.799921">
        <ele>1578.484</ele>
        <time>2023-09-09T09:06:19Z</time>
      </trkpt>
      <trkpt lat="45.965073" lon="9.799973">
        <ele>1581.247</ele>
        <time>2023-09-09T09:07:48Z</time>
      </trkpt>
      <trkpt lat="45.965231" lon="9.800253">
        <ele>1580.211</ele>
        <time>2023-09-09T09:08:21Z</time>
      </trkpt>
      <trkpt lat="45.965278" lon="9.801151">
        <ele>1572.650</ele>
        <time>2023-09-09T09:09:22Z</time>
      </trkpt>
      <trkpt lat="45.965442" lon="9.801762">
        <ele>1568.053</ele>
        <time>2023-09-09T09:10:20Z</time>
      </trkpt>
      <trkpt lat="45.965320" lon="9.802214">
        <ele>1566.673</ele>
        <time>2023-09-09T09:11:18Z</time>
      </trkpt>
      <trkpt lat="45.964953" lon="9.802192">
        <ele>1568.237</ele>
        <time>2023-09-09T09:11:52Z</time>
      </trkpt>
      <trkpt lat="45.964164" lon="9.801662">
        <ele>1578.298</ele>
        <time>2023-09-09T09:13:40Z</time>
      </trkpt>
      <trkpt lat="45.964020" lon="9.801627">
        <ele>1578.412</ele>
        <time>2023-09-09T09:14:11Z</time>
      </trkpt>
      <trkpt lat="45.963820" lon="9.801761">
        <ele>1574.675</ele>
        <time>2023-09-09T09:14:56Z</time>
      </trkpt>
      <trkpt lat="45.963277" lon="9.801334">
        <ele>1567.028</ele>
        <time>2023-09-09T09:16:23Z</time>
      </trkpt>
      <trkpt lat="45.962245" lon="9.801037">
        <ele>1558.820</ele>
        <time>2023-09-09T09:18:47Z</time>
      </trkpt>
      <trkpt lat="45.961841" lon="9.800490">
        <ele>1565.209</ele>
        <time>2023-09-09T09:20:19Z</time>
      </trkpt>
      <trkpt lat="45.961611" lon="9.800514">
        <ele>1559.058</ele>
        <time>2023-09-09T09:21:00Z</time>
      </trkpt>
      <trkpt lat="45.961001" lon="9.799850">
        <ele>1555.861</ele>
        <time>2023-09-09T09:22:56Z</time>
      </trkpt>
      <trkpt lat="45.960648" lon="9.799759">
        <ele>1557.855</ele>
        <time>2023-09-09T09:23:38Z</time>
      </trkpt>
      <trkpt lat="45.959441" lon="9.798120">
        <ele>1589.664</ele>
        <time>2023-09-09T09:29:45Z</time>
      </trkpt>
      <trkpt lat="45.959015" lon="9.798144">
        <ele>1603.897</ele>
        <time>2023-09-09T09:32:29Z</time>
      </trkpt>
      <trkpt lat="45.958839" lon="9.798258">
        <ele>1610.097</ele>
        <time>2023-09-09T09:33:54Z</time>
      </trkpt>
      <trkpt lat="45.958739" lon="9.798196">
        <ele>1611.621</ele>
        <time>2023-09-09T09:34:30Z</time>
      </trkpt>
      <trkpt lat="45.958833" lon="9.798227">
        <ele>1617.642</ele>
        <time>2023-09-09T09:35:36Z</time>
      </trkpt>
      <trkpt lat="45.958687" lon="9.798304">
        <ele>1622.496</ele>
        <time>2023-09-09T09:36:34Z</time>
      </trkpt>
      <trkpt lat="45.958677" lon="9.798504">
        <ele>1624.677</ele>
        <time>2023-09-09T09:37:01Z</time>
      </trkpt>
      <trkpt lat="45.958396" lon="9.798641">
        <ele>1630.061</ele>
        <time>2023-09-09T09:39:01Z</time>
      </trkpt>
      <trkpt lat="45.958028" lon="9.798159">
        <ele>1632.227</ele>
        <time>2023-09-09T09:40:37Z</time>
      </trkpt>
      <trkpt lat="45.957240" lon="9.797599">
        <ele>1631.209</ele>
        <time>2023-09-09T09:43:00Z</time>
      </trkpt>
      <trkpt lat="45.956995" lon="9.797723">
        <ele>1628.428</ele>
        <time>2023-09-09T09:43:45Z</time>
      </trkpt>
      <trkpt lat="45.956852" lon="9.797592">
        <ele>1626.251</ele>
        <time>2023-09-09T09:44:06Z</time>
      </trkpt>
      <trkpt lat="45.956216" lon="9.797431">
        <ele>1620.285</ele>
        <time>2023-09-09T09:45:20Z</time>
      </trkpt>
      <trkpt lat="45.956009" lon="9.797258">
        <ele>1620.854</ele>
        <time>2023-09-09T09:45:52Z</time>
      </trkpt>
      <trkpt lat="45.955357" lon="9.797180">
        <ele>1623.247</ele>
        <time>2023-09-09T09:47:52Z</time>
      </trkpt>
      <trkpt lat="45.955151" lon="9.797290">
        <ele>1626.817</ele>
        <time>2023-09-09T09:48:27Z</time>
      </trkpt>
      <trkpt lat="45.954601" lon="9.797268">
        <ele>1636.651</ele>
        <time>2023-09-09T09:50:39Z</time>
      </trkpt>
      <trkpt lat="45.954431" lon="9.797516">
        <ele>1643.232</ele>
        <time>2023-09-09T09:52:20Z</time>
      </trkpt>
      <trkpt lat="45.954275" lon="9.797459">
        <ele>1646.856</ele>
        <time>2023-09-09T09:53:47Z</time>
      </trkpt>
      <trkpt lat="45.954145" lon="9.797568">
        <ele>1649.262</ele>
        <time>2023-09-09T09:54:43Z</time>
      </trkpt>
      <trkpt lat="45.953933" lon="9.797221">
        <ele>1654.283</ele>
        <time>2023-09-09T09:56:04Z</time>
      </trkpt>
      <trkpt lat="45.953856" lon="9.797286">
        <ele>1657.011</ele>
        <time>2023-09-09T09:57:05Z</time>
      </trkpt>
      <trkpt lat="45.953602" lon="9.797200">
        <ele>1666.209</ele>
        <time>2023-09-09T09:59:08Z</time>
      </trkpt>
      <trkpt lat="45.953254" lon="9.796603">
        <ele>1672.677</ele>
        <time>2023-09-09T10:01:13Z</time>
      </trkpt>
      <trkpt lat="45.952935" lon="9.796419">
        <ele>1669.450</ele>
        <time>2023-09-09T10:02:01Z</time>
      </trkpt>
      <trkpt lat="45.952915" lon="9.796217">
        <ele>1672.634</ele>
        <time>2023-09-09T10:03:00Z</time>
      </trkpt>
      <trkpt lat="45.952722" lon="9.795942">
        <ele>1681.853</ele>
        <time>2023-09-09T10:05:07Z</time>
      </trkpt>
      <trkpt lat="45.952467" lon="9.795908">
        <ele>1690.476</ele>
        <time>2023-09-09T10:07:54Z</time>
      </trkpt>
      <trkpt lat="45.952161" lon="9.795730">
        <ele>1696.016</ele>
        <time>2023-09-09T10:09:04Z</time>
      </trkpt>
      <trkpt lat="45.952200" lon="9.795641">
        <ele>1696.480</ele>
        <time>2023-09-09T10:10:15Z</time>
      </trkpt>
      <trkpt lat="45.951499" lon="9.795293">
        <ele>1709.831</ele>
        <time>2023-09-09T10:13:58Z</time>
      </trkpt>
      <trkpt lat="45.951099" lon="9.795348">
        <ele>1722.645</ele>
        <time>2023-09-09T10:17:02Z</time>
      </trkpt>
      <trkpt lat="45.950892" lon="9.795208">
        <ele>1727.423</ele>
        <time>2023-09-09T10:18:15Z</time>
      </trkpt>
      <trkpt lat="45.950446" lon="9.795236">
        <ele>1735.083</ele>
        <time>2023-09-09T10:20:21Z</time>
      </trkpt>
      <trkpt lat="45.950267" lon="9.795123">
        <ele>1740.611</ele>
        <time>2023-09-09T10:21:39Z</time>
      </trkpt>
      <trkpt lat="45.950010" lon="9.795350">
        <ele>1750.409</ele>
        <time>2023-09-09T10:24:16Z</time>
      </trkpt>
      <trkpt lat="45.949932" lon="9.795780">
        <ele>1758.643</ele>
        <time>2023-09-09T10:26:38Z</time>
      </trkpt>
      <trkpt lat="45.949612" lon="9.796066">
        <ele>1767.496</ele>
        <time>2023-09-09T10:28:56Z</time>
      </trkpt>
      <trkpt lat="45.949479" lon="9.796439">
        <ele>1768.810</ele>
        <time>2023-09-09T10:33:11Z</time>
      </trkpt>
      <trkpt lat="45.949129" lon="9.796921">
        <ele>1772.849</ele>
        <time>2023-09-09T10:34:15Z</time>
      </trkpt>
      <trkpt lat="45.948908" lon="9.797841">
        <ele>1782.062</ele>
        <time>2023-09-09T10:36:36Z</time>
      </trkpt>
      <trkpt lat="45.949028" lon="9.798028">
        <ele>1785.042</ele>
        <time>2023-09-09T10:37:24Z</time>
      </trkpt>
      <trkpt lat="45.948952" lon="9.798937">
        <ele>1789.026</ele>
        <time>2023-09-09T10:39:22Z</time>
      </trkpt>
      <trkpt lat="45.949159" lon="9.799690">
        <ele>1804.467</ele>
        <time>2023-09-09T10:43:11Z</time>
      </trkpt>
      <trkpt lat="45.949270" lon="9.799675">
        <ele>1807.691</ele>
        <time>2023-09-09T10:44:12Z</time>
      </trkpt>
      <trkpt lat="45.949141" lon="9.800057">
        <ele>1816.836</ele>
        <time>2023-09-09T10:46:42Z</time>
      </trkpt>
      <trkpt lat="45.949179" lon="9.800295">
        <ele>1817.817</ele>
        <time>2023-09-09T10:47:49Z</time>
      </trkpt>
      <trkpt lat="45.949683" lon="9.801382">
        <ele>1802.018</ele>
        <time>2023-09-09T10:51:14Z</time>
      </trkpt>
      <trkpt lat="45.949868" lon="9.802107">
        <ele>1795.809</ele>
        <time>2023-09-09T10:52:54Z</time>
      </trkpt>
      <trkpt lat="45.950193" lon="9.802531">
        <ele>1792.024</ele>
        <time>2023-09-09T10:54:28Z</time>
      </trkpt>
      <trkpt lat="45.950523" lon="9.803301">
        <ele>1790.227</ele>
        <time>2023-09-09T10:55:49Z</time>
      </trkpt>
      <trkpt lat="45.950557" lon="9.803795">
        <ele>1790.621</ele>
        <time>2023-09-09T10:56:38Z</time>
      </trkpt>
      <trkpt lat="45.950780" lon="9.804473">
        <ele>1791.640</ele>
        <time>2023-09-09T10:57:56Z</time>
      </trkpt>
      <trkpt lat="45.950706" lon="9.804600">
        <ele>1792.413</ele>
        <time>2023-09-09T10:58:50Z</time>
      </trkpt>
      <trkpt lat="45.950903" lon="9.804484">
        <ele>1792.433</ele>
        <time>2023-09-09T10:59:43Z</time>
      </trkpt>
      <trkpt lat="45.951004" lon="9.804661">
        <ele>1789.447</ele>
        <time>2023-09-09T11:00:17Z</time>
      </trkpt>
      <trkpt lat="45.951147" lon="9.804526">
        <ele>1790.058</ele>
        <time>2023-09-09T11:00:40Z</time>
      </trkpt>
      <trkpt lat="45.951283" lon="9.804117">
        <ele>1793.682</ele>
        <time>2023-09-09T11:02:03Z</time>
      </trkpt>
      <trkpt lat="45.951160" lon="9.803949">
        <ele>1793.657</ele>
        <time>2023-09-09T11:03:05Z</time>
      </trkpt>
      <trkpt lat="45.951276" lon="9.804074">
        <ele>1793.800</ele>
        <time>2023-09-09T11:03:41Z</time>
      </trkpt>
      <trkpt lat="45.950945" lon="9.804069">
        <ele>1793.220</ele>
        <time>2023-09-09T11:04:41Z</time>
      </trkpt>
      <trkpt lat="45.950708" lon="9.803799">
        <ele>1793.809</ele>
        <time>2023-09-09T11:05:33Z</time>
      </trkpt>
      <trkpt lat="45.950853" lon="9.804112">
        <ele>1793.216</ele>
        <time>2023-09-09T11:06:30Z</time>
      </trkpt>
      <trkpt lat="45.951359" lon="9.804168">
        <ele>1793.279</ele>
        <time>2023-09-09T11:13:29Z</time>
      </trkpt>
      <trkpt lat="45.951277" lon="9.804155">
        <ele>1793.273</ele>
        <time>2023-09-09T11:14:15Z</time>
      </trkpt>
      <trkpt lat="45.950964" lon="9.804663">
        <ele>1788.252</ele>
        <time>2023-09-09T11:15:21Z</time>
      </trkpt>
      <trkpt lat="45.950863" lon="9.804474">
        <ele>1790.895</ele>
        <time>2023-09-09T11:15:49Z</time>
      </trkpt>
      <trkpt lat="45.950626" lon="9.804379">
        <ele>1788.885</ele>
        <time>2023-09-09T11:16:28Z</time>
      </trkpt>
      <trkpt lat="45.950688" lon="9.804228">
        <ele>1789.469</ele>
        <time>2023-09-09T11:17:09Z</time>
      </trkpt>
      <trkpt lat="45.950574" lon="9.803364">
        <ele>1789.080</ele>
        <time>2023-09-09T11:18:25Z</time>
      </trkpt>
      <trkpt lat="45.950096" lon="9.802247">
        <ele>1793.074</ele>
        <time>2023-09-09T11:20:38Z</time>
      </trkpt>
      <trkpt lat="45.949825" lon="9.801899">
        <ele>1795.838</ele>
        <time>2023-09-09T11:22:03Z</time>
      </trkpt>
      <trkpt lat="45.949703" lon="9.801368">
        <ele>1800.870</ele>
        <time>2023-09-09T11:23:24Z</time>
      </trkpt>
      <trkpt lat="45.949144" lon="9.800409">
        <ele>1815.217</ele>
        <time>2023-09-09T11:27:25Z</time>
      </trkpt>
      <trkpt lat="45.949275" lon="9.799758">
        <ele>1815.009</ele>
        <time>2023-09-09T12:06:13Z</time>
      </trkpt>
      <trkpt lat="45.948948" lon="9.799002">
        <ele>1796.024</ele>
        <time>2023-09-09T12:08:15Z</time>
      </trkpt>
      <trkpt lat="45.949021" lon="9.798028">
        <ele>1791.297</ele>
        <time>2023-09-09T12:11:19Z</time>
      </trkpt>
      <trkpt lat="45.948924" lon="9.797902">
        <ele>1789.061</ele>
        <time>2023-09-09T12:11:38Z</time>
      </trkpt>
      <trkpt lat="45.949065" lon="9.797050">
        <ele>1780.820</ele>
        <time>2023-09-09T12:12:50Z</time>
      </trkpt>
      <trkpt lat="45.949664" lon="9.795987">
        <ele>1774.073</ele>
        <time>2023-09-09T12:14:53Z</time>
      </trkpt>
      <trkpt lat="45.949953" lon="9.795713">
        <ele>1764.083</ele>
        <time>2023-09-09T12:16:34Z</time>
      </trkpt>
      <trkpt lat="45.950020" lon="9.795306">
        <ele>1757.237</ele>
        <time>2023-09-09T12:17:30Z</time>
      </trkpt>
      <trkpt lat="45.950320" lon="9.795137">
        <ele>1747.278</ele>
        <time>2023-09-09T12:19:16Z</time>
      </trkpt>
      <trkpt lat="45.951125" lon="9.795375">
        <ele>1730.452</ele>
        <time>2023-09-09T12:21:27Z</time>
      </trkpt>
      <trkpt lat="45.951297" lon="9.795295">
        <ele>1724.474</ele>
        <time>2023-09-09T12:22:05Z</time>
      </trkpt>
      <trkpt lat="45.951627" lon="9.795342">
        <ele>1716.456</ele>
        <time>2023-09-09T12:23:18Z</time>
      </trkpt>
      <trkpt lat="45.952122" lon="9.795681">
        <ele>1706.421</ele>
        <time>2023-09-09T12:25:05Z</time>
      </trkpt>
      <trkpt lat="45.952727" lon="9.795898">
        <ele>1692.609</ele>
        <time>2023-09-09T12:27:41Z</time>
      </trkpt>
      <trkpt lat="45.952868" lon="9.796274">
        <ele>1683.468</ele>
        <time>2023-09-09T12:28:57Z</time>
      </trkpt>
      <trkpt lat="45.953167" lon="9.796394">
        <ele>1685.051</ele>
        <time>2023-09-09T12:30:57Z</time>
      </trkpt>
      <trkpt lat="45.953489" lon="9.796912">
        <ele>1683.265</ele>
        <time>2023-09-09T12:32:19Z</time>
      </trkpt>
      <trkpt lat="45.953802" lon="9.797117">
        <ele>1674.614</ele>
        <time>2023-09-09T12:34:56Z</time>
      </trkpt>
      <trkpt lat="45.953913" lon="9.797021">
        <ele>1671.477</ele>
        <time>2023-09-09T12:35:20Z</time>
      </trkpt>
      <trkpt lat="45.954170" lon="9.797333">
        <ele>1666.887</ele>
        <time>2023-09-09T12:36:20Z</time>
      </trkpt>
      <trkpt lat="45.954287" lon="9.797184">
        <ele>1663.621</ele>
        <time>2023-09-09T12:36:59Z</time>
      </trkpt>
      <trkpt lat="45.954420" lon="9.797249">
        <ele>1662.292</ele>
        <time>2023-09-09T12:40:06Z</time>
      </trkpt>
      <trkpt lat="45.954780" lon="9.796951">
        <ele>1653.256</ele>
        <time>2023-09-09T12:41:16Z</time>
      </trkpt>
      <trkpt lat="45.955741" lon="9.796999">
        <ele>1644.652</ele>
        <time>2023-09-09T12:43:36Z</time>
      </trkpt>
      <trkpt lat="45.957325" lon="9.797691">
        <ele>1655.253</ele>
        <time>2023-09-09T12:49:02Z</time>
      </trkpt>
      <trkpt lat="45.958100" lon="9.798245">
        <ele>1651.208</ele>
        <time>2023-09-09T12:53:37Z</time>
      </trkpt>
      <trkpt lat="45.958096" lon="9.798107">
        <ele>1650.409</ele>
        <time>2023-09-09T12:54:30Z</time>
      </trkpt>
      <trkpt lat="45.958401" lon="9.798521">
        <ele>1650.876</ele>
        <time>2023-09-09T12:55:59Z</time>
      </trkpt>
      <trkpt lat="45.958735" lon="9.798291">
        <ele>1638.429</ele>
        <time>2023-09-09T12:58:25Z</time>
      </trkpt>
      <trkpt lat="45.958799" lon="9.798186">
        <ele>1635.453</ele>
        <time>2023-09-09T12:58:53Z</time>
      </trkpt>
      <trkpt lat="45.958716" lon="9.798058">
        <ele>1632.252</ele>
        <time>2023-09-09T12:59:31Z</time>
      </trkpt>
      <trkpt lat="45.959301" lon="9.798053">
        <ele>1614.875</ele>
        <time>2023-09-09T13:01:57Z</time>
      </trkpt>
      <trkpt lat="45.959384" lon="9.798162">
        <ele>1613.665</ele>
        <time>2023-09-09T13:02:36Z</time>
      </trkpt>
      <trkpt lat="45.959534" lon="9.798152">
        <ele>1607.849</ele>
        <time>2023-09-09T13:03:42Z</time>
      </trkpt>
      <trkpt lat="45.960056" lon="9.799082">
        <ele>1592.250</ele>
        <time>2023-09-09T13:07:32Z</time>
      </trkpt>
      <trkpt lat="45.960200" lon="9.799086">
        <ele>1589.214</ele>
        <time>2023-09-09T13:08:14Z</time>
      </trkpt>
      <trkpt lat="45.960761" lon="9.799832">
        <ele>1579.267</ele>
        <time>2023-09-09T13:10:24Z</time>
      </trkpt>
      <trkpt lat="45.961065" lon="9.799912">
        <ele>1576.881</ele>
        <time>2023-09-09T13:11:06Z</time>
      </trkpt>
      <trkpt lat="45.961480" lon="9.800463">
        <ele>1577.619</ele>
        <time>2023-09-09T13:12:20Z</time>
      </trkpt>
      <trkpt lat="45.961817" lon="9.800570">
        <ele>1584.809</ele>
        <time>2023-09-09T13:15:05Z</time>
      </trkpt>
      <trkpt lat="45.962197" lon="9.801006">
        <ele>1577.827</ele>
        <time>2023-09-09T13:16:44Z</time>
      </trkpt>
      <trkpt lat="45.963054" lon="9.801231">
        <ele>1584.470</ele>
        <time>2023-09-09T13:19:50Z</time>
      </trkpt>
      <trkpt lat="45.963816" lon="9.801774">
        <ele>1591.824</ele>
        <time>2023-09-09T13:23:13Z</time>
      </trkpt>
      <trkpt lat="45.964243" lon="9.801639">
        <ele>1595.043</ele>
        <time>2023-09-09T13:25:45Z</time>
      </trkpt>
      <trkpt lat="45.964365" lon="9.801855">
        <ele>1591.446</ele>
        <time>2023-09-09T13:27:56Z</time>
      </trkpt>
      <trkpt lat="45.964838" lon="9.802187">
        <ele>1585.226</ele>
        <time>2023-09-09T13:29:32Z</time>
      </trkpt>
      <trkpt lat="45.965318" lon="9.802266">
        <ele>1582.290</ele>
        <time>2023-09-09T13:30:29Z</time>
      </trkpt>
      <trkpt lat="45.965441" lon="9.801843">
        <ele>1583.231</ele>
        <time>2023-09-09T13:31:17Z</time>
      </trkpt>
      <trkpt lat="45.965295" lon="9.801347">
        <ele>1586.495</ele>
        <time>2023-09-09T13:32:22Z</time>
      </trkpt>
      <trkpt lat="45.965249" lon="9.800660">
        <ele>1592.848</ele>
        <time>2023-09-09T13:34:24Z</time>
      </trkpt>
      <trkpt lat="45.965027" lon="9.800121">
        <ele>1595.261</ele>
        <time>2023-09-09T13:37:02Z</time>
      </trkpt>
      <trkpt lat="45.964976" lon="9.800164">
        <ele>1595.417</ele>
        <time>2023-09-09T13:37:24Z</time>
      </trkpt>
      <trkpt lat="45.965140" lon="9.800079">
        <ele>1594.809</ele>
        <time>2023-09-09T13:38:21Z</time>
      </trkpt>
      <trkpt lat="45.964604" lon="9.800190">
        <ele>1594.095</ele>
        <time>2023-09-09T13:40:46Z</time>
      </trkpt>
      <trkpt lat="45.963671" lon="9.799666">
        <ele>1587.478</ele>
        <time>2023-09-09T13:42:39Z</time>
      </trkpt>
      <trkpt lat="45.962980" lon="9.797921">
        <ele>1571.852</ele>
        <time>2023-09-09T13:45:49Z</time>
      </trkpt>
    </trkseg>
  </trk></gpx>