<?xml version="1.0" encoding="UTF-8"?>
<gpx creator="Wikiloc - https://www.wikiloc.com" version="1.1" xmlns="http://www.topografix.com/GPX/1/1" xmlns:xsi="http://www.w3.org/2001/XMLSchema-instance" xsi:schemaLocation="http://www.topografix.com/GPX/1/1 http://www.topografix.com/GPX/1/1/gpx.xsd">
  <metadata>
    <name>Wikiloc - borntotrek.it Anello alla vetta occidentale del Corno Grande...</name>
    <link href="https://www.wikiloc.com/hiking-trails/borntotrek-it-anello-alla-vetta-occidentale-del-corno-grande-direttissima-e-discesa-per-cresta-oves-229623198">
      <text>borntotrek.it Anello alla vetta occidentale del Corno Grande... on Wikiloc</text>
    </link>
    <time>2025-08-31T13:42:55.435Z</time>
  </metadata>
  <trk>
    <name>borntotrek.it Anello alla vetta occidentale del Corno Grande... - Wikiloc</name>
    <cmt></cmt>
    <desc></desc>
    <trkseg>
      <trkpt lat="42.442970" lon="13.558545">
        <ele>2129.743</ele>
        <time>2025-08-31T07:46:09Z</time>
      </trkpt>
      <trkpt lat="42.443606" lon="13.557997">
        <ele>2134.264</ele>
        <time>2025-08-31T07:47:05.556Z</time>
      </trkpt>
      <trkpt lat="42.443624" lon="13.557791">
        <ele>2134.710</ele>
        <time>2025-08-31T07:47:16.996Z</time>
      </trkpt>
      <trkpt lat="42.443807" lon="13.557674">
        <ele>2137.709</ele>
        <time>2025-08-31T07:47:32.119Z</time>
      </trkpt>
      <trkpt lat="42.444301" lon="13.557423">
        <ele>2147.046</ele>
        <time>2025-08-31T07:48:11.590Z</time>
      </trkpt>
      <trkpt lat="42.444496" lon="13.557514">
        <ele>2150.746</ele>
        <time>2025-08-31T07:48:27.084Z</time>
      </trkpt>
      <trkpt lat="42.444799" lon="13.557509">
        <ele>2151.753</ele>
        <time>2025-08-31T07:48:50.417Z</time>
      </trkpt>
      <trkpt lat="42.445374" lon="13.556918">
        <ele>2170.860</ele>
        <time>2025-08-31T07:51:18.435Z</time>
      </trkpt>
      <trkpt lat="42.445670" lon="13.557014">
        <ele>2178.656</ele>
        <time>2025-08-31T07:51:55.435Z</time>
      </trkpt>
      <trkpt lat="42.445770" lon="13.556572">
        <ele>2189.827</ele>
        <time>2025-08-31T07:52:34.435Z</time>
      </trkpt>
      <trkpt lat="42.445954" lon="13.556578">
        <ele>2192.335</ele>
        <time>2025-08-31T07:53:00.435Z</time>
      </trkpt>
      <trkpt lat="42.445996" lon="13.556312">
        <ele>2198.483</ele>
        <time>2025-08-31T07:53:20.435Z</time>
      </trkpt>
      <trkpt lat="42.446227" lon="13.556507">
        <ele>2206.852</ele>
        <time>2025-08-31T07:55:51.435Z</time>
      </trkpt>
      <trkpt lat="42.446526" lon="13.556309">
        <ele>2211.988</ele>
        <time>2025-08-31T07:56:22.435Z</time>
      </trkpt>
      <trkpt lat="42.446704" lon="13.556346">
        <ele>2211.824</ele>
        <time>2025-08-31T07:56:39.435Z</time>
      </trkpt>
      <trkpt lat="42.447468" lon="13.556203">
        <ele>2212.226</ele>
        <time>2025-08-31T07:57:49.435Z</time>
      </trkpt>
      <trkpt lat="42.447912" lon="13.556248">
        <ele>2206.409</ele>
        <time>2025-08-31T07:58:18.435Z</time>
      </trkpt>
      <trkpt lat="42.448959" lon="13.556649">
        <ele>2209.480</ele>
        <time>2025-08-31T07:59:48.435Z</time>
      </trkpt>
      <trkpt lat="42.449610" lon="13.557479">
        <ele>2214.890</ele>
        <time>2025-08-31T08:01:02.435Z</time>
      </trkpt>
      <trkpt lat="42.449698" lon="13.557755">
        <ele>2216.567</ele>
        <time>2025-08-31T08:01:25.435Z</time>
      </trkpt>
      <trkpt lat="42.450067" lon="13.558327">
        <ele>2224.384</ele>
        <time>2025-08-31T08:02:20.435Z</time>
      </trkpt>
      <trkpt lat="42.450472" lon="13.559536">
        <ele>2246.330</ele>
        <time>2025-08-31T08:04:15.435Z</time>
      </trkpt>
      <trkpt lat="42.450906" lon="13.560073">
        <ele>2253.671</ele>
        <time>2025-08-31T08:05:59.435Z</time>
      </trkpt>
      <trkpt lat="42.451236" lon="13.560266">
        <ele>2264.729</ele>
        <time>2025-08-31T08:06:56.435Z</time>
      </trkpt>
      <trkpt lat="42.451586" lon="13.559991">
        <ele>2267.847</ele>
        <time>2025-08-31T08:07:41.435Z</time>
      </trkpt>
      <trkpt lat="42.451735" lon="13.559725">
        <ele>2271.286</ele>
        <time>2025-08-31T08:08:06.435Z</time>
      </trkpt>
      <trkpt lat="42.452073" lon="13.559420">
        <ele>2273.459</ele>
        <time>2025-08-31T08:08:43.435Z</time>
      </trkpt>
      <trkpt lat="42.452478" lon="13.559189">
        <ele>2279.003</ele>
        <time>2025-08-31T08:09:34.435Z</time>
      </trkpt>
      <trkpt lat="42.452870" lon="13.559105">
        <ele>2283.523</ele>
        <time>2025-08-31T08:09:52.435Z</time>
      </trkpt>
      <trkpt lat="42.453250" lon="13.558754">
        <ele>2280.209</ele>
        <time>2025-08-31T08:10:27.435Z</time>
      </trkpt>
      <trkpt lat="42.453544" lon="13.558806">
        <ele>2289.077</ele>
        <time>2025-08-31T08:10:57.435Z</time>
      </trkpt>
      <trkpt lat="42.453641" lon="13.558742">
        <ele>2290.017</ele>
        <time>2025-08-31T08:11:11.435Z</time>
      </trkpt>
      <trkpt lat="42.453794" lon="13.558825">
        <ele>2296.234</ele>
        <time>2025-08-31T08:11:56.435Z</time>
      </trkpt>
      <trkpt lat="42.453743" lon="13.558452">
        <ele>2312.781</ele>
        <time>2025-08-31T08:13:08.435Z</time>
      </trkpt>
      <trkpt lat="42.453974" lon="13.558557">
        <ele>2327.247</ele>
        <time>2025-08-31T08:13:57.435Z</time>
      </trkpt>
      <trkpt lat="42.453935" lon="13.558498">
        <ele>2327.978</ele>
        <time>2025-08-31T08:14:55.435Z</time>
      </trkpt>
      <trkpt lat="42.454083" lon="13.558413">
        <ele>2334.146</ele>
        <time>2025-08-31T08:16:21.435Z</time>
      </trkpt>
      <trkpt lat="42.454410" lon="13.558540">
        <ele>2340.874</ele>
        <time>2025-08-31T08:16:54.435Z</time>
      </trkpt>
      <trkpt lat="42.454812" lon="13.559065">
        <ele>2329.473</ele>
        <time>2025-08-31T08:21:28.435Z</time>
      </trkpt>
      <trkpt lat="42.455155" lon="13.559230">
        <ele>2324.098</ele>
        <time>2025-08-31T08:21:51.435Z</time>
      </trkpt>
      <trkpt lat="42.455866" lon="13.559895">
        <ele>2327.915</ele>
        <time>2025-08-31T08:23:39.435Z</time>
      </trkpt>
      <trkpt lat="42.456388" lon="13.560166">
        <ele>2333.226</ele>
        <time>2025-08-31T08:24:35.435Z</time>
      </trkpt>
      <trkpt lat="42.457462" lon="13.561143">
        <ele>2355.109</ele>
        <time>2025-08-31T08:27:04.435Z</time>
      </trkpt>
      <trkpt lat="42.457934" lon="13.561304">
        <ele>2364.351</ele>
        <time>2025-08-31T08:27:56.435Z</time>
      </trkpt>
      <trkpt lat="42.457943" lon="13.561435">
        <ele>2367.161</ele>
        <time>2025-08-31T08:28:15.435Z</time>
      </trkpt>
      <trkpt lat="42.458219" lon="13.561551">
        <ele>2376.668</ele>
        <time>2025-08-31T08:28:55.435Z</time>
      </trkpt>
      <trkpt lat="42.458640" lon="13.562478">
        <ele>2394.465</ele>
        <time>2025-08-31T08:30:22.435Z</time>
      </trkpt>
      <trkpt lat="42.458638" lon="13.563103">
        <ele>2401.581</ele>
        <time>2025-08-31T08:31:06.435Z</time>
      </trkpt>
      <trkpt lat="42.458751" lon="13.563331">
        <ele>2403.382</ele>
        <time>2025-08-31T08:31:24.435Z</time>
      </trkpt>
      <trkpt lat="42.458776" lon="13.563777">
        <ele>2404.950</ele>
        <time>2025-08-31T08:31:49.435Z</time>
      </trkpt>
      <trkpt lat="42.459367" lon="13.564160">
        <ele>2404.918</ele>
        <time>2025-08-31T08:32:48.435Z</time>
      </trkpt>
      <trkpt lat="42.461343" lon="13.563994">
        <ele>2421.757</ele>
        <time>2025-08-31T08:35:40.435Z</time>
      </trkpt>
      <trkpt lat="42.461976" lon="13.564545">
        <ele>2420.522</ele>
        <time>2025-08-31T08:40:08.435Z</time>
      </trkpt>
      <trkpt lat="42.462789" lon="13.563760">
        <ele>2435.162</ele>
        <time>2025-08-31T08:41:54.435Z</time>
      </trkpt>
      <trkpt lat="42.462951" lon="13.563510">
        <ele>2440.108</ele>
        <time>2025-08-31T08:42:26.435Z</time>
      </trkpt>
      <trkpt lat="42.463075" lon="13.563840">
        <ele>2447.309</ele>
        <time>2025-08-31T08:43:15.435Z</time>
      </trkpt>
      <trkpt lat="42.463360" lon="13.564084">
        <ele>2460.924</ele>
        <time>2025-08-31T08:43:57.435Z</time>
      </trkpt>
      <trkpt lat="42.463574" lon="13.563749">
        <ele>2472.944</ele>
        <time>2025-08-31T08:44:57.435Z</time>
      </trkpt>
      <trkpt lat="42.463838" lon="13.563590">
        <ele>2479.091</ele>
        <time>2025-08-31T08:45:37.435Z</time>
      </trkpt>
      <trkpt lat="42.464058" lon="13.563756">
        <ele>2493.058</ele>
        <time>2025-08-31T08:50:59.435Z</time>
      </trkpt>
      <trkpt lat="42.464456" lon="13.563712">
        <ele>2509.744</ele>
        <time>2025-08-31T08:52:22.435Z</time>
      </trkpt>
      <trkpt lat="42.464480" lon="13.563881">
        <ele>2516.575</ele>
        <time>2025-08-31T08:52:52.435Z</time>
      </trkpt>
      <trkpt lat="42.464626" lon="13.563874">
        <ele>2526.383</ele>
        <time>2025-08-31T08:54:19.435Z</time>
      </trkpt>
      <trkpt lat="42.464749" lon="13.563984">
        <ele>2538.311</ele>
        <time>2025-08-31T08:55:10.435Z</time>
      </trkpt>
      <trkpt lat="42.465058" lon="13.563921">
        <ele>2550.740</ele>
        <time>2025-08-31T08:56:45.435Z</time>
      </trkpt>
      <trkpt lat="42.465042" lon="13.564050">
        <ele>2555.237</ele>
        <time>2025-08-31T08:57:04.435Z</time>
      </trkpt>
      <trkpt lat="42.465159" lon="13.564167">
        <ele>2563.249</ele>
        <time>2025-08-31T08:59:14.435Z</time>
      </trkpt>
      <trkpt lat="42.465191" lon="13.564111">
        <ele>2566.713</ele>
        <time>2025-08-31T09:00:49.435Z</time>
      </trkpt>
      <trkpt lat="42.465331" lon="13.564179">
        <ele>2578.109</ele>
        <time>2025-08-31T09:01:33.435Z</time>
      </trkpt>
      <trkpt lat="42.465641" lon="13.564124">
        <ele>2595.925</ele>
        <time>2025-08-31T09:02:51.435Z</time>
      </trkpt>
      <trkpt lat="42.465718" lon="13.564217">
        <ele>2601.735</ele>
        <time>2025-08-31T09:03:23.435Z</time>
      </trkpt>
      <trkpt lat="42.466056" lon="13.564071">
        <ele>2611.752</ele>
        <time>2025-08-31T09:05:05.435Z</time>
      </trkpt>
      <trkpt lat="42.466339" lon="13.564135">
        <ele>2619.029</ele>
        <time>2025-08-31T09:06:21.435Z</time>
      </trkpt>
      <trkpt lat="42.466478" lon="13.564113">
        <ele>2622.745</ele>
        <time>2025-08-31T09:07:06.435Z</time>
      </trkpt>
      <trkpt lat="42.466422" lon="13.564089">
        <ele>2624.246</ele>
        <time>2025-08-31T09:07:53.435Z</time>
      </trkpt>
      <trkpt lat="42.466472" lon="13.564050">
        <ele>2627.714</ele>
        <time>2025-08-31T09:08:45.435Z</time>
      </trkpt>
      <trkpt lat="42.466442" lon="13.564095">
        <ele>2628.452</ele>
        <time>2025-08-31T09:09:43.435Z</time>
      </trkpt>
      <trkpt lat="42.466592" lon="13.564086">
        <ele>2628.421</ele>
        <time>2025-08-31T09:12:40.435Z</time>
      </trkpt>
      <trkpt lat="42.466598" lon="13.564156">
        <ele>2627.351</ele>
        <time>2025-08-31T09:12:59.435Z</time>
      </trkpt>
      <trkpt lat="42.466572" lon="13.564106">
        <ele>2629.201</ele>
        <time>2025-08-31T09:15:35.435Z</time>
      </trkpt>
      <trkpt lat="42.466741" lon="13.564069">
        <ele>2632.611</ele>
        <time>2025-08-31T09:17:46.435Z</time>
      </trkpt>
      <trkpt lat="42.466677" lon="13.564080">
        <ele>2635.809</ele>
        <time>2025-08-31T09:19:19.435Z</time>
      </trkpt>
      <trkpt lat="42.466695" lon="13.564022">
        <ele>2635.597</ele>
        <time>2025-08-31T09:22:33.435Z</time>
      </trkpt>
      <trkpt lat="42.466727" lon="13.564183">
        <ele>2634.977</ele>
        <time>2025-08-31T09:24:48.435Z</time>
      </trkpt>
      <trkpt lat="42.466826" lon="13.564051">
        <ele>2638.484</ele>
        <time>2025-08-31T09:28:47.435Z</time>
      </trkpt>
      <trkpt lat="42.466906" lon="13.564129">
        <ele>2645.071</ele>
        <time>2025-08-31T09:31:37.435Z</time>
      </trkpt>
      <trkpt lat="42.466929" lon="13.564066">
        <ele>2647.717</ele>
        <time>2025-08-31T09:32:39.435Z</time>
      </trkpt>
      <trkpt lat="42.466997" lon="13.564255">
        <ele>2659.528</ele>
        <time>2025-08-31T09:37:05.435Z</time>
      </trkpt>
      <trkpt lat="42.467175" lon="13.564254">
        <ele>2675.576</ele>
        <time>2025-08-31T09:39:21.435Z</time>
      </trkpt>
      <trkpt lat="42.467141" lon="13.564362">
        <ele>2683.584</ele>
        <time>2025-08-31T09:40:52.435Z</time>
      </trkpt>
      <trkpt lat="42.467405" lon="13.564467">
        <ele>2705.063</ele>
        <time>2025-08-31T09:42:31.435Z</time>
      </trkpt>
      <trkpt lat="42.467761" lon="13.564834">
        <ele>2732.834</ele>
        <time>2025-08-31T09:57:05.435Z</time>
      </trkpt>
      <trkpt lat="42.467655" lon="13.564732">
        <ele>2736.855</ele>
        <time>2025-08-31T09:58:33.435Z</time>
      </trkpt>
      <trkpt lat="42.467672" lon="13.564806">
        <ele>2740.810</ele>
        <time>2025-08-31T09:59:34.435Z</time>
      </trkpt>
      <trkpt lat="42.467653" lon="13.564688">
        <ele>2748.109</ele>
        <time>2025-08-31T10:01:04.435Z</time>
      </trkpt>
      <trkpt lat="42.467676" lon="13.564811">
        <ele>2749.565</ele>
        <time>2025-08-31T10:02:07.435Z</time>
      </trkpt>
      <trkpt lat="42.467956" lon="13.565008">
        <ele>2766.525</ele>
        <time>2025-08-31T10:05:34.435Z</time>
      </trkpt>
      <trkpt lat="42.468112" lon="13.565065">
        <ele>2778.542</ele>
        <time>2025-08-31T10:07:14.435Z</time>
      </trkpt>
      <trkpt lat="42.468173" lon="13.564964">
        <ele>2783.389</ele>
        <time>2025-08-31T10:07:36.435Z</time>
      </trkpt>
      <trkpt lat="42.468314" lon="13.564986">
        <ele>2790.255</ele>
        <time>2025-08-31T10:11:49.435Z</time>
      </trkpt>
      <trkpt lat="42.468303" lon="13.564887">
        <ele>2794.286</ele>
        <time>2025-08-31T10:12:06.435Z</time>
      </trkpt>
      <trkpt lat="42.468319" lon="13.565008">
        <ele>2798.294</ele>
        <time>2025-08-31T10:12:38.435Z</time>
      </trkpt>
      <trkpt lat="42.468340" lon="13.564950">
        <ele>2802.252</ele>
        <time>2025-08-31T10:13:00.435Z</time>
      </trkpt>
      <trkpt lat="42.468511" lon="13.565186">
        <ele>2806.141</ele>
        <time>2025-08-31T10:17:11.435Z</time>
      </trkpt>
      <trkpt lat="42.468519" lon="13.565120">
        <ele>2810.195</ele>
        <time>2025-08-31T10:22:48.435Z</time>
      </trkpt>
      <trkpt lat="42.468872" lon="13.565000">
        <ele>2842.149</ele>
        <time>2025-08-31T10:28:23.435Z</time>
      </trkpt>
      <trkpt lat="42.469103" lon="13.565180">
        <ele>2866.123</ele>
        <time>2025-08-31T10:31:05.435Z</time>
      </trkpt>
      <trkpt lat="42.469105" lon="13.565382">
        <ele>2878.109</ele>
        <time>2025-08-31T10:36:03.435Z</time>
      </trkpt>
      <trkpt lat="42.469244" lon="13.565344">
        <ele>2890.161</ele>
        <time>2025-08-31T10:37:01.435Z</time>
      </trkpt>
      <trkpt lat="42.469331" lon="13.565571">
        <ele>2903.851</ele>
        <time>2025-08-31T10:47:11.435Z</time>
      </trkpt>
      <trkpt lat="42.469276" lon="13.565244">
        <ele>2905.078</ele>
        <time>2025-08-31T11:17:05.435Z</time>
      </trkpt>
      <trkpt lat="42.469509" lon="13.564871">
        <ele>2887.575</ele>
        <time>2025-08-31T11:20:46.435Z</time>
      </trkpt>
      <trkpt lat="42.469506" lon="13.564472">
        <ele>2881.821</ele>
        <time>2025-08-31T11:21:52.435Z</time>
      </trkpt>
      <trkpt lat="42.469759" lon="13.564071">
        <ele>2862.212</ele>
        <time>2025-08-31T11:24:22.435Z</time>
      </trkpt>
      <trkpt lat="42.469690" lon="13.563999">
        <ele>2859.160</ele>
        <time>2025-08-31T11:25:30.435Z</time>
      </trkpt>
      <trkpt lat="42.469574" lon="13.562897">
        <ele>2818.898</ele>
        <time>2025-08-31T11:35:59.435Z</time>
      </trkpt>
      <trkpt lat="42.469345" lon="13.562372">
        <ele>2804.437</ele>
        <time>2025-08-31T11:39:13.435Z</time>
      </trkpt>
      <trkpt lat="42.469226" lon="13.561495">
        <ele>2781.959</ele>
        <time>2025-08-31T11:45:46.435Z</time>
      </trkpt>
      <trkpt lat="42.469280" lon="13.561234">
        <ele>2772.603</ele>
        <time>2025-08-31T11:49:46.435Z</time>
      </trkpt>
      <trkpt lat="42.469124" lon="13.560996">
        <ele>2762.523</ele>
        <time>2025-08-31T11:50:56.435Z</time>
      </trkpt>
      <trkpt lat="42.469025" lon="13.560114">
        <ele>2730.809</ele>
        <time>2025-08-31T11:55:22.435Z</time>
      </trkpt>
      <trkpt lat="42.469084" lon="13.560020">
        <ele>2726.737</ele>
        <time>2025-08-31T11:56:21.435Z</time>
      </trkpt>
      <trkpt lat="42.469005" lon="13.559785">
        <ele>2715.757</ele>
        <time>2025-08-31T11:57:21.435Z</time>
      </trkpt>
      <trkpt lat="42.469121" lon="13.559493">
        <ele>2700.754</ele>
        <time>2025-08-31T11:59:52.435Z</time>
      </trkpt>
      <trkpt lat="42.469010" lon="13.558900">
        <ele>2682.881</ele>
        <time>2025-08-31T12:04:44.435Z</time>
      </trkpt>
      <trkpt lat="42.469055" lon="13.558799">
        <ele>2679.597</ele>
        <time>2025-08-31T12:05:17.435Z</time>
      </trkpt>
      <trkpt lat="42.468886" lon="13.558417">
        <ele>2671.798</ele>
        <time>2025-08-31T12:07:57.435Z</time>
      </trkpt>
      <trkpt lat="42.469024" lon="13.558281">
        <ele>2656.796</ele>
        <time>2025-08-31T12:10:45.435Z</time>
      </trkpt>
      <trkpt lat="42.469018" lon="13.557403">
        <ele>2635.424</ele>
        <time>2025-08-31T12:13:10.435Z</time>
      </trkpt>
      <trkpt lat="42.469079" lon="13.557321">
        <ele>2635.493</ele>
        <time>2025-08-31T12:14:06.435Z</time>
      </trkpt>
      <trkpt lat="42.469013" lon="13.556959">
        <ele>2634.762</ele>
        <time>2025-08-31T12:15:57.435Z</time>
      </trkpt>
      <trkpt lat="42.469544" lon="13.556094">
        <ele>2613.483</ele>
        <time>2025-08-31T12:20:19.435Z</time>
      </trkpt>
      <trkpt lat="42.469759" lon="13.555399">
        <ele>2591.011</ele>
        <time>2025-08-31T12:22:24.435Z</time>
      </trkpt>
      <trkpt lat="42.469594" lon="13.555232">
        <ele>2581.609</ele>
        <time>2025-08-31T12:22:46.435Z</time>
      </trkpt>
      <trkpt lat="42.469531" lon="13.555025">
        <ele>2572.828</ele>
        <time>2025-08-31T12:23:39.435Z</time>
      </trkpt>
      <trkpt lat="42.469606" lon="13.554970">
        <ele>2565.738</ele>
        <time>2025-08-31T12:23:58.435Z</time>
      </trkpt>
      <trkpt lat="42.469430" lon="13.554666">
        <ele>2552.115</ele>
        <time>2025-08-31T12:26:19.435Z</time>
      </trkpt>
      <trkpt lat="42.469452" lon="13.554490">
        <ele>2546.712</ele>
        <time>2025-08-31T12:26:42.435Z</time>
      </trkpt>
      <trkpt lat="42.469330" lon="13.554354">
        <ele>2540.038</ele>
        <time>2025-08-31T12:26:59.435Z</time>
      </trkpt>
      <trkpt lat="42.469045" lon="13.554203">
        <ele>2532.059</ele>
        <time>2025-08-31T12:27:32.435Z</time>
      </trkpt>
      <trkpt lat="42.468519" lon="13.554087">
        <ele>2513.057</ele>
        <time>2025-08-31T12:28:17.435Z</time>
      </trkpt>
      <trkpt lat="42.468011" lon="13.554123">
        <ele>2502.265</ele>
        <time>2025-08-31T12:29:00.435Z</time>
      </trkpt>
      <trkpt lat="42.467730" lon="13.553899">
        <ele>2496.884</ele>
        <time>2025-08-31T12:29:50.435Z</time>
      </trkpt>
      <trkpt lat="42.467579" lon="13.553935">
        <ele>2491.942</ele>
        <time>2025-08-31T12:47:55.435Z</time>
      </trkpt>
      <trkpt lat="42.467398" lon="13.553829">
        <ele>2488.122</ele>
        <time>2025-08-31T12:48:23.435Z</time>
      </trkpt>
      <trkpt lat="42.467037" lon="13.554008">
        <ele>2479.914</ele>
        <time>2025-08-31T12:49:20.435Z</time>
      </trkpt>
      <trkpt lat="42.466994" lon="13.554189">
        <ele>2474.609</ele>
        <time>2025-08-31T12:49:44.435Z</time>
      </trkpt>
      <trkpt lat="42.467175" lon="13.554393">
        <ele>2467.586</ele>
        <time>2025-08-31T12:50:45.435Z</time>
      </trkpt>
      <trkpt lat="42.467369" lon="13.554891">
        <ele>2453.156</ele>
        <time>2025-08-31T12:51:49.435Z</time>
      </trkpt>
      <trkpt lat="42.467277" lon="13.555187">
        <ele>2440.973</ele>
        <time>2025-08-31T12:52:24.435Z</time>
      </trkpt>
      <trkpt lat="42.467188" lon="13.555029">
        <ele>2435.460</ele>
        <time>2025-08-31T12:52:40.435Z</time>
      </trkpt>
      <trkpt lat="42.467165" lon="13.555093">
        <ele>2433.376</ele>
        <time>2025-08-31T12:52:49.435Z</time>
      </trkpt>
      <trkpt lat="42.467200" lon="13.555510">
        <ele>2422.017</ele>
        <time>2025-08-31T12:53:25.435Z</time>
      </trkpt>
      <trkpt lat="42.467111" lon="13.555550">
        <ele>2415.085</ele>
        <time>2025-08-31T12:53:54.435Z</time>
      </trkpt>
      <trkpt lat="42.467089" lon="13.555833">
        <ele>2403.593</ele>
        <time>2025-08-31T12:54:32.435Z</time>
      </trkpt>
      <trkpt lat="42.466752" lon="13.556745">
        <ele>2387.172</ele>
        <time>2025-08-31T12:55:32.435Z</time>
      </trkpt>
      <trkpt lat="42.466498" lon="13.556974">
        <ele>2371.185</ele>
        <time>2025-08-31T12:56:00.435Z</time>
      </trkpt>
      <trkpt lat="42.465871" lon="13.557960">
        <ele>2341.589</ele>
        <time>2025-08-31T12:57:28.435Z</time>
      </trkpt>
      <trkpt lat="42.465502" lon="13.558105">
        <ele>2333.417</ele>
        <time>2025-08-31T12:58:02.435Z</time>
      </trkpt>
      <trkpt lat="42.465384" lon="13.558241">
        <ele>2332.709</ele>
        <time>2025-08-31T12:58:15.435Z</time>
      </trkpt>
      <trkpt lat="42.465177" lon="13.558213">
        <ele>2330.090</ele>
        <time>2025-08-31T12:58:39.435Z</time>
      </trkpt>
      <trkpt lat="42.464209" lon="13.558471">
        <ele>2318.380</ele>
        <time>2025-08-31T12:59:55.435Z</time>
      </trkpt>
      <trkpt lat="42.463807" lon="13.558370">
        <ele>2316.247</ele>
        <time>2025-08-31T13:00:24.435Z</time>
      </trkpt>
      <trkpt lat="42.463420" lon="13.558118">
        <ele>2314.034</ele>
        <time>2025-08-31T13:00:59.435Z</time>
      </trkpt>
      <trkpt lat="42.462945" lon="13.558026">
        <ele>2313.930</ele>
        <time>2025-08-31T13:01:33.435Z</time>
      </trkpt>
      <trkpt lat="42.462698" lon="13.558118">
        <ele>2315.521</ele>
        <time>2025-08-31T13:01:55.435Z</time>
      </trkpt>
      <trkpt lat="42.462121" lon="13.558694">
        <ele>2309.529</ele>
        <time>2025-08-31T13:02:47.435Z</time>
      </trkpt>
      <trkpt lat="42.461518" lon="13.558576">
        <ele>2311.427</ele>
        <time>2025-08-31T13:04:25.435Z</time>
      </trkpt>
      <trkpt lat="42.461186" lon="13.558665">
        <ele>2307.186</ele>
        <time>2025-08-31T13:04:55.435Z</time>
      </trkpt>
      <trkpt lat="42.460972" lon="13.558835">
        <ele>2306.584</ele>
        <time>2025-08-31T13:05:14.435Z</time>
      </trkpt>
      <trkpt lat="42.460863" lon="13.558730">
        <ele>2306.807</ele>
        <time>2025-08-31T13:05:27.435Z</time>
      </trkpt>
      <trkpt lat="42.460789" lon="13.558139">
        <ele>2306.917</ele>
        <time>2025-08-31T13:06:06.435Z</time>
      </trkpt>
      <trkpt lat="42.460584" lon="13.558012">
        <ele>2313.609</ele>
        <time>2025-08-31T13:06:31.435Z</time>
      </trkpt>
      <trkpt lat="42.459827" lon="13.558575">
        <ele>2317.440</ele>
        <time>2025-08-31T13:07:50.435Z</time>
      </trkpt>
      <trkpt lat="42.459160" lon="13.558849">
        <ele>2316.340</ele>
        <time>2025-08-31T13:08:52.435Z</time>
      </trkpt>
      <trkpt lat="42.458245" lon="13.559836">
        <ele>2320.497</ele>
        <time>2025-08-31T13:10:30.435Z</time>
      </trkpt>
      <trkpt lat="42.457962" lon="13.559989">
        <ele>2325.494</ele>
        <time>2025-08-31T13:10:54.435Z</time>
      </trkpt>
      <trkpt lat="42.457130" lon="13.559916">
        <ele>2326.730</ele>
        <time>2025-08-31T13:11:56.435Z</time>
      </trkpt>
      <trkpt lat="42.456357" lon="13.559588">
        <ele>2326.441</ele>
        <time>2025-08-31T13:13:03.435Z</time>
      </trkpt>
      <trkpt lat="42.455548" lon="13.559620">
        <ele>2323.979</ele>
        <time>2025-08-31T13:14:17.435Z</time>
      </trkpt>
      <trkpt lat="42.454764" lon="13.559007">
        <ele>2329.027</ele>
        <time>2025-08-31T13:16:14.435Z</time>
      </trkpt>
      <trkpt lat="42.454521" lon="13.558646">
        <ele>2332.126</ele>
        <time>2025-08-31T13:16:46.435Z</time>
      </trkpt>
      <trkpt lat="42.454106" lon="13.558443">
        <ele>2334.021</ele>
        <time>2025-08-31T13:17:31.435Z</time>
      </trkpt>
      <trkpt lat="42.454019" lon="13.558575">
        <ele>2330.941</ele>
        <time>2025-08-31T13:17:50.435Z</time>
      </trkpt>
      <trkpt lat="42.453725" lon="13.558490">
        <ele>2322.405</ele>
        <time>2025-08-31T13:18:41.435Z</time>
      </trkpt>
      <trkpt lat="42.453837" lon="13.558702">
        <ele>2315.209</ele>
        <time>2025-08-31T13:19:29.435Z</time>
      </trkpt>
      <trkpt lat="42.453773" lon="13.558730">
        <ele>2309.074</ele>
        <time>2025-08-31T13:20:00.435Z</time>
      </trkpt>
      <trkpt lat="42.453827" lon="13.558867">
        <ele>2297.864</ele>
        <time>2025-08-31T13:20:28.435Z</time>
      </trkpt>
      <trkpt lat="42.453250" lon="13.558947">
        <ele>2280.271</ele>
        <time>2025-08-31T13:21:56.435Z</time>
      </trkpt>
      <trkpt lat="42.452662" lon="13.559246">
        <ele>2277.568</ele>
        <time>2025-08-31T13:22:40.435Z</time>
      </trkpt>
      <trkpt lat="42.452347" lon="13.559292">
        <ele>2273.514</ele>
        <time>2025-08-31T13:23:08.435Z</time>
      </trkpt>
      <trkpt lat="42.452184" lon="13.559518">
        <ele>2275.735</ele>
        <time>2025-08-31T13:24:19.435Z</time>
      </trkpt>
      <trkpt lat="42.451771" lon="13.559757">
        <ele>2273.593</ele>
        <time>2025-08-31T13:25:06.435Z</time>
      </trkpt>
      <trkpt lat="42.451323" lon="13.560380">
        <ele>2266.711</ele>
        <time>2025-08-31T13:26:11.435Z</time>
      </trkpt>
      <trkpt lat="42.451061" lon="13.560231">
        <ele>2263.340</ele>
        <time>2025-08-31T13:26:41.435Z</time>
      </trkpt>
      <trkpt lat="42.450644" lon="13.559701">
        <ele>2244.724</ele>
        <time>2025-08-31T13:27:50.435Z</time>
      </trkpt>
      <trkpt lat="42.450515" lon="13.559418">
        <ele>2241.704</ele>
        <time>2025-08-31T13:28:13.435Z</time>
      </trkpt>
      <trkpt lat="42.450504" lon="13.559074">
        <ele>2235.514</ele>
        <time>2025-08-31T13:28:36.435Z</time>
      </trkpt>
      <trkpt lat="42.450268" lon="13.558863">
        <ele>2231.509</ele>
        <time>2025-08-31T13:29:14.435Z</time>
      </trkpt>
      <trkpt lat="42.450176" lon="13.558294">
        <ele>2214.814</ele>
        <time>2025-08-31T13:30:04.435Z</time>
      </trkpt>
      <trkpt lat="42.449521" lon="13.557237">
        <ele>2203.154</ele>
        <time>2025-08-31T13:31:40.435Z</time>
      </trkpt>
      <trkpt lat="42.448592" lon="13.556531">
        <ele>2210.421</ele>
        <time>2025-08-31T13:33:08.435Z</time>
      </trkpt>
      <trkpt lat="42.447511" lon="13.556210">
        <ele>2210.168</ele>
        <time>2025-08-31T13:34:28.435Z</time>
      </trkpt>
      <trkpt lat="42.447015" lon="13.556394">
        <ele>2208.614</ele>
        <time>2025-08-31T13:35:09.435Z</time>
      </trkpt>
      <trkpt lat="42.446343" lon="13.556508">
        <ele>2203.945</ele>
        <time>2025-08-31T13:36:02.435Z</time>
      </trkpt>
      <trkpt lat="42.446201" lon="13.556483">
        <ele>2205.073</ele>
        <time>2025-08-31T13:36:16.435Z</time>
      </trkpt>
      <trkpt lat="42.446044" lon="13.556318">
        <ele>2200.871</ele>
        <time>2025-08-31T13:36:37.435Z</time>
      </trkpt>
      <trkpt lat="42.445999" lon="13.556624">
        <ele>2197.480</ele>
        <time>2025-08-31T13:37:03.435Z</time>
      </trkpt>
      <trkpt lat="42.445917" lon="13.556547">
        <ele>2193.922</ele>
        <time>2025-08-31T13:37:13.435Z</time>
      </trkpt>
      <trkpt lat="42.445777" lon="13.556567">
        <ele>2191.362</ele>
        <time>2025-08-31T13:37:29.435Z</time>
      </trkpt>
      <trkpt lat="42.445736" lon="13.557023">
        <ele>2186.308</ele>
        <time>2025-08-31T13:37:58.435Z</time>
      </trkpt>
      <trkpt lat="42.445316" lon="13.556964">
        <ele>2173.509</ele>
        <time>2025-08-31T13:38:45.435Z</time>
      </trkpt>
      <trkpt lat="42.444813" lon="13.557559">
        <ele>2157.774</ele>
        <time>2025-08-31T13:39:55.435Z</time>
      </trkpt>
      <trkpt lat="42.444424" lon="13.557554">
        <ele>2149.344</ele>
        <time>2025-08-31T13:40:25.435Z</time>
      </trkpt>
      <trkpt lat="42.444344" lon="13.557489">
        <ele>2146.791</ele>
        <time>2025-08-31T13:40:33.435Z</time>
      </trkpt>
      <trkpt lat="42.443745" lon="13.557826">
        <ele>2141.428</ele>
        <time>2025-08-31T13:41:24.435Z</time>
      </trkpt>
      <trkpt lat="42.443441" lon="13.557731">
        <ele>2133.024</ele>
        <time>2025-08-31T13:41:50.435Z</time>
      </trkpt>
      <trkpt lat="42.442958" lon="13.557942">
        <ele>2132.535</ele>
        <time>2025-08-31T13:42:55.435Z</time>
      </trkpt>
    </trkseg>
  </trk></gpx>