<?xml version="1.0" encoding="UTF-8"?><gpx creator="Wikiloc - https://www.wikiloc.com" version="1.1" xmlns="http://www.topografix.com/GPX/1/1" xmlns:xsi="http://www.w3.org/2001/XMLSchema-instance" xsi:schemaLocation="http://www.topografix.com/GPX/1/1 http://www.topografix.com/GPX/1/1/gpx.xsd"><metadata><name>Wikiloc - borntotrek.it Monte Viglio da Serra S.Antonio per Fonte Moscosa e il belvedere di Monte Piano</name><author><name>Fabio - Born To Trek</name><link href="https://www.wikiloc.com/wikiloc/user.do?id=1280182"><text>Fabio - Born To Trek on Wikiloc</text></link></author><link href="https://www.wikiloc.com/hiking-trails/borntotrek-it-monte-viglio-da-serra-s-antonio-per-fonte-moscosa-e-il-belvedere-di-monte-piano-229151539"><text>borntotrek.it Monte Viglio da Serra S.Antonio per Fonte Moscosa e il belvedere di Monte Piano on Wikiloc</text></link><time>2025-08-28T19:27:13.640Z</time></metadata><trk><name>borntotrek.it Monte Viglio da Serra S.Antonio per Fonte Mosc...</name><cmt></cmt><desc></desc><trkseg><trkpt lat="41.918581" lon="13.368671"><ele>1601.543</ele><time>2026-09-29T14:05:16.404260932Z</time></trkpt><trkpt lat="41.918584" lon="13.368685"><ele>1601.764</ele><time>2026-09-29T14:05:56.404264929Z</time></trkpt><trkpt lat="41.918512" lon="13.368687"><ele>1600.510</ele><time>2026-09-29T14:06:36.404267995Z</time></trkpt><trkpt lat="41.918472" lon="13.368653"><ele>1599.709</ele><time>2026-09-29T14:07:16.404270710Z</time></trkpt><trkpt lat="41.918353" lon="13.368821"><ele>1598.556</ele><time>2026-09-29T14:07:56.404273195Z</time></trkpt><trkpt lat="41.918349" lon="13.368825"><ele>1598.486</ele><time>2026-09-29T14:08:36.404275228Z</time></trkpt><trkpt lat="41.918059" lon="13.369118"><ele>1595.583</ele><time>2026-09-29T14:09:16.404277292Z</time></trkpt><trkpt lat="41.917883" lon="13.369298"><ele>1594.055</ele><time>2026-09-29T14:09:56.404279436Z</time></trkpt><trkpt lat="41.917656" lon="13.369682"><ele>1596.579</ele><time>2026-09-29T14:10:36.404281490Z</time></trkpt><trkpt lat="41.917646" lon="13.369698"><ele>1596.775</ele><time>2026-09-29T14:11:16.404283564Z</time></trkpt><trkpt lat="41.917629" lon="13.369727"><ele>1597.219</ele><time>2026-09-29T14:11:56.404285608Z</time></trkpt><trkpt lat="41.917427" lon="13.369920"><ele>1600.027</ele><time>2026-09-29T14:12:36.404287832Z</time></trkpt><trkpt lat="41.917279" lon="13.370059"><ele>1599.513</ele><time>2026-09-29T14:13:16.404289926Z</time></trkpt><trkpt lat="41.917269" lon="13.370080"><ele>1599.683</ele><time>2026-09-29T14:13:56.404292110Z</time></trkpt><trkpt lat="41.917108" lon="13.370408"><ele>1602.725</ele><time>2026-09-29T14:14:36.404294174Z</time></trkpt><trkpt lat="41.917056" lon="13.370466"><ele>1603.717</ele><time>2026-09-29T14:15:16.404296248Z</time></trkpt><trkpt lat="41.916986" lon="13.370548"><ele>1605.209</ele><time>2026-09-29T14:15:56.404298352Z</time></trkpt><trkpt lat="41.916647" lon="13.370924"><ele>1616.580</ele><time>2026-09-29T14:16:36.404300446Z</time></trkpt><trkpt lat="41.916543" lon="13.370970"><ele>1615.560</ele><time>2026-09-29T14:17:16.404302459Z</time></trkpt><trkpt lat="41.916402" lon="13.371138"><ele>1617.257</ele><time>2026-09-29T14:17:56.404304513Z</time></trkpt><trkpt lat="41.916264" lon="13.371292"><ele>1619.749</ele><time>2026-09-29T14:18:36.404306567Z</time></trkpt><trkpt lat="41.916067" lon="13.371514"><ele>1623.733</ele><time>2026-09-29T14:19:16.404308581Z</time></trkpt><trkpt lat="41.915969" lon="13.371596"><ele>1625.199</ele><time>2026-09-29T14:19:56.407819910Z</time></trkpt><trkpt lat="41.915739" lon="13.371790"><ele>1628.533</ele><time>2026-09-29T14:20:36.407826703Z</time></trkpt><trkpt lat="41.915573" lon="13.371994"><ele>1631.031</ele><time>2026-09-29T14:21:16.407829338Z</time></trkpt><trkpt lat="41.915419" lon="13.372185"><ele>1633.717</ele><time>2026-09-29T14:21:56.407831562Z</time></trkpt><trkpt lat="41.915250" lon="13.372542"><ele>1639.535</ele><time>2026-09-29T14:22:36.407834247Z</time></trkpt><trkpt lat="41.915112" lon="13.372836"><ele>1644.586</ele><time>2026-09-29T14:23:16.407836471Z</time></trkpt><trkpt lat="41.914759" lon="13.373333"><ele>1649.814</ele><time>2026-09-29T14:23:56.407839477Z</time></trkpt><trkpt lat="41.914752" lon="13.373342"><ele>1650.009</ele><time>2026-09-29T14:24:36.407843104Z</time></trkpt><trkpt lat="41.914603" lon="13.373517"><ele>1650.055</ele><time>2026-09-29T14:25:16.407846530Z</time></trkpt><trkpt lat="41.914377" lon="13.373720"><ele>1650.025</ele><time>2026-09-29T14:25:56.407849656Z</time></trkpt><trkpt lat="41.914257" lon="13.373851"><ele>1650.532</ele><time>2026-09-29T14:26:36.407852962Z</time></trkpt><trkpt lat="41.914208" lon="13.373906"><ele>1651.094</ele><time>2026-09-29T14:27:16.407856238Z</time></trkpt><trkpt lat="41.914053" lon="13.373913"><ele>1648.278</ele><time>2026-09-29T14:27:56.407859525Z</time></trkpt><trkpt lat="41.913893" lon="13.374032"><ele>1647.084</ele><time>2026-09-29T14:28:36.407862801Z</time></trkpt><trkpt lat="41.913764" lon="13.374270"><ele>1647.758</ele><time>2026-09-29T14:29:16.407866377Z</time></trkpt><trkpt lat="41.913706" lon="13.374379"><ele>1648.266</ele><time>2026-09-29T14:29:56.407869824Z</time></trkpt><trkpt lat="41.913598" lon="13.374675"><ele>1649.592</ele><time>2026-09-29T14:30:36.407873080Z</time></trkpt><trkpt lat="41.913596" lon="13.374689"><ele>1649.641</ele><time>2026-09-29T14:31:16.407877919Z</time></trkpt><trkpt lat="41.913535" lon="13.375061"><ele>1652.781</ele><time>2026-09-29T14:31:56.407881516Z</time></trkpt><trkpt lat="41.913465" lon="13.375121"><ele>1652.509</ele><time>2026-09-29T14:32:36.407884912Z</time></trkpt><trkpt lat="41.913392" lon="13.375186"><ele>1652.209</ele><time>2026-09-29T14:33:16.407888339Z</time></trkpt><trkpt lat="41.913028" lon="13.375326"><ele>1653.286</ele><time>2026-09-29T14:33:56.407891114Z</time></trkpt><trkpt lat="41.912960" lon="13.375317"><ele>1653.086</ele><time>2026-09-29T14:34:36.407893118Z</time></trkpt><trkpt lat="41.912672" lon="13.375280"><ele>1652.233</ele><time>2026-09-29T14:35:16.407895161Z</time></trkpt><trkpt lat="41.912363" lon="13.375178"><ele>1650.295</ele><time>2026-09-29T14:35:56.407897155Z</time></trkpt><trkpt lat="41.912223" lon="13.375270"><ele>1651.579</ele><time>2026-09-29T14:36:36.407899199Z</time></trkpt><trkpt lat="41.911892" lon="13.375691"><ele>1657.735</ele><time>2026-09-29T14:37:16.407901263Z</time></trkpt><trkpt lat="41.911860" lon="13.375778"><ele>1659.269</ele><time>2026-09-29T14:37:56.407903287Z</time></trkpt><trkpt lat="41.911770" lon="13.375816"><ele>1659.787</ele><time>2026-09-29T14:38:36.407905270Z</time></trkpt><trkpt lat="41.911724" lon="13.375743"><ele>1658.583</ele><time>2026-09-29T14:39:16.407907314Z</time></trkpt><trkpt lat="41.911727" lon="13.375431"><ele>1653.254</ele><time>2026-09-29T14:39:56.407909458Z</time></trkpt><trkpt lat="41.911678" lon="13.375106"><ele>1647.756</ele><time>2026-09-29T14:40:36.407911522Z</time></trkpt><trkpt lat="41.911600" lon="13.374895"><ele>1644.011</ele><time>2026-09-29T14:41:16.407913556Z</time></trkpt><trkpt lat="41.911582" lon="13.374846"><ele>1643.209</ele><time>2026-09-29T14:41:56.407915540Z</time></trkpt><trkpt lat="41.911411" lon="13.374487"><ele>1636.717</ele><time>2026-09-29T14:42:36.407917573Z</time></trkpt><trkpt lat="41.911313" lon="13.374397"><ele>1635.227</ele><time>2026-09-29T14:43:16.407919547Z</time></trkpt><trkpt lat="41.911217" lon="13.374308"><ele>1634.294</ele><time>2026-09-29T14:43:56.407921491Z</time></trkpt><trkpt lat="41.910930" lon="13.374258"><ele>1635.276</ele><time>2026-09-29T14:44:36.407923494Z</time></trkpt><trkpt lat="41.910736" lon="13.374321"><ele>1636.020</ele><time>2026-09-29T14:45:16.407925638Z</time></trkpt><trkpt lat="41.910555" lon="13.374505"><ele>1637.026</ele><time>2026-09-29T14:45:56.407927672Z</time></trkpt><trkpt lat="41.910308" lon="13.374857"><ele>1640.050</ele><time>2026-09-29T14:46:36.407929676Z</time></trkpt><trkpt lat="41.910007" lon="13.375073"><ele>1638.718</ele><time>2026-09-29T14:47:16.407931680Z</time></trkpt><trkpt lat="41.910002" lon="13.375077"><ele>1638.754</ele><time>2026-09-29T14:47:56.407933734Z</time></trkpt><trkpt lat="41.909626" lon="13.375347"><ele>1640.525</ele><time>2026-09-29T14:48:36.407935787Z</time></trkpt><trkpt lat="41.909481" lon="13.375434"><ele>1640.526</ele><time>2026-09-29T14:49:16.407959442Z</time></trkpt><trkpt lat="41.909314" lon="13.375450"><ele>1638.708</ele><time>2026-09-29T14:49:56.407961636Z</time></trkpt><trkpt lat="41.909186" lon="13.375448"><ele>1637.009</ele><time>2026-09-29T14:50:36.407963840Z</time></trkpt><trkpt lat="41.909021" lon="13.375370"><ele>1634.224</ele><time>2026-09-29T14:51:16.407965844Z</time></trkpt><trkpt lat="41.908749" lon="13.375243"><ele>1630.084</ele><time>2026-09-29T14:51:56.407967908Z</time></trkpt><trkpt lat="41.908545" lon="13.375245"><ele>1628.231</ele><time>2026-09-29T14:52:36.407969891Z</time></trkpt><trkpt lat="41.908223" lon="13.375380"><ele>1629.953</ele><time>2026-09-29T14:53:16.407971895Z</time></trkpt><trkpt lat="41.908018" lon="13.375466"><ele>1631.017</ele><time>2026-09-29T14:53:56.407973949Z</time></trkpt><trkpt lat="41.907631" lon="13.375563"><ele>1631.023</ele><time>2026-09-29T14:54:36.407975983Z</time></trkpt><trkpt lat="41.907610" lon="13.375569"><ele>1631.077</ele><time>2026-09-29T14:55:16.407978007Z</time></trkpt><trkpt lat="41.907399" lon="13.375708"><ele>1635.225</ele><time>2026-09-29T14:55:56.407979990Z</time></trkpt><trkpt lat="41.907213" lon="13.375765"><ele>1639.771</ele><time>2026-09-29T14:56:36.407981994Z</time></trkpt><trkpt lat="41.907015" lon="13.375825"><ele>1644.561</ele><time>2026-09-29T14:57:16.407984098Z</time></trkpt><trkpt lat="41.906904" lon="13.375885"><ele>1647.021</ele><time>2026-09-29T14:57:56.407986202Z</time></trkpt><trkpt lat="41.906892" lon="13.375892"><ele>1647.513</ele><time>2026-09-29T14:58:36.407988226Z</time></trkpt><trkpt lat="41.906853" lon="13.375963"><ele>1648.709</ele><time>2026-09-29T14:59:16.407990229Z</time></trkpt><trkpt lat="41.906806" lon="13.376257"><ele>1651.738</ele><time>2026-09-29T14:59:56.407992243Z</time></trkpt><trkpt lat="41.906791" lon="13.376517"><ele>1653.738</ele><time>2026-09-29T15:00:36.407994227Z</time></trkpt><trkpt lat="41.906791" lon="13.377207"><ele>1658.085</ele><time>2026-09-29T15:01:16.407996341Z</time></trkpt><trkpt lat="41.906506" lon="13.377952"><ele>1663.237</ele><time>2026-09-29T15:01:56.407998335Z</time></trkpt><trkpt lat="41.906451" lon="13.378061"><ele>1663.581</ele><time>2026-09-29T15:02:36.408000368Z</time></trkpt><trkpt lat="41.906313" lon="13.378342"><ele>1664.567</ele><time>2026-09-29T15:03:16.408002362Z</time></trkpt><trkpt lat="41.906156" lon="13.378634"><ele>1667.381</ele><time>2026-09-29T15:03:56.408004436Z</time></trkpt><trkpt lat="41.906147" lon="13.378650"><ele>1667.559</ele><time>2026-09-29T15:04:36.408006440Z</time></trkpt><trkpt lat="41.905854" lon="13.378829"><ele>1668.215</ele><time>2026-09-29T15:05:16.408008514Z</time></trkpt><trkpt lat="41.905626" lon="13.379018"><ele>1672.576</ele><time>2026-09-29T15:05:56.408010628Z</time></trkpt><trkpt lat="41.905561" lon="13.379072"><ele>1673.790</ele><time>2026-09-29T15:06:36.408012692Z</time></trkpt><trkpt lat="41.905402" lon="13.379419"><ele>1679.219</ele><time>2026-09-29T15:07:16.408014755Z</time></trkpt><trkpt lat="41.905388" lon="13.379449"><ele>1679.709</ele><time>2026-09-29T15:07:56.408016799Z</time></trkpt><trkpt lat="41.905276" lon="13.380012"><ele>1686.089</ele><time>2026-09-29T15:08:36.408018863Z</time></trkpt><trkpt lat="41.905251" lon="13.380094"><ele>1686.799</ele><time>2026-09-29T15:09:16.408020897Z</time></trkpt><trkpt lat="41.905156" lon="13.380409"><ele>1690.566</ele><time>2026-09-29T15:09:56.408022881Z</time></trkpt><trkpt lat="41.905126" lon="13.380794"><ele>1693.088</ele><time>2026-09-29T15:10:36.408024844Z</time></trkpt><trkpt lat="41.905121" lon="13.380805"><ele>1693.142</ele><time>2026-09-29T15:11:16.408026848Z</time></trkpt><trkpt lat="41.904980" lon="13.381079"><ele>1697.228</ele><time>2026-09-29T15:11:56.408028892Z</time></trkpt><trkpt lat="41.904825" lon="13.381532"><ele>1708.242</ele><time>2026-09-29T15:12:36.408030966Z</time></trkpt><trkpt lat="41.904633" lon="13.382098"><ele>1722.290</ele><time>2026-09-29T15:13:16.408032980Z</time></trkpt><trkpt lat="41.904605" lon="13.382149"><ele>1723.486</ele><time>2026-09-29T15:13:56.408035053Z</time></trkpt><trkpt lat="41.904504" lon="13.382334"><ele>1728.091</ele><time>2026-09-29T15:14:36.408038630Z</time></trkpt><trkpt lat="41.904418" lon="13.382437"><ele>1730.081</ele><time>2026-09-29T15:15:16.408041836Z</time></trkpt><trkpt lat="41.904327" lon="13.382590"><ele>1733.219</ele><time>2026-09-29T15:15:56.408044822Z</time></trkpt><trkpt lat="41.904238" lon="13.382691"><ele>1735.509</ele><time>2026-09-29T15:16:36.408047847Z</time></trkpt><trkpt lat="41.904238" lon="13.382765"><ele>1736.731</ele><time>2026-09-29T15:17:16.408051214Z</time></trkpt><trkpt lat="41.904240" lon="13.382933"><ele>1740.211</ele><time>2026-09-29T15:17:56.408054450Z</time></trkpt><trkpt lat="41.903902" lon="13.383257"><ele>1754.218</ele><time>2026-09-29T15:18:36.408057856Z</time></trkpt><trkpt lat="41.903826" lon="13.383495"><ele>1758.220</ele><time>2026-09-29T15:19:16.408061082Z</time></trkpt><trkpt lat="41.903772" lon="13.383670"><ele>1761.254</ele><time>2026-09-29T15:19:56.408064529Z</time></trkpt><trkpt lat="41.903711" lon="13.384054"><ele>1764.530</ele><time>2026-09-29T15:20:36.408067805Z</time></trkpt><trkpt lat="41.903708" lon="13.384075"><ele>1764.774</ele><time>2026-09-29T15:21:16.408070971Z</time></trkpt><trkpt lat="41.903819" lon="13.384364"><ele>1758.582</ele><time>2026-09-29T15:21:56.408073696Z</time></trkpt><trkpt lat="41.903838" lon="13.384454"><ele>1756.068</ele><time>2026-09-29T15:22:36.408076902Z</time></trkpt><trkpt lat="41.903806" lon="13.384482"><ele>1756.058</ele><time>2026-09-29T15:23:16.408080378Z</time></trkpt><trkpt lat="41.903772" lon="13.384491"><ele>1756.252</ele><time>2026-09-29T15:23:56.408083504Z</time></trkpt><trkpt lat="41.903750" lon="13.384563"><ele>1754.717</ele><time>2026-09-29T15:24:36.408086570Z</time></trkpt><trkpt lat="41.903772" lon="13.384491"><ele>1756.209</ele><time>2026-09-29T15:25:16.408089726Z</time></trkpt><trkpt lat="41.903595" lon="13.384356"><ele>1762.527</ele><time>2026-09-29T15:25:56.408092691Z</time></trkpt><trkpt lat="41.903331" lon="13.384253"><ele>1769.777</ele><time>2026-09-29T15:26:36.408095827Z</time></trkpt><trkpt lat="41.903306" lon="13.384212"><ele>1770.894</ele><time>2026-09-29T15:27:16.408098623Z</time></trkpt><trkpt lat="41.903265" lon="13.384146"><ele>1772.756</ele><time>2026-09-29T15:27:56.408101488Z</time></trkpt><trkpt lat="41.903080" lon="13.384059"><ele>1776.060</ele><time>2026-09-29T15:28:36.408104373Z</time></trkpt><trkpt lat="41.902884" lon="13.383907"><ele>1781.296</ele><time>2026-09-29T15:29:16.408107329Z</time></trkpt><trkpt lat="41.902867" lon="13.383887"><ele>1781.740</ele><time>2026-09-29T15:29:56.408110304Z</time></trkpt><trkpt lat="41.902669" lon="13.383657"><ele>1790.538</ele><time>2026-09-29T15:30:36.408113240Z</time></trkpt><trkpt lat="41.902534" lon="13.383525"><ele>1797.254</ele><time>2026-09-29T15:31:16.408116386Z</time></trkpt><trkpt lat="41.902395" lon="13.383463"><ele>1800.584</ele><time>2026-09-29T15:31:56.408119552Z</time></trkpt><trkpt lat="41.902273" lon="13.383408"><ele>1803.707</ele><time>2026-09-29T15:32:36.408122567Z</time></trkpt><trkpt lat="41.902052" lon="13.383458"><ele>1805.017</ele><time>2026-09-29T15:33:16.408125723Z</time></trkpt><trkpt lat="41.901921" lon="13.383363"><ele>1809.509</ele><time>2026-09-29T15:33:56.408129070Z</time></trkpt><trkpt lat="41.901834" lon="13.383322"><ele>1811.030</ele><time>2026-09-29T15:34:36.408132266Z</time></trkpt><trkpt lat="41.901749" lon="13.383282"><ele>1812.770</ele><time>2026-09-29T15:35:16.408135452Z</time></trkpt><trkpt lat="41.901520" lon="13.383303"><ele>1813.097</ele><time>2026-09-29T15:35:56.408138577Z</time></trkpt><trkpt lat="41.901404" lon="13.383159"><ele>1814.059</ele><time>2026-09-29T15:36:36.408141723Z</time></trkpt><trkpt lat="41.901223" lon="13.382933"><ele>1815.723</ele><time>2026-09-29T15:37:16.408144899Z</time></trkpt><trkpt lat="41.901096" lon="13.382852"><ele>1817.529</ele><time>2026-09-29T15:37:56.408148185Z</time></trkpt><trkpt lat="41.901001" lon="13.382791"><ele>1819.053</ele><time>2026-09-29T15:38:36.408151612Z</time></trkpt><trkpt lat="41.900852" lon="13.382543"><ele>1825.791</ele><time>2026-09-29T15:39:16.408162372Z</time></trkpt><trkpt lat="41.900823" lon="13.382343"><ele>1831.247</ele><time>2026-09-29T15:39:56.408164506Z</time></trkpt><trkpt lat="41.900806" lon="13.382228"><ele>1834.571</ele><time>2026-09-29T15:40:36.408166630Z</time></trkpt><trkpt lat="41.900711" lon="13.382080"><ele>1839.741</ele><time>2026-09-29T15:41:16.408168714Z</time></trkpt><trkpt lat="41.900575" lon="13.382001"><ele>1844.015</ele><time>2026-09-29T15:41:56.408170788Z</time></trkpt><trkpt lat="41.900567" lon="13.381997"><ele>1844.509</ele><time>2026-09-29T15:42:36.408172782Z</time></trkpt><trkpt lat="41.900572" lon="13.381272"><ele>1866.539</ele><time>2026-09-29T15:43:16.408174815Z</time></trkpt><trkpt lat="41.900514" lon="13.381161"><ele>1871.049</ele><time>2026-09-29T15:43:56.408176799Z</time></trkpt><trkpt lat="41.900414" lon="13.380942"><ele>1879.796</ele><time>2026-09-29T15:44:36.408178833Z</time></trkpt><trkpt lat="41.900381" lon="13.380869"><ele>1882.788</ele><time>2026-09-29T15:45:16.408180837Z</time></trkpt><trkpt lat="41.900353" lon="13.380682"><ele>1887.512</ele><time>2026-09-29T15:45:56.408182830Z</time></trkpt><trkpt lat="41.900287" lon="13.380130"><ele>1900.528</ele><time>2026-09-29T15:46:36.408184824Z</time></trkpt><trkpt lat="41.900261" lon="13.379866"><ele>1907.442</ele><time>2026-09-29T15:47:16.408186808Z</time></trkpt><trkpt lat="41.900245" lon="13.379696"><ele>1912.010</ele><time>2026-09-29T15:47:56.408190204Z</time></trkpt><trkpt lat="41.900258" lon="13.378887"><ele>1918.266</ele><time>2026-09-29T15:48:36.408192238Z</time></trkpt><trkpt lat="41.900270" lon="13.378232"><ele>1923.791</ele><time>2026-09-29T15:49:16.408195745Z</time></trkpt><trkpt lat="41.900251" lon="13.378202"><ele>1923.581</ele><time>2026-09-29T15:49:56.408199051Z</time></trkpt><trkpt lat="41.900238" lon="13.378182"><ele>1923.519</ele><time>2026-09-29T15:50:36.408202417Z</time></trkpt><trkpt lat="41.899909" lon="13.378431"><ele>1935.009</ele><time>2026-09-29T15:51:16.408205793Z</time></trkpt><trkpt lat="41.899786" lon="13.378611"><ele>1937.671</ele><time>2026-09-29T15:51:56.408208879Z</time></trkpt><trkpt lat="41.899563" lon="13.378940"><ele>1942.511</ele><time>2026-09-29T15:52:36.408212215Z</time></trkpt><trkpt lat="41.899420" lon="13.379135"><ele>1949.078</ele><time>2026-09-29T15:53:16.408215602Z</time></trkpt><trkpt lat="41.899358" lon="13.379240"><ele>1951.080</ele><time>2026-09-29T15:53:56.408218798Z</time></trkpt><trkpt lat="41.899282" lon="13.379372"><ele>1953.524</ele><time>2026-09-29T15:54:36.408222234Z</time></trkpt><trkpt lat="41.899100" lon="13.379486"><ele>1958.760</ele><time>2026-09-29T15:55:16.408225691Z</time></trkpt><trkpt lat="41.899063" lon="13.379509"><ele>1959.714</ele><time>2026-09-29T15:55:56.408228416Z</time></trkpt><trkpt lat="41.898865" lon="13.379612"><ele>1964.012</ele><time>2026-09-29T15:56:36.408230410Z</time></trkpt><trkpt lat="41.898756" lon="13.379651"><ele>1966.018</ele><time>2026-09-29T15:57:16.408232473Z</time></trkpt><trkpt lat="41.898125" lon="13.379882"><ele>1979.081</ele><time>2026-09-29T15:57:56.408234688Z</time></trkpt><trkpt lat="41.898042" lon="13.379900"><ele>1979.761</ele><time>2026-09-29T15:58:36.408236741Z</time></trkpt><trkpt lat="41.897908" lon="13.379930"><ele>1981.217</ele><time>2026-09-29T15:59:16.408238745Z</time></trkpt><trkpt lat="41.897781" lon="13.379964"><ele>1982.209</ele><time>2026-09-29T15:59:56.408240809Z</time></trkpt><trkpt lat="41.897692" lon="13.379894"><ele>1983.550</ele><time>2026-09-29T16:00:36.408242863Z</time></trkpt><trkpt lat="41.897617" lon="13.379590"><ele>1987.270</ele><time>2026-09-29T16:01:16.408244907Z</time></trkpt><trkpt lat="41.897574" lon="13.379464"><ele>1989.777</ele><time>2026-09-29T16:01:56.408246920Z</time></trkpt><trkpt lat="41.897547" lon="13.379387"><ele>1991.219</ele><time>2026-09-29T16:02:36.408248924Z</time></trkpt><trkpt lat="41.897429" lon="13.379091"><ele>1998.083</ele><time>2026-09-29T16:03:16.408250968Z</time></trkpt><trkpt lat="41.897368" lon="13.379086"><ele>1999.599</ele><time>2026-09-29T16:03:56.408253032Z</time></trkpt><trkpt lat="41.897347" lon="13.379085"><ele>2000.293</ele><time>2026-09-29T16:04:36.408255036Z</time></trkpt><trkpt lat="41.897265" lon="13.379111"><ele>2002.221</ele><time>2026-09-29T16:05:16.408257069Z</time></trkpt><trkpt lat="41.897223" lon="13.379074"><ele>2003.587</ele><time>2026-09-29T16:05:56.408259093Z</time></trkpt><trkpt lat="41.897178" lon="13.378973"><ele>2005.276</ele><time>2026-09-29T16:06:36.408261207Z</time></trkpt><trkpt lat="41.897093" lon="13.378885"><ele>2008.290</ele><time>2026-09-29T16:07:16.408263211Z</time></trkpt><trkpt lat="41.897027" lon="13.378834"><ele>2010.219</ele><time>2026-09-29T16:07:56.408265235Z</time></trkpt><trkpt lat="41.897000" lon="13.378828"><ele>2011.009</ele><time>2026-09-29T16:08:36.408267289Z</time></trkpt><trkpt lat="41.896969" lon="13.378823"><ele>2012.099</ele><time>2026-09-29T16:09:16.408269312Z</time></trkpt><trkpt lat="41.896918" lon="13.378851"><ele>2013.299</ele><time>2026-09-29T16:09:56.408271356Z</time></trkpt><trkpt lat="41.896840" lon="13.378772"><ele>2016.256</ele><time>2026-09-29T16:10:36.408273410Z</time></trkpt><trkpt lat="41.896699" lon="13.378662"><ele>2021.288</ele><time>2026-09-29T16:11:16.408275414Z</time></trkpt><trkpt lat="41.896628" lon="13.378623"><ele>2022.652</ele><time>2026-09-29T16:11:56.408277478Z</time></trkpt><trkpt lat="41.896595" lon="13.378605"><ele>2023.288</ele><time>2026-09-29T16:12:36.408279451Z</time></trkpt><trkpt lat="41.896554" lon="13.378550"><ele>2024.062</ele><time>2026-09-29T16:13:16.408281485Z</time></trkpt><trkpt lat="41.896513" lon="13.378467"><ele>2025.040</ele><time>2026-09-29T16:13:56.408283459Z</time></trkpt><trkpt lat="41.896474" lon="13.378431"><ele>2025.516</ele><time>2026-09-29T16:14:36.408285433Z</time></trkpt><trkpt lat="41.896432" lon="13.378430"><ele>2025.758</ele><time>2026-09-29T16:15:16.408287527Z</time></trkpt><trkpt lat="41.896307" lon="13.378617"><ele>2026.052</ele><time>2026-09-29T16:15:56.408289560Z</time></trkpt><trkpt lat="41.896304" lon="13.378623"><ele>2026.217</ele><time>2026-09-29T16:16:36.408291594Z</time></trkpt><trkpt lat="41.896135" lon="13.378859"><ele>2027.709</ele><time>2026-09-29T16:17:16.408293598Z</time></trkpt><trkpt lat="41.895864" lon="13.379003"><ele>2031.787</ele><time>2026-09-29T16:17:56.408295602Z</time></trkpt><trkpt lat="41.895774" lon="13.379070"><ele>2032.727</ele><time>2026-09-29T16:18:36.408297625Z</time></trkpt><trkpt lat="41.895568" lon="13.379225"><ele>2035.774</ele><time>2026-09-29T16:19:16.408299629Z</time></trkpt><trkpt lat="41.895370" lon="13.379330"><ele>2040.116</ele><time>2026-09-29T16:19:56.408301723Z</time></trkpt><trkpt lat="41.895185" lon="13.379429"><ele>2044.250</ele><time>2026-09-29T16:20:36.408303757Z</time></trkpt><trkpt lat="41.894944" lon="13.379479"><ele>2055.056</ele><time>2026-09-29T16:21:16.408305871Z</time></trkpt><trkpt lat="41.894901" lon="13.379507"><ele>2056.570</ele><time>2026-09-29T16:21:56.408307875Z</time></trkpt><trkpt lat="41.894781" lon="13.379589"><ele>2060.738</ele><time>2026-09-29T16:22:36.408309898Z</time></trkpt><trkpt lat="41.894650" lon="13.379633"><ele>2065.064</ele><time>2026-09-29T16:23:16.408311902Z</time></trkpt><trkpt lat="41.894441" lon="13.379753"><ele>2071.581</ele><time>2026-09-29T16:23:56.408313986Z</time></trkpt><trkpt lat="41.894271" lon="13.379827"><ele>2076.261</ele><time>2026-09-29T16:24:36.408316210Z</time></trkpt><trkpt lat="41.894234" lon="13.379804"><ele>2076.517</ele><time>2026-09-29T16:25:16.408318234Z</time></trkpt><trkpt lat="41.894002" lon="13.379659"><ele>2078.709</ele><time>2026-09-29T16:25:56.408320338Z</time></trkpt><trkpt lat="41.893923" lon="13.379598"><ele>2079.210</ele><time>2026-09-29T16:26:36.408322442Z</time></trkpt><trkpt lat="41.893864" lon="13.379505"><ele>2080.340</ele><time>2026-09-29T16:27:16.408324456Z</time></trkpt><trkpt lat="41.893855" lon="13.379491"><ele>2080.537</ele><time>2026-09-29T16:27:56.408326449Z</time></trkpt><trkpt lat="41.893660" lon="13.379263"><ele>2085.239</ele><time>2026-09-29T16:28:36.408328503Z</time></trkpt><trkpt lat="41.893451" lon="13.379096"><ele>2089.793</ele><time>2026-09-29T16:29:16.408336558Z</time></trkpt><trkpt lat="41.893178" lon="13.378983"><ele>2089.779</ele><time>2026-09-29T16:29:56.408338642Z</time></trkpt><trkpt lat="41.892882" lon="13.378910"><ele>2086.733</ele><time>2026-09-29T16:30:36.408340686Z</time></trkpt><trkpt lat="41.892700" lon="13.378839"><ele>2085.581</ele><time>2026-09-29T16:31:16.408342710Z</time></trkpt><trkpt lat="41.892589" lon="13.378680"><ele>2085.257</ele><time>2026-09-29T16:31:56.408344744Z</time></trkpt><trkpt lat="41.892568" lon="13.378473"><ele>2086.279</ele><time>2026-09-29T16:32:36.408346848Z</time></trkpt><trkpt lat="41.892326" lon="13.378242"><ele>2080.905</ele><time>2026-09-29T16:33:16.408348892Z</time></trkpt><trkpt lat="41.892319" lon="13.378235"><ele>2080.725</ele><time>2026-09-29T16:33:56.408350895Z</time></trkpt><trkpt lat="41.892059" lon="13.378044"><ele>2074.009</ele><time>2026-09-29T16:34:36.408352949Z</time></trkpt><trkpt lat="41.891975" lon="13.377933"><ele>2072.289</ele><time>2026-09-29T16:35:16.408354973Z</time></trkpt><trkpt lat="41.891945" lon="13.377894"><ele>2071.729</ele><time>2026-09-29T16:35:56.408356987Z</time></trkpt><trkpt lat="41.891858" lon="13.377874"><ele>2070.796</ele><time>2026-09-29T16:36:36.408360072Z</time></trkpt><trkpt lat="41.891810" lon="13.377788"><ele>2070.248</ele><time>2026-09-29T16:37:16.408363549Z</time></trkpt><trkpt lat="41.891629" lon="13.377711"><ele>2069.242</ele><time>2026-09-29T16:37:56.408367076Z</time></trkpt><trkpt lat="41.891430" lon="13.377476"><ele>2069.518</ele><time>2026-09-29T16:38:36.408370232Z</time></trkpt><trkpt lat="41.891338" lon="13.377393"><ele>2067.532</ele><time>2026-09-29T16:39:16.408373367Z</time></trkpt><trkpt lat="41.891179" lon="13.377326"><ele>2065.580</ele><time>2026-09-29T16:39:56.408376814Z</time></trkpt><trkpt lat="41.891141" lon="13.377327"><ele>2065.426</ele><time>2026-09-29T16:40:36.408380260Z</time></trkpt><trkpt lat="41.891047" lon="13.377329"><ele>2065.267</ele><time>2026-09-29T16:41:16.408383536Z</time></trkpt><trkpt lat="41.890876" lon="13.377285"><ele>2063.781</ele><time>2026-09-29T16:41:56.408386923Z</time></trkpt><trkpt lat="41.890887" lon="13.377223"><ele>2062.719</ele><time>2026-09-29T16:42:36.408390229Z</time></trkpt><trkpt lat="41.890786" lon="13.377247"><ele>2061.509</ele><time>2026-09-29T16:43:16.408393024Z</time></trkpt><trkpt lat="41.890691" lon="13.377111"><ele>2056.758</ele><time>2026-09-29T16:43:56.408394998Z</time></trkpt><trkpt lat="41.890634" lon="13.377104"><ele>2055.258</ele><time>2026-09-29T16:44:36.408396982Z</time></trkpt><trkpt lat="41.890625" lon="13.377104"><ele>2055.255</ele><time>2026-09-29T16:45:16.408399025Z</time></trkpt><trkpt lat="41.890536" lon="13.377146"><ele>2053.247</ele><time>2026-09-29T16:45:56.408400959Z</time></trkpt><trkpt lat="41.890444" lon="13.377139"><ele>2051.071</ele><time>2026-09-29T16:46:36.408402963Z</time></trkpt><trkpt lat="41.890399" lon="13.377084"><ele>2049.557</ele><time>2026-09-29T16:47:16.408404937Z</time></trkpt><trkpt lat="41.890352" lon="13.377079"><ele>2048.211</ele><time>2026-09-29T16:47:56.408406940Z</time></trkpt><trkpt lat="41.890122" lon="13.376951"><ele>2043.219</ele><time>2026-09-29T16:48:36.408408974Z</time></trkpt><trkpt lat="41.889780" lon="13.376792"><ele>2040.065</ele><time>2026-09-29T16:49:16.408411018Z</time></trkpt><trkpt lat="41.889709" lon="13.376751"><ele>2040.219</ele><time>2026-09-29T16:49:56.408413152Z</time></trkpt><trkpt lat="41.889652" lon="13.376718"><ele>2040.709</ele><time>2026-09-29T16:50:36.408415206Z</time></trkpt><trkpt lat="41.889513" lon="13.376661"><ele>2041.519</ele><time>2026-09-29T16:51:16.408417220Z</time></trkpt><trkpt lat="41.889377" lon="13.376567"><ele>2039.709</ele><time>2026-09-29T16:51:56.408419273Z</time></trkpt><trkpt lat="41.889300" lon="13.376514"><ele>2038.763</ele><time>2026-09-29T16:52:36.408421307Z</time></trkpt><trkpt lat="41.889280" lon="13.376473"><ele>2038.243</ele><time>2026-09-29T16:53:16.408423311Z</time></trkpt><trkpt lat="41.889119" lon="13.376431"><ele>2038.510</ele><time>2026-09-29T16:53:56.408425295Z</time></trkpt><trkpt lat="41.888953" lon="13.376425"><ele>2039.072</ele><time>2026-09-29T16:54:36.408427308Z</time></trkpt><trkpt lat="41.888902" lon="13.376401"><ele>2039.276</ele><time>2026-09-29T16:55:16.408429322Z</time></trkpt><trkpt lat="41.888721" lon="13.376316"><ele>2040.562</ele><time>2026-09-29T16:55:56.408431346Z</time></trkpt><trkpt lat="41.888589" lon="13.376140"><ele>2043.296</ele><time>2026-09-29T16:56:36.408433340Z</time></trkpt><trkpt lat="41.888421" lon="13.376052"><ele>2047.294</ele><time>2026-09-29T16:57:16.408435323Z</time></trkpt><trkpt lat="41.888343" lon="13.375907"><ele>2051.220</ele><time>2026-09-29T16:57:56.408437377Z</time></trkpt><trkpt lat="41.888321" lon="13.375796"><ele>2051.536</ele><time>2026-09-29T16:58:36.408439571Z</time></trkpt><trkpt lat="41.888290" lon="13.375639"><ele>2052.217</ele><time>2026-09-29T16:59:16.408441665Z</time></trkpt><trkpt lat="41.888148" lon="13.375263"><ele>2054.518</ele><time>2026-09-29T16:59:56.408443709Z</time></trkpt><trkpt lat="41.888093" lon="13.375151"><ele>2056.809</ele><time>2026-09-29T17:00:36.408445763Z</time></trkpt><trkpt lat="41.888067" lon="13.375099"><ele>2058.055</ele><time>2026-09-29T17:01:16.408447777Z</time></trkpt><trkpt lat="41.888032" lon="13.375012"><ele>2060.015</ele><time>2026-09-29T17:01:56.408449821Z</time></trkpt><trkpt lat="41.887976" lon="13.374920"><ele>2061.572</ele><time>2026-09-29T17:02:36.408451884Z</time></trkpt><trkpt lat="41.887903" lon="13.374803"><ele>2063.574</ele><time>2026-09-29T17:03:16.408453878Z</time></trkpt><trkpt lat="41.887885" lon="13.374736"><ele>2064.048</ele><time>2026-09-29T17:03:56.408456593Z</time></trkpt><trkpt lat="41.887864" lon="13.374609"><ele>2064.214</ele><time>2026-09-29T17:04:36.408458627Z</time></trkpt><trkpt lat="41.887857" lon="13.374590"><ele>2064.238</ele><time>2026-09-29T17:05:16.408460661Z</time></trkpt><trkpt lat="41.887844" lon="13.374547"><ele>2065.056</ele><time>2026-09-29T17:05:56.408462635Z</time></trkpt><trkpt lat="41.887814" lon="13.374552"><ele>2066.532</ele><time>2026-09-29T17:06:36.408464678Z</time></trkpt><trkpt lat="41.887793" lon="13.374511"><ele>2067.585</ele><time>2026-09-29T17:07:16.408466772Z</time></trkpt><trkpt lat="41.887759" lon="13.374536"><ele>2069.089</ele><time>2026-09-29T17:07:56.408468836Z</time></trkpt><trkpt lat="41.887717" lon="13.374482"><ele>2071.217</ele><time>2026-09-29T17:08:36.408470860Z</time></trkpt><trkpt lat="41.887719" lon="13.374449"><ele>2071.209</ele><time>2026-09-29T17:09:16.408472874Z</time></trkpt><trkpt lat="41.887674" lon="13.374418"><ele>2073.570</ele><time>2026-09-29T17:09:56.408475399Z</time></trkpt><trkpt lat="41.887634" lon="13.374359"><ele>2076.040</ele><time>2026-09-29T17:10:36.408477412Z</time></trkpt><trkpt lat="41.887731" lon="13.374311"><ele>2070.717</ele><time>2026-09-29T17:11:16.408479416Z</time></trkpt><trkpt lat="41.887742" lon="13.374257"><ele>2070.279</ele><time>2026-09-29T17:11:56.408481400Z</time></trkpt><trkpt lat="41.887730" lon="13.374235"><ele>2071.093</ele><time>2026-09-29T17:12:36.408483454Z</time></trkpt><trkpt lat="41.887701" lon="13.374222"><ele>2072.779</ele><time>2026-09-29T17:13:16.408485528Z</time></trkpt><trkpt lat="41.887555" lon="13.374198"><ele>2081.223</ele><time>2026-09-29T17:13:56.408487551Z</time></trkpt><trkpt lat="41.887513" lon="13.374182"><ele>2084.051</ele><time>2026-09-29T17:14:36.408489595Z</time></trkpt><trkpt lat="41.887439" lon="13.374132"><ele>2082.757</ele><time>2026-09-29T17:15:16.408491629Z</time></trkpt><trkpt lat="41.887350" lon="13.374023"><ele>2078.585</ele><time>2026-09-29T17:15:56.408493713Z</time></trkpt><trkpt lat="41.887301" lon="13.373949"><ele>2076.289</ele><time>2026-09-29T17:16:36.408495797Z</time></trkpt><trkpt lat="41.887241" lon="13.373859"><ele>2073.517</ele><time>2026-09-29T17:17:16.408497811Z</time></trkpt><trkpt lat="41.887095" lon="13.373718"><ele>2070.709</ele><time>2026-09-29T17:17:56.408499854Z</time></trkpt><trkpt lat="41.887051" lon="13.373706"><ele>2070.970</ele><time>2026-09-29T17:18:36.408501848Z</time></trkpt><trkpt lat="41.886887" lon="13.373664"><ele>2071.520</ele><time>2026-09-29T17:19:16.408510013Z</time></trkpt><trkpt lat="41.886771" lon="13.373650"><ele>2072.277</ele><time>2026-09-29T17:19:56.408512187Z</time></trkpt><trkpt lat="41.886635" lon="13.373665"><ele>2074.559</ele><time>2026-09-29T17:20:36.408514211Z</time></trkpt><trkpt lat="41.886573" lon="13.373672"><ele>2075.783</ele><time>2026-09-29T17:21:16.408516245Z</time></trkpt><trkpt lat="41.886347" lon="13.373615"><ele>2081.259</ele><time>2026-09-29T17:21:56.408518299Z</time></trkpt><trkpt lat="41.886157" lon="13.373616"><ele>2085.813</ele><time>2026-09-29T17:22:36.408520283Z</time></trkpt><trkpt lat="41.886111" lon="13.373616"><ele>2087.091</ele><time>2026-09-29T17:23:16.408522266Z</time></trkpt><trkpt lat="41.885984" lon="13.373658"><ele>2090.597</ele><time>2026-09-29T17:23:56.408524320Z</time></trkpt><trkpt lat="41.885886" lon="13.373704"><ele>2093.578</ele><time>2026-09-29T17:24:36.408526424Z</time></trkpt><trkpt lat="41.885807" lon="13.373712"><ele>2095.533</ele><time>2026-09-29T17:25:16.408528498Z</time></trkpt><trkpt lat="41.885753" lon="13.373719"><ele>2097.226</ele><time>2026-09-29T17:25:56.408530572Z</time></trkpt><trkpt lat="41.885626" lon="13.373829"><ele>2102.009</ele><time>2026-09-29T17:26:36.408532606Z</time></trkpt><trkpt lat="41.885411" lon="13.373809"><ele>2107.719</ele><time>2026-09-29T17:27:16.408534620Z</time></trkpt><trkpt lat="41.885301" lon="13.373846"><ele>2111.259</ele><time>2026-09-29T17:27:56.408537725Z</time></trkpt><trkpt lat="41.885261" lon="13.373884"><ele>2112.716</ele><time>2026-09-29T17:28:36.408540991Z</time></trkpt><trkpt lat="41.885022" lon="13.373823"><ele>2118.738</ele><time>2026-09-29T17:29:16.408544458Z</time></trkpt><trkpt lat="41.884945" lon="13.373819"><ele>2120.552</ele><time>2026-09-29T17:29:56.408547664Z</time></trkpt><trkpt lat="41.884853" lon="13.373828"><ele>2122.768</ele><time>2026-09-29T17:30:36.408550940Z</time></trkpt><trkpt lat="41.884767" lon="13.373900"><ele>2125.022</ele><time>2026-09-29T17:31:16.408554397Z</time></trkpt><trkpt lat="41.884737" lon="13.373925"><ele>2125.730</ele><time>2026-09-29T17:31:56.408557532Z</time></trkpt><trkpt lat="41.884767" lon="13.373900"><ele>2125.026</ele><time>2026-09-29T17:32:36.408560909Z</time></trkpt><trkpt lat="41.884853" lon="13.373828"><ele>2122.764</ele><time>2026-09-29T17:33:16.408564335Z</time></trkpt><trkpt lat="41.884945" lon="13.373819"><ele>2120.506</ele><time>2026-09-29T17:33:56.408567812Z</time></trkpt><trkpt lat="41.885022" lon="13.373823"><ele>2118.716</ele><time>2026-09-29T17:34:36.408571248Z</time></trkpt><trkpt lat="41.885261" lon="13.373884"><ele>2112.709</ele><time>2026-09-29T17:35:16.408573913Z</time></trkpt><trkpt lat="41.885301" lon="13.373846"><ele>2111.268</ele><time>2026-09-29T17:35:56.408575957Z</time></trkpt><trkpt lat="41.885411" lon="13.373809"><ele>2107.748</ele><time>2026-09-29T17:36:36.408577991Z</time></trkpt><trkpt lat="41.885626" lon="13.373829"><ele>2102.025</ele><time>2026-09-29T17:37:16.408580025Z</time></trkpt><trkpt lat="41.885753" lon="13.373719"><ele>2097.287</ele><time>2026-09-29T17:37:56.408582018Z</time></trkpt><trkpt lat="41.885886" lon="13.373704"><ele>2093.511</ele><time>2026-09-29T17:38:36.408584042Z</time></trkpt><trkpt lat="41.885984" lon="13.373658"><ele>2090.587</ele><time>2026-09-29T17:39:16.408586046Z</time></trkpt><trkpt lat="41.886111" lon="13.373616"><ele>2087.011</ele><time>2026-09-29T17:39:56.408588020Z</time></trkpt><trkpt lat="41.886347" lon="13.373615"><ele>2081.229</ele><time>2026-09-29T17:40:36.408590023Z</time></trkpt><trkpt lat="41.886573" lon="13.373672"><ele>2075.765</ele><time>2026-09-29T17:41:16.408592117Z</time></trkpt><trkpt lat="41.886771" lon="13.373650"><ele>2072.244</ele><time>2026-09-29T17:41:56.408594201Z</time></trkpt><trkpt lat="41.886887" lon="13.373664"><ele>2071.505</ele><time>2026-09-29T17:42:36.408596205Z</time></trkpt><trkpt lat="41.887095" lon="13.373718"><ele>2070.715</ele><time>2026-09-29T17:43:16.408598239Z</time></trkpt><trkpt lat="41.887241" lon="13.373859"><ele>2073.509</ele><time>2026-09-29T17:43:56.408600273Z</time></trkpt><trkpt lat="41.887350" lon="13.374023"><ele>2078.526</ele><time>2026-09-29T17:44:36.408602306Z</time></trkpt><trkpt lat="41.887439" lon="13.374132"><ele>2082.796</ele><time>2026-09-29T17:45:16.408604290Z</time></trkpt><trkpt lat="41.887513" lon="13.374182"><ele>2084.043</ele><time>2026-09-29T17:45:56.408606344Z</time></trkpt><trkpt lat="41.887555" lon="13.374198"><ele>2081.225</ele><time>2026-09-29T17:46:36.408608348Z</time></trkpt><trkpt lat="41.887701" lon="13.374222"><ele>2072.749</ele><time>2026-09-29T17:47:16.408610331Z</time></trkpt><trkpt lat="41.887730" lon="13.374235"><ele>2071.015</ele><time>2026-09-29T17:47:56.408612325Z</time></trkpt><trkpt lat="41.887742" lon="13.374257"><ele>2070.279</ele><time>2026-09-29T17:48:36.408614349Z</time></trkpt><trkpt lat="41.887731" lon="13.374311"><ele>2070.737</ele><time>2026-09-29T17:49:16.408616343Z</time></trkpt><trkpt lat="41.887634" lon="13.374359"><ele>2076.083</ele><time>2026-09-29T17:49:56.408618396Z</time></trkpt><trkpt lat="41.887674" lon="13.374418"><ele>2073.563</ele><time>2026-09-29T17:50:36.408620430Z</time></trkpt><trkpt lat="41.887719" lon="13.374449"><ele>2071.244</ele><time>2026-09-29T17:51:16.408622454Z</time></trkpt><trkpt lat="41.887717" lon="13.374482"><ele>2071.218</ele><time>2026-09-29T17:51:56.408624508Z</time></trkpt><trkpt lat="41.887759" lon="13.374536"><ele>2069.009</ele><time>2026-09-29T17:52:36.408626502Z</time></trkpt><trkpt lat="41.887793" lon="13.374511"><ele>2067.518</ele><time>2026-09-29T17:53:16.408628525Z</time></trkpt><trkpt lat="41.887814" lon="13.374552"><ele>2066.598</ele><time>2026-09-29T17:53:56.408630549Z</time></trkpt><trkpt lat="41.887844" lon="13.374547"><ele>2065.065</ele><time>2026-09-29T17:54:36.408632543Z</time></trkpt><trkpt lat="41.887864" lon="13.374609"><ele>2064.267</ele><time>2026-09-29T17:55:16.408634537Z</time></trkpt><trkpt lat="41.887885" lon="13.374736"><ele>2064.081</ele><time>2026-09-29T17:55:56.408636540Z</time></trkpt><trkpt lat="41.887903" lon="13.374803"><ele>2063.547</ele><time>2026-09-29T17:56:36.408638524Z</time></trkpt><trkpt lat="41.887976" lon="13.374920"><ele>2061.531</ele><time>2026-09-29T17:57:16.408640518Z</time></trkpt><trkpt lat="41.888032" lon="13.375012"><ele>2060.049</ele><time>2026-09-29T17:57:56.408642592Z</time></trkpt><trkpt lat="41.888067" lon="13.375099"><ele>2058.025</ele><time>2026-09-29T17:58:36.408644606Z</time></trkpt><trkpt lat="41.888148" lon="13.375263"><ele>2054.557</ele><time>2026-09-29T17:59:16.408646770Z</time></trkpt><trkpt lat="41.888290" lon="13.375639"><ele>2052.200</ele><time>2026-09-29T17:59:56.408648974Z</time></trkpt><trkpt lat="41.888343" lon="13.375907"><ele>2051.220</ele><time>2026-09-29T18:00:36.408651088Z</time></trkpt><trkpt lat="41.888421" lon="13.376052"><ele>2047.209</ele><time>2026-09-29T18:01:16.408653202Z</time></trkpt><trkpt lat="41.888589" lon="13.376140"><ele>2043.267</ele><time>2026-09-29T18:01:56.408655306Z</time></trkpt><trkpt lat="41.888721" lon="13.376316"><ele>2040.557</ele><time>2026-09-29T18:02:36.408657380Z</time></trkpt><trkpt lat="41.888953" lon="13.376425"><ele>2039.084</ele><time>2026-09-29T18:03:16.408659403Z</time></trkpt><trkpt lat="41.889119" lon="13.376431"><ele>2038.596</ele><time>2026-09-29T18:03:56.408661417Z</time></trkpt><trkpt lat="41.889280" lon="13.376473"><ele>2038.260</ele><time>2026-09-29T18:04:36.408663461Z</time></trkpt><trkpt lat="41.889300" lon="13.376514"><ele>2038.766</ele><time>2026-09-29T18:05:16.408665485Z</time></trkpt><trkpt lat="41.889513" lon="13.376661"><ele>2041.550</ele><time>2026-09-29T18:05:56.408667448Z</time></trkpt><trkpt lat="41.889652" lon="13.376718"><ele>2040.738</ele><time>2026-09-29T18:06:36.408669422Z</time></trkpt><trkpt lat="41.889780" lon="13.376792"><ele>2040.014</ele><time>2026-09-29T18:07:16.408671486Z</time></trkpt><trkpt lat="41.890122" lon="13.376951"><ele>2043.223</ele><time>2026-09-29T18:07:56.408673600Z</time></trkpt><trkpt lat="41.890352" lon="13.377079"><ele>2048.283</ele><time>2026-09-29T18:08:36.408675664Z</time></trkpt><trkpt lat="41.890399" lon="13.377084"><ele>2049.511</ele><time>2026-09-29T18:09:16.408686013Z</time></trkpt><trkpt lat="41.890444" lon="13.377139"><ele>2051.009</ele><time>2026-09-29T18:09:56.408688177Z</time></trkpt><trkpt lat="41.890536" lon="13.377146"><ele>2053.224</ele><time>2026-09-29T18:10:36.408690281Z</time></trkpt><trkpt lat="41.890625" lon="13.377104"><ele>2055.254</ele><time>2026-09-29T18:11:16.408692335Z</time></trkpt><trkpt lat="41.890691" lon="13.377111"><ele>2056.761</ele><time>2026-09-29T18:11:56.408694319Z</time></trkpt><trkpt lat="41.890786" lon="13.377247"><ele>2061.553</ele><time>2026-09-29T18:12:36.408696343Z</time></trkpt><trkpt lat="41.890887" lon="13.377223"><ele>2062.787</ele><time>2026-09-29T18:13:16.408698336Z</time></trkpt><trkpt lat="41.890876" lon="13.377285"><ele>2063.743</ele><time>2026-09-29T18:13:56.408700310Z</time></trkpt><trkpt lat="41.891047" lon="13.377329"><ele>2065.247</ele><time>2026-09-29T18:14:36.408702334Z</time></trkpt><trkpt lat="41.891179" lon="13.377326"><ele>2065.555</ele><time>2026-09-29T18:15:16.408705830Z</time></trkpt><trkpt lat="41.891338" lon="13.377393"><ele>2067.591</ele><time>2026-09-29T18:15:56.408709056Z</time></trkpt><trkpt lat="41.891430" lon="13.377476"><ele>2069.544</ele><time>2026-09-29T18:16:36.408712633Z</time></trkpt><trkpt lat="41.891629" lon="13.377711"><ele>2069.205</ele><time>2026-09-29T18:17:16.408715889Z</time></trkpt><trkpt lat="41.891810" lon="13.377788"><ele>2070.215</ele><time>2026-09-29T18:17:56.408719466Z</time></trkpt><trkpt lat="41.891858" lon="13.377874"><ele>2070.709</ele><time>2026-09-29T18:18:36.408722572Z</time></trkpt><trkpt lat="41.891945" lon="13.377894"><ele>2071.776</ele><time>2026-09-29T18:19:16.408725888Z</time></trkpt><trkpt lat="41.892059" lon="13.378044"><ele>2074.016</ele><time>2026-09-29T18:19:56.408730016Z</time></trkpt><trkpt lat="41.892319" lon="13.378235"><ele>2080.733</ele><time>2026-09-29T18:20:36.408732480Z</time></trkpt><trkpt lat="41.892568" lon="13.378473"><ele>2086.275</ele><time>2026-09-29T18:21:16.408734484Z</time></trkpt><trkpt lat="41.892589" lon="13.378680"><ele>2085.299</ele><time>2026-09-29T18:21:56.408736538Z</time></trkpt><trkpt lat="41.892700" lon="13.378839"><ele>2085.555</ele><time>2026-09-29T18:22:36.408738592Z</time></trkpt><trkpt lat="41.892864" lon="13.378902"><ele>2086.749</ele><time>2026-09-29T18:23:16.408740615Z</time></trkpt><trkpt lat="41.892882" lon="13.378910"><ele>2086.797</ele><time>2026-09-29T18:23:56.408742629Z</time></trkpt><trkpt lat="41.893178" lon="13.378983"><ele>2089.793</ele><time>2026-09-29T18:24:36.408744633Z</time></trkpt><trkpt lat="41.893451" lon="13.379096"><ele>2089.769</ele><time>2026-09-29T18:25:16.408746737Z</time></trkpt><trkpt lat="41.893660" lon="13.379263"><ele>2085.204</ele><time>2026-09-29T18:25:56.408748911Z</time></trkpt><trkpt lat="41.893855" lon="13.379491"><ele>2080.524</ele><time>2026-09-29T18:26:36.408750955Z</time></trkpt><trkpt lat="41.893923" lon="13.379598"><ele>2079.209</ele><time>2026-09-29T18:27:16.408752969Z</time></trkpt><trkpt lat="41.894002" lon="13.379659"><ele>2078.788</ele><time>2026-09-29T18:27:56.408754982Z</time></trkpt><trkpt lat="41.894271" lon="13.379827"><ele>2076.288</ele><time>2026-09-29T18:28:36.408756956Z</time></trkpt><trkpt lat="41.894441" lon="13.379753"><ele>2071.555</ele><time>2026-09-29T18:29:16.408758960Z</time></trkpt><trkpt lat="41.894650" lon="13.379633"><ele>2065.047</ele><time>2026-09-29T18:29:56.408760994Z</time></trkpt><trkpt lat="41.894781" lon="13.379589"><ele>2060.721</ele><time>2026-09-29T18:30:36.408762997Z</time></trkpt><trkpt lat="41.894944" lon="13.379479"><ele>2055.057</ele><time>2026-09-29T18:31:16.408765011Z</time></trkpt><trkpt lat="41.895185" lon="13.379429"><ele>2044.261</ele><time>2026-09-29T18:31:56.408767055Z</time></trkpt><trkpt lat="41.895568" lon="13.379225"><ele>2035.799</ele><time>2026-09-29T18:32:36.408769049Z</time></trkpt><trkpt lat="41.895864" lon="13.379003"><ele>2031.715</ele><time>2026-09-29T18:33:16.408771113Z</time></trkpt><trkpt lat="41.896135" lon="13.378859"><ele>2027.756</ele><time>2026-09-29T18:33:56.408773247Z</time></trkpt><trkpt lat="41.896304" lon="13.378623"><ele>2026.259</ele><time>2026-09-29T18:34:36.408775331Z</time></trkpt><trkpt lat="41.896432" lon="13.378430"><ele>2025.714</ele><time>2026-09-29T18:35:16.408777364Z</time></trkpt><trkpt lat="41.896474" lon="13.378431"><ele>2025.509</ele><time>2026-09-29T18:35:56.408779388Z</time></trkpt><trkpt lat="41.896513" lon="13.378467"><ele>2025.047</ele><time>2026-09-29T18:36:36.408781382Z</time></trkpt><trkpt lat="41.896554" lon="13.378550"><ele>2024.087</ele><time>2026-09-29T18:37:16.408783386Z</time></trkpt><trkpt lat="41.896595" lon="13.378605"><ele>2023.274</ele><time>2026-09-29T18:37:56.408785419Z</time></trkpt><trkpt lat="41.896699" lon="13.378662"><ele>2021.286</ele><time>2026-09-29T18:38:36.408787373Z</time></trkpt><trkpt lat="41.896840" lon="13.378772"><ele>2016.270</ele><time>2026-09-29T18:39:16.408789407Z</time></trkpt><trkpt lat="41.896918" lon="13.378851"><ele>2013.296</ele><time>2026-09-29T18:39:56.408791411Z</time></trkpt><trkpt lat="41.896969" lon="13.378823"><ele>2012.030</ele><time>2026-09-29T18:40:36.408793444Z</time></trkpt><trkpt lat="41.897027" lon="13.378834"><ele>2010.268</ele><time>2026-09-29T18:41:16.408795518Z</time></trkpt><trkpt lat="41.897093" lon="13.378885"><ele>2008.244</ele><time>2026-09-29T18:41:56.408797512Z</time></trkpt><trkpt lat="41.897178" lon="13.378973"><ele>2005.265</ele><time>2026-09-29T18:42:36.408799556Z</time></trkpt><trkpt lat="41.897223" lon="13.379074"><ele>2003.568</ele><time>2026-09-29T18:43:16.408801580Z</time></trkpt><trkpt lat="41.897265" lon="13.379111"><ele>2002.214</ele><time>2026-09-29T18:43:56.408803654Z</time></trkpt><trkpt lat="41.897347" lon="13.379085"><ele>2000.209</ele><time>2026-09-29T18:44:36.408805717Z</time></trkpt><trkpt lat="41.897429" lon="13.379091"><ele>1998.038</ele><time>2026-09-29T18:45:16.408807771Z</time></trkpt><trkpt lat="41.897547" lon="13.379387"><ele>1991.288</ele><time>2026-09-29T18:45:56.408809785Z</time></trkpt><trkpt lat="41.897617" lon="13.379590"><ele>1987.295</ele><time>2026-09-29T18:46:36.408811789Z</time></trkpt><trkpt lat="41.897692" lon="13.379894"><ele>1983.537</ele><time>2026-09-29T18:47:16.408813763Z</time></trkpt><trkpt lat="41.897781" lon="13.379964"><ele>1982.231</ele><time>2026-09-29T18:47:56.408815706Z</time></trkpt><trkpt lat="41.897908" lon="13.379930"><ele>1981.217</ele><time>2026-09-29T18:48:36.408817710Z</time></trkpt><trkpt lat="41.898125" lon="13.379882"><ele>1979.051</ele><time>2026-09-29T18:49:16.408819744Z</time></trkpt><trkpt lat="41.898865" lon="13.379612"><ele>1964.029</ele><time>2026-09-29T18:49:56.408821868Z</time></trkpt><trkpt lat="41.899063" lon="13.379509"><ele>1959.785</ele><time>2026-09-29T18:50:36.408823871Z</time></trkpt><trkpt lat="41.899282" lon="13.379372"><ele>1953.565</ele><time>2026-09-29T18:51:16.408825945Z</time></trkpt><trkpt lat="41.899420" lon="13.379135"><ele>1949.068</ele><time>2026-09-29T18:51:56.408827999Z</time></trkpt><trkpt lat="41.899563" lon="13.378940"><ele>1942.514</ele><time>2026-09-29T18:52:36.408830073Z</time></trkpt><trkpt lat="41.899909" lon="13.378431"><ele>1935.009</ele><time>2026-09-29T18:53:16.408832127Z</time></trkpt><trkpt lat="41.900238" lon="13.378182"><ele>1923.578</ele><time>2026-09-29T18:53:56.408834121Z</time></trkpt><trkpt lat="41.900270" lon="13.378232"><ele>1923.728</ele><time>2026-09-29T18:54:36.408836134Z</time></trkpt><trkpt lat="41.900245" lon="13.379696"><ele>1912.095</ele><time>2026-09-29T18:55:16.408838238Z</time></trkpt><trkpt lat="41.900287" lon="13.380130"><ele>1900.577</ele><time>2026-09-29T18:55:56.408840222Z</time></trkpt><trkpt lat="41.900353" lon="13.380682"><ele>1887.591</ele><time>2026-09-29T18:56:36.408842236Z</time></trkpt><trkpt lat="41.900381" lon="13.380869"><ele>1882.797</ele><time>2026-09-29T18:57:16.408844260Z</time></trkpt><trkpt lat="41.900514" lon="13.381161"><ele>1871.051</ele><time>2026-09-29T18:57:56.408846283Z</time></trkpt><trkpt lat="41.900572" lon="13.381272"><ele>1866.549</ele><time>2026-09-29T18:58:36.408848327Z</time></trkpt><trkpt lat="41.900567" lon="13.381997"><ele>1844.555</ele><time>2026-09-29T18:59:16.408855671Z</time></trkpt><trkpt lat="41.900711" lon="13.382080"><ele>1839.762</ele><time>2026-09-29T18:59:56.408857905Z</time></trkpt><trkpt lat="41.900806" lon="13.382228"><ele>1834.583</ele><time>2026-09-29T19:00:36.408859969Z</time></trkpt><trkpt lat="41.900852" lon="13.382543"><ele>1825.711</ele><time>2026-09-29T19:01:16.408862023Z</time></trkpt><trkpt lat="41.901001" lon="13.382791"><ele>1819.009</ele><time>2026-09-29T19:01:56.408864037Z</time></trkpt><trkpt lat="41.901223" lon="13.382933"><ele>1815.798</ele><time>2026-09-29T19:02:36.408866091Z</time></trkpt><trkpt lat="41.901520" lon="13.383303"><ele>1813.058</ele><time>2026-09-29T19:03:16.408868084Z</time></trkpt><trkpt lat="41.901749" lon="13.383282"><ele>1812.745</ele><time>2026-09-29T19:03:56.408870058Z</time></trkpt><trkpt lat="41.901921" lon="13.383363"><ele>1809.577</ele><time>2026-09-29T19:04:36.408872022Z</time></trkpt><trkpt lat="41.902052" lon="13.383458"><ele>1805.031</ele><time>2026-09-29T19:05:16.408874005Z</time></trkpt><trkpt lat="41.902273" lon="13.383408"><ele>1803.717</ele><time>2026-09-29T19:05:56.408877201Z</time></trkpt><trkpt lat="41.902534" lon="13.383525"><ele>1797.241</ele><time>2026-09-29T19:06:36.408880698Z</time></trkpt><trkpt lat="41.902669" lon="13.383657"><ele>1790.599</ele><time>2026-09-29T19:07:16.408884014Z</time></trkpt><trkpt lat="41.902884" lon="13.383907"><ele>1781.245</ele><time>2026-09-29T19:07:56.408887330Z</time></trkpt><trkpt lat="41.903080" lon="13.384059"><ele>1776.079</ele><time>2026-09-29T19:08:36.408890937Z</time></trkpt><trkpt lat="41.903265" lon="13.384146"><ele>1772.705</ele><time>2026-09-29T19:09:16.408894203Z</time></trkpt><trkpt lat="41.903331" lon="13.384253"><ele>1769.725</ele><time>2026-09-29T19:09:56.408897519Z</time></trkpt><trkpt lat="41.903595" lon="13.384356"><ele>1762.509</ele><time>2026-09-29T19:10:36.408900746Z</time></trkpt><trkpt lat="41.903772" lon="13.384491"><ele>1756.279</ele><time>2026-09-29T19:11:16.408903050Z</time></trkpt><trkpt lat="41.903806" lon="13.384482"><ele>1756.069</ele><time>2026-09-29T19:11:56.408905104Z</time></trkpt><trkpt lat="41.903838" lon="13.384454"><ele>1756.086</ele><time>2026-09-29T19:12:36.408907198Z</time></trkpt><trkpt lat="41.903819" lon="13.384364"><ele>1758.568</ele><time>2026-09-29T19:13:16.408909272Z</time></trkpt><trkpt lat="41.903708" lon="13.384075"><ele>1764.782</ele><time>2026-09-29T19:13:56.408911255Z</time></trkpt><trkpt lat="41.903772" lon="13.383670"><ele>1761.248</ele><time>2026-09-29T19:14:36.408913319Z</time></trkpt><trkpt lat="41.903902" lon="13.383257"><ele>1754.242</ele><time>2026-09-29T19:15:16.408915303Z</time></trkpt><trkpt lat="41.904240" lon="13.382933"><ele>1740.250</ele><time>2026-09-29T19:15:56.408917307Z</time></trkpt><trkpt lat="41.904238" lon="13.382691"><ele>1735.576</ele><time>2026-09-29T19:16:36.408919310Z</time></trkpt><trkpt lat="41.904327" lon="13.382590"><ele>1733.274</ele><time>2026-09-29T19:17:16.408921394Z</time></trkpt><trkpt lat="41.904418" lon="13.382437"><ele>1730.056</ele><time>2026-09-29T19:17:56.408923438Z</time></trkpt><trkpt lat="41.904504" lon="13.382334"><ele>1728.021</ele><time>2026-09-29T19:18:36.408925442Z</time></trkpt><trkpt lat="41.904633" lon="13.382098"><ele>1722.209</ele><time>2026-09-29T19:19:16.408927496Z</time></trkpt><trkpt lat="41.904980" lon="13.381079"><ele>1697.269</ele><time>2026-09-29T19:19:56.408929509Z</time></trkpt><trkpt lat="41.905126" lon="13.380794"><ele>1693.079</ele><time>2026-09-29T19:20:36.408931483Z</time></trkpt><trkpt lat="41.905156" lon="13.380409"><ele>1690.536</ele><time>2026-09-29T19:21:16.408933547Z</time></trkpt><trkpt lat="41.905276" lon="13.380012"><ele>1686.098</ele><time>2026-09-29T19:21:56.408935541Z</time></trkpt><trkpt lat="41.905388" lon="13.379449"><ele>1679.792</ele><time>2026-09-29T19:22:36.408937534Z</time></trkpt><trkpt lat="41.905561" lon="13.379072"><ele>1673.788</ele><time>2026-09-29T19:23:16.408939548Z</time></trkpt><trkpt lat="41.905854" lon="13.378829"><ele>1668.212</ele><time>2026-09-29T19:23:56.408941572Z</time></trkpt><trkpt lat="41.906147" lon="13.378650"><ele>1667.590</ele><time>2026-09-29T19:24:36.408943556Z</time></trkpt><trkpt lat="41.906313" lon="13.378342"><ele>1664.516</ele><time>2026-09-29T19:25:16.408945549Z</time></trkpt><trkpt lat="41.906506" lon="13.377952"><ele>1663.235</ele><time>2026-09-29T19:25:56.408947844Z</time></trkpt><trkpt lat="41.906791" lon="13.377207"><ele>1658.086</ele><time>2026-09-29T19:26:36.408949888Z</time></trkpt><trkpt lat="41.906791" lon="13.377052"><ele>1653.714</ele><time>2026-09-29T19:27:16.408951891Z</time></trkpt></trkseg></trk></gpx>