<?xml version="1.0" encoding="UTF-8"?>
<gpx creator="Wikiloc - https://www.wikiloc.com" version="1.1" xmlns="http://www.topografix.com/GPX/1/1" xmlns:xsi="http://www.w3.org/2001/XMLSchema-instance" xsi:schemaLocation="http://www.topografix.com/GPX/1/1 http://www.topografix.com/GPX/1/1/gpx.xsd">
  <metadata>
    <name>Wikiloc - Castelnuovo di Farfa, Gole del Farfa, ponte romano, chiesa m...</name>
    <link href="https://www.wikiloc.com/hiking-trails/castelnuovo-di-farfa-gole-del-farfa-ponte-romano-chiesa-medievale-san-donato-150507472">
      <text>Castelnuovo di Farfa, Gole del Farfa, ponte romano, chiesa m... on Wikiloc</text>
    </link>
    <time>2023-10-15T14:27:54Z</time>
  </metadata>
  <trk>
    <name>Castelnuovo di Farfa, Gole del Farfa, ponte romano, chiesa m... - Wikiloc</name>
    <cmt></cmt>
    <desc></desc>
    <trkseg>
      <trkpt lat="42.231849" lon="12.742071">
        <ele>360.396</ele>
        <time>2023-10-15T10:23:30Z</time>
      </trkpt>
      <trkpt lat="42.231944" lon="12.742251">
        <ele>360.331</ele>
        <time>2023-10-15T10:23:38Z</time>
      </trkpt>
      <trkpt lat="42.231635" lon="12.742458">
        <ele>357.124</ele>
        <time>2023-10-15T10:24:17Z</time>
      </trkpt>
      <trkpt lat="42.231215" lon="12.743170">
        <ele>348.909</ele>
        <time>2023-10-15T10:25:22Z</time>
      </trkpt>
      <trkpt lat="42.231128" lon="12.744248">
        <ele>347.840</ele>
        <time>2023-10-15T10:27:08Z</time>
      </trkpt>
      <trkpt lat="42.231744" lon="12.744686">
        <ele>347.264</ele>
        <time>2023-10-15T10:28:18Z</time>
      </trkpt>
      <trkpt lat="42.231885" lon="12.744608">
        <ele>347.239</ele>
        <time>2023-10-15T10:28:28Z</time>
      </trkpt>
      <trkpt lat="42.232190" lon="12.744194">
        <ele>348.274</ele>
        <time>2023-10-15T10:29:29Z</time>
      </trkpt>
      <trkpt lat="42.232375" lon="12.744302">
        <ele>345.199</ele>
        <time>2023-10-15T10:30:05Z</time>
      </trkpt>
      <trkpt lat="42.232580" lon="12.744671">
        <ele>333.596</ele>
        <time>2023-10-15T10:32:24Z</time>
      </trkpt>
      <trkpt lat="42.232818" lon="12.744555">
        <ele>331.413</ele>
        <time>2023-10-15T10:33:42Z</time>
      </trkpt>
      <trkpt lat="42.232917" lon="12.744919">
        <ele>323.846</ele>
        <time>2023-10-15T10:34:56Z</time>
      </trkpt>
      <trkpt lat="42.233302" lon="12.745187">
        <ele>318.431</ele>
        <time>2023-10-15T10:35:37Z</time>
      </trkpt>
      <trkpt lat="42.233666" lon="12.745770">
        <ele>313.375</ele>
        <time>2023-10-15T10:36:28Z</time>
      </trkpt>
      <trkpt lat="42.234200" lon="12.746011">
        <ele>309.528</ele>
        <time>2023-10-15T10:37:38Z</time>
      </trkpt>
      <trkpt lat="42.234474" lon="12.746413">
        <ele>305.220</ele>
        <time>2023-10-15T10:38:16Z</time>
      </trkpt>
      <trkpt lat="42.234771" lon="12.746676">
        <ele>301.809</ele>
        <time>2023-10-15T10:38:51Z</time>
      </trkpt>
      <trkpt lat="42.235114" lon="12.746714">
        <ele>296.668</ele>
        <time>2023-10-15T10:39:26Z</time>
      </trkpt>
      <trkpt lat="42.235551" lon="12.747058">
        <ele>286.912</ele>
        <time>2023-10-15T10:40:20Z</time>
      </trkpt>
      <trkpt lat="42.235672" lon="12.747357">
        <ele>281.397</ele>
        <time>2023-10-15T10:40:50Z</time>
      </trkpt>
      <trkpt lat="42.235734" lon="12.747931">
        <ele>276.172</ele>
        <time>2023-10-15T10:42:43Z</time>
      </trkpt>
      <trkpt lat="42.236564" lon="12.748384">
        <ele>282.897</ele>
        <time>2023-10-15T10:44:42Z</time>
      </trkpt>
      <trkpt lat="42.237310" lon="12.749049">
        <ele>290.294</ele>
        <time>2023-10-15T10:46:29Z</time>
      </trkpt>
      <trkpt lat="42.237384" lon="12.749038">
        <ele>292.891</ele>
        <time>2023-10-15T10:47:29Z</time>
      </trkpt>
      <trkpt lat="42.237452" lon="12.749482">
        <ele>294.174</ele>
        <time>2023-10-15T10:48:32Z</time>
      </trkpt>
      <trkpt lat="42.238148" lon="12.750845">
        <ele>308.169</ele>
        <time>2023-10-15T10:51:08Z</time>
      </trkpt>
      <trkpt lat="42.238108" lon="12.751028">
        <ele>310.875</ele>
        <time>2023-10-15T10:51:26Z</time>
      </trkpt>
      <trkpt lat="42.238397" lon="12.751810">
        <ele>309.228</ele>
        <time>2023-10-15T10:52:28Z</time>
      </trkpt>
      <trkpt lat="42.239250" lon="12.753056">
        <ele>303.220</ele>
        <time>2023-10-15T10:54:23Z</time>
      </trkpt>
      <trkpt lat="42.239744" lon="12.753180">
        <ele>299.909</ele>
        <time>2023-10-15T10:55:10Z</time>
      </trkpt>
      <trkpt lat="42.240327" lon="12.753494">
        <ele>295.538</ele>
        <time>2023-10-15T10:56:09Z</time>
      </trkpt>
      <trkpt lat="42.241042" lon="12.753672">
        <ele>289.412</ele>
        <time>2023-10-15T10:57:20Z</time>
      </trkpt>
      <trkpt lat="42.241479" lon="12.754214">
        <ele>286.957</ele>
        <time>2023-10-15T10:58:55Z</time>
      </trkpt>
      <trkpt lat="42.241801" lon="12.753939">
        <ele>282.472</ele>
        <time>2023-10-15T10:59:39Z</time>
      </trkpt>
      <trkpt lat="42.242149" lon="12.754863">
        <ele>270.057</ele>
        <time>2023-10-15T11:04:32Z</time>
      </trkpt>
      <trkpt lat="42.242248" lon="12.754994">
        <ele>267.944</ele>
        <time>2023-10-15T11:04:54Z</time>
      </trkpt>
      <trkpt lat="42.242262" lon="12.754935">
        <ele>267.341</ele>
        <time>2023-10-15T11:05:09Z</time>
      </trkpt>
      <trkpt lat="42.242518" lon="12.755526">
        <ele>261.094</ele>
        <time>2023-10-15T11:10:05Z</time>
      </trkpt>
      <trkpt lat="42.242433" lon="12.756038">
        <ele>257.779</ele>
        <time>2023-10-15T11:10:47Z</time>
      </trkpt>
      <trkpt lat="42.242555" lon="12.756969">
        <ele>253.556</ele>
        <time>2023-10-15T11:12:49Z</time>
      </trkpt>
      <trkpt lat="42.242415" lon="12.757826">
        <ele>247.759</ele>
        <time>2023-10-15T11:15:04Z</time>
      </trkpt>
      <trkpt lat="42.242410" lon="12.757632">
        <ele>232.814</ele>
        <time>2023-10-15T11:15:34Z</time>
      </trkpt>
      <trkpt lat="42.242631" lon="12.758064">
        <ele>241.909</ele>
        <time>2023-10-15T11:16:52Z</time>
      </trkpt>
      <trkpt lat="42.242993" lon="12.758413">
        <ele>239.196</ele>
        <time>2023-10-15T11:18:13Z</time>
      </trkpt>
      <trkpt lat="42.243087" lon="12.758408">
        <ele>236.630</ele>
        <time>2023-10-15T11:18:34Z</time>
      </trkpt>
      <trkpt lat="42.243191" lon="12.758180">
        <ele>234.345</ele>
        <time>2023-10-15T11:18:59Z</time>
      </trkpt>
      <trkpt lat="42.243118" lon="12.757329">
        <ele>231.920</ele>
        <time>2023-10-15T11:20:44Z</time>
      </trkpt>
      <trkpt lat="42.243268" lon="12.757797">
        <ele>221.835</ele>
        <time>2023-10-15T11:22:07Z</time>
      </trkpt>
      <trkpt lat="42.243698" lon="12.758072">
        <ele>214.782</ele>
        <time>2023-10-15T11:22:55Z</time>
      </trkpt>
      <trkpt lat="42.243753" lon="12.758319">
        <ele>211.829</ele>
        <time>2023-10-15T11:23:31Z</time>
      </trkpt>
      <trkpt lat="42.243937" lon="12.758420">
        <ele>209.252</ele>
        <time>2023-10-15T11:24:11Z</time>
      </trkpt>
      <trkpt lat="42.244096" lon="12.758402">
        <ele>207.167</ele>
        <time>2023-10-15T11:24:35Z</time>
      </trkpt>
      <trkpt lat="42.244321" lon="12.758570">
        <ele>203.818</ele>
        <time>2023-10-15T11:25:22Z</time>
      </trkpt>
      <trkpt lat="42.244422" lon="12.758950">
        <ele>198.098</ele>
        <time>2023-10-15T11:25:54Z</time>
      </trkpt>
      <trkpt lat="42.244511" lon="12.758994">
        <ele>197.217</ele>
        <time>2023-10-15T11:26:42Z</time>
      </trkpt>
      <trkpt lat="42.244519" lon="12.758934">
        <ele>197.409</ele>
        <time>2023-10-15T11:27:07Z</time>
      </trkpt>
      <trkpt lat="42.244533" lon="12.759044">
        <ele>189.692</ele>
        <time>2023-10-15T11:32:40Z</time>
      </trkpt>
      <trkpt lat="42.244388" lon="12.759214">
        <ele>189.196</ele>
        <time>2023-10-15T11:33:43Z</time>
      </trkpt>
      <trkpt lat="42.244334" lon="12.759118">
        <ele>182.261</ele>
        <time>2023-10-15T11:37:02Z</time>
      </trkpt>
      <trkpt lat="42.244458" lon="12.759052">
        <ele>181.966</ele>
        <time>2023-10-15T11:40:23Z</time>
      </trkpt>
      <trkpt lat="42.244441" lon="12.758409">
        <ele>181.251</ele>
        <time>2023-10-15T11:40:46Z</time>
      </trkpt>
      <trkpt lat="42.244346" lon="12.758660">
        <ele>181.348</ele>
        <time>2023-10-15T11:40:56Z</time>
      </trkpt>
      <trkpt lat="42.244377" lon="12.759289">
        <ele>183.695</ele>
        <time>2023-10-15T11:43:39Z</time>
      </trkpt>
      <trkpt lat="42.244357" lon="12.759215">
        <ele>186.078</ele>
        <time>2023-10-15T11:44:35Z</time>
      </trkpt>
      <trkpt lat="42.244713" lon="12.758718">
        <ele>185.963</ele>
        <time>2023-10-15T11:46:20Z</time>
      </trkpt>
      <trkpt lat="42.244629" lon="12.758360">
        <ele>182.874</ele>
        <time>2023-10-15T11:48:46Z</time>
      </trkpt>
      <trkpt lat="42.244656" lon="12.758011">
        <ele>183.556</ele>
        <time>2023-10-15T11:49:31Z</time>
      </trkpt>
      <trkpt lat="42.244433" lon="12.757748">
        <ele>184.621</ele>
        <time>2023-10-15T11:54:11Z</time>
      </trkpt>
      <trkpt lat="42.244332" lon="12.757689">
        <ele>182.509</ele>
        <time>2023-10-15T11:54:40Z</time>
      </trkpt>
      <trkpt lat="42.244571" lon="12.758025">
        <ele>184.178</ele>
        <time>2023-10-15T11:57:51Z</time>
      </trkpt>
      <trkpt lat="42.244572" lon="12.758692">
        <ele>184.042</ele>
        <time>2023-10-15T12:01:02Z</time>
      </trkpt>
      <trkpt lat="42.244496" lon="12.758929">
        <ele>186.997</ele>
        <time>2023-10-15T12:01:41Z</time>
      </trkpt>
      <trkpt lat="42.244329" lon="12.758497">
        <ele>191.772</ele>
        <time>2023-10-15T12:03:50Z</time>
      </trkpt>
      <trkpt lat="42.243840" lon="12.758278">
        <ele>202.767</ele>
        <time>2023-10-15T12:05:26Z</time>
      </trkpt>
      <trkpt lat="42.243422" lon="12.757659">
        <ele>212.014</ele>
        <time>2023-10-15T12:07:01Z</time>
      </trkpt>
      <trkpt lat="42.243083" lon="12.757485">
        <ele>220.421</ele>
        <time>2023-10-15T12:08:33Z</time>
      </trkpt>
      <trkpt lat="42.243171" lon="12.758152">
        <ele>222.594</ele>
        <time>2023-10-15T12:09:34Z</time>
      </trkpt>
      <trkpt lat="42.243117" lon="12.758339">
        <ele>226.389</ele>
        <time>2023-10-15T12:10:17Z</time>
      </trkpt>
      <trkpt lat="42.242828" lon="12.758241">
        <ele>232.543</ele>
        <time>2023-10-15T12:11:28Z</time>
      </trkpt>
      <trkpt lat="42.242643" lon="12.758044">
        <ele>235.864</ele>
        <time>2023-10-15T12:12:20Z</time>
      </trkpt>
      <trkpt lat="42.242432" lon="12.757607">
        <ele>243.210</ele>
        <time>2023-10-15T12:13:07Z</time>
      </trkpt>
      <trkpt lat="42.242562" lon="12.756558">
        <ele>251.409</ele>
        <time>2023-10-15T12:14:44Z</time>
      </trkpt>
      <trkpt lat="42.242426" lon="12.756174">
        <ele>253.235</ele>
        <time>2023-10-15T12:15:17Z</time>
      </trkpt>
      <trkpt lat="42.242517" lon="12.755770">
        <ele>254.749</ele>
        <time>2023-10-15T12:15:52Z</time>
      </trkpt>
      <trkpt lat="42.242482" lon="12.754660">
        <ele>248.344</ele>
        <time>2023-10-15T12:20:43Z</time>
      </trkpt>
      <trkpt lat="42.242566" lon="12.754665">
        <ele>246.439</ele>
        <time>2023-10-15T12:21:53Z</time>
      </trkpt>
      <trkpt lat="42.242588" lon="12.754516">
        <ele>241.624</ele>
        <time>2023-10-15T12:26:35Z</time>
      </trkpt>
      <trkpt lat="42.242532" lon="12.754524">
        <ele>240.761</ele>
        <time>2023-10-15T12:28:22Z</time>
      </trkpt>
      <trkpt lat="42.242580" lon="12.754566">
        <ele>240.488</ele>
        <time>2023-10-15T12:29:31Z</time>
      </trkpt>
      <trkpt lat="42.242858" lon="12.754205">
        <ele>230.531</ele>
        <time>2023-10-15T12:35:29Z</time>
      </trkpt>
      <trkpt lat="42.242778" lon="12.753837">
        <ele>226.026</ele>
        <time>2023-10-15T12:36:51Z</time>
      </trkpt>
      <trkpt lat="42.242886" lon="12.753181">
        <ele>224.374</ele>
        <time>2023-10-15T12:40:22Z</time>
      </trkpt>
      <trkpt lat="42.242537" lon="12.752148">
        <ele>222.756</ele>
        <time>2023-10-15T12:42:02Z</time>
      </trkpt>
      <trkpt lat="42.242742" lon="12.751021">
        <ele>222.221</ele>
        <time>2023-10-15T12:44:10Z</time>
      </trkpt>
      <trkpt lat="42.242525" lon="12.750068">
        <ele>233.609</ele>
        <time>2023-10-15T12:46:55Z</time>
      </trkpt>
      <trkpt lat="42.242283" lon="12.749753">
        <ele>236.128</ele>
        <time>2023-10-15T12:47:44Z</time>
      </trkpt>
      <trkpt lat="42.242110" lon="12.749000">
        <ele>243.532</ele>
        <time>2023-10-15T12:49:15Z</time>
      </trkpt>
      <trkpt lat="42.241973" lon="12.748935">
        <ele>244.417</ele>
        <time>2023-10-15T12:49:33Z</time>
      </trkpt>
      <trkpt lat="42.241803" lon="12.749043">
        <ele>246.742</ele>
        <time>2023-10-15T12:49:59Z</time>
      </trkpt>
      <trkpt lat="42.241467" lon="12.748934">
        <ele>249.477</ele>
        <time>2023-10-15T12:50:38Z</time>
      </trkpt>
      <trkpt lat="42.241339" lon="12.748658">
        <ele>250.194</ele>
        <time>2023-10-15T12:51:13Z</time>
      </trkpt>
      <trkpt lat="42.241122" lon="12.748507">
        <ele>252.171</ele>
        <time>2023-10-15T12:51:39Z</time>
      </trkpt>
      <trkpt lat="42.240941" lon="12.748040">
        <ele>251.914</ele>
        <time>2023-10-15T12:52:28Z</time>
      </trkpt>
      <trkpt lat="42.240934" lon="12.747623">
        <ele>252.849</ele>
        <time>2023-10-15T12:53:24Z</time>
      </trkpt>
      <trkpt lat="42.241025" lon="12.747370">
        <ele>247.558</ele>
        <time>2023-10-15T12:53:48Z</time>
      </trkpt>
      <trkpt lat="42.240872" lon="12.746691">
        <ele>245.152</ele>
        <time>2023-10-15T12:55:13Z</time>
      </trkpt>
      <trkpt lat="42.240954" lon="12.746743">
        <ele>246.417</ele>
        <time>2023-10-15T12:56:23Z</time>
      </trkpt>
      <trkpt lat="42.240907" lon="12.746565">
        <ele>246.409</ele>
        <time>2023-10-15T12:57:38Z</time>
      </trkpt>
      <trkpt lat="42.241000" lon="12.746238">
        <ele>250.376</ele>
        <time>2023-10-15T12:59:40Z</time>
      </trkpt>
      <trkpt lat="42.240821" lon="12.745426">
        <ele>252.480</ele>
        <time>2023-10-15T13:00:45Z</time>
      </trkpt>
      <trkpt lat="42.240876" lon="12.744490">
        <ele>252.465</ele>
        <time>2023-10-15T13:02:12Z</time>
      </trkpt>
      <trkpt lat="42.240769" lon="12.743860">
        <ele>253.060</ele>
        <time>2023-10-15T13:03:10Z</time>
      </trkpt>
      <trkpt lat="42.240798" lon="12.743149">
        <ele>255.475</ele>
        <time>2023-10-15T13:04:20Z</time>
      </trkpt>
      <trkpt lat="42.240534" lon="12.742873">
        <ele>259.032</ele>
        <time>2023-10-15T13:05:11Z</time>
      </trkpt>
      <trkpt lat="42.240494" lon="12.742621">
        <ele>259.249</ele>
        <time>2023-10-15T13:05:42Z</time>
      </trkpt>
      <trkpt lat="42.240263" lon="12.742494">
        <ele>255.972</ele>
        <time>2023-10-15T13:06:28Z</time>
      </trkpt>
      <trkpt lat="42.239938" lon="12.742040">
        <ele>246.967</ele>
        <time>2023-10-15T13:07:26Z</time>
      </trkpt>
      <trkpt lat="42.239369" lon="12.741821">
        <ele>243.728</ele>
        <time>2023-10-15T13:08:44Z</time>
      </trkpt>
      <trkpt lat="42.238945" lon="12.741871">
        <ele>240.289</ele>
        <time>2023-10-15T13:10:34Z</time>
      </trkpt>
      <trkpt lat="42.238656" lon="12.741801">
        <ele>241.017</ele>
        <time>2023-10-15T13:11:42Z</time>
      </trkpt>
      <trkpt lat="42.238851" lon="12.741798">
        <ele>240.909</ele>
        <time>2023-10-15T13:13:49Z</time>
      </trkpt>
      <trkpt lat="42.239130" lon="12.741495">
        <ele>244.253</ele>
        <time>2023-10-15T13:14:31Z</time>
      </trkpt>
      <trkpt lat="42.239174" lon="12.741240">
        <ele>246.637</ele>
        <time>2023-10-15T13:15:13Z</time>
      </trkpt>
      <trkpt lat="42.239623" lon="12.740576">
        <ele>255.712</ele>
        <time>2023-10-15T13:16:53Z</time>
      </trkpt>
      <trkpt lat="42.239718" lon="12.740027">
        <ele>257.037</ele>
        <time>2023-10-15T13:17:18Z</time>
      </trkpt>
      <trkpt lat="42.239625" lon="12.739596">
        <ele>257.952</ele>
        <time>2023-10-15T13:18:09Z</time>
      </trkpt>
      <trkpt lat="42.239775" lon="12.738774">
        <ele>255.059</ele>
        <time>2023-10-15T13:19:24Z</time>
      </trkpt>
      <trkpt lat="42.240097" lon="12.738282">
        <ele>247.916</ele>
        <time>2023-10-15T13:20:33Z</time>
      </trkpt>
      <trkpt lat="42.240388" lon="12.738026">
        <ele>245.219</ele>
        <time>2023-10-15T13:21:57Z</time>
      </trkpt>
      <trkpt lat="42.240540" lon="12.737565">
        <ele>237.984</ele>
        <time>2023-10-15T13:23:02Z</time>
      </trkpt>
      <trkpt lat="42.240731" lon="12.737621">
        <ele>237.272</ele>
        <time>2023-10-15T13:24:15Z</time>
      </trkpt>
      <trkpt lat="42.240708" lon="12.737874">
        <ele>239.613</ele>
        <time>2023-10-15T13:25:34Z</time>
      </trkpt>
      <trkpt lat="42.240661" lon="12.737629">
        <ele>239.714</ele>
        <time>2023-10-15T13:44:01Z</time>
      </trkpt>
      <trkpt lat="42.240550" lon="12.737507">
        <ele>238.509</ele>
        <time>2023-10-15T13:44:25Z</time>
      </trkpt>
      <trkpt lat="42.240392" lon="12.737643">
        <ele>238.388</ele>
        <time>2023-10-15T13:44:46Z</time>
      </trkpt>
      <trkpt lat="42.240212" lon="12.737529">
        <ele>237.892</ele>
        <time>2023-10-15T13:45:11Z</time>
      </trkpt>
      <trkpt lat="42.239621" lon="12.737538">
        <ele>233.667</ele>
        <time>2023-10-15T13:46:35Z</time>
      </trkpt>
      <trkpt lat="42.239702" lon="12.737616">
        <ele>232.662</ele>
        <time>2023-10-15T13:46:46Z</time>
      </trkpt>
      <trkpt lat="42.239503" lon="12.737397">
        <ele>230.997</ele>
        <time>2023-10-15T13:47:22Z</time>
      </trkpt>
      <trkpt lat="42.239642" lon="12.737653">
        <ele>228.964</ele>
        <time>2023-10-15T13:48:13Z</time>
      </trkpt>
      <trkpt lat="42.239518" lon="12.737755">
        <ele>229.981</ele>
        <time>2023-10-15T13:48:30Z</time>
      </trkpt>
      <trkpt lat="42.238922" lon="12.737946">
        <ele>236.394</ele>
        <time>2023-10-15T13:49:55Z</time>
      </trkpt>
      <trkpt lat="42.238248" lon="12.737932">
        <ele>244.759</ele>
        <time>2023-10-15T13:51:25Z</time>
      </trkpt>
      <trkpt lat="42.237551" lon="12.738721">
        <ele>255.111</ele>
        <time>2023-10-15T13:53:31Z</time>
      </trkpt>
      <trkpt lat="42.237386" lon="12.739281">
        <ele>259.221</ele>
        <time>2023-10-15T13:54:28Z</time>
      </trkpt>
      <trkpt lat="42.236880" lon="12.739934">
        <ele>271.703</ele>
        <time>2023-10-15T13:58:17Z</time>
      </trkpt>
      <trkpt lat="42.236498" lon="12.740274">
        <ele>276.909</ele>
        <time>2023-10-15T13:59:13Z</time>
      </trkpt>
      <trkpt lat="42.236070" lon="12.740485">
        <ele>280.432</ele>
        <time>2023-10-15T14:00:05Z</time>
      </trkpt>
      <trkpt lat="42.235968" lon="12.740940">
        <ele>283.196</ele>
        <time>2023-10-15T14:00:46Z</time>
      </trkpt>
      <trkpt lat="42.234607" lon="12.741711">
        <ele>293.021</ele>
        <time>2023-10-15T14:03:33Z</time>
      </trkpt>
      <trkpt lat="42.234040" lon="12.742403">
        <ele>304.516</ele>
        <time>2023-10-15T14:07:41Z</time>
      </trkpt>
      <trkpt lat="42.233859" lon="12.742502">
        <ele>304.221</ele>
        <time>2023-10-15T14:08:08Z</time>
      </trkpt>
      <trkpt lat="42.233423" lon="12.743632">
        <ele>310.658</ele>
        <time>2023-10-15T14:13:19Z</time>
      </trkpt>
      <trkpt lat="42.233154" lon="12.743921">
        <ele>317.095</ele>
        <time>2023-10-15T14:14:57Z</time>
      </trkpt>
      <trkpt lat="42.233136" lon="12.744257">
        <ele>318.998</ele>
        <time>2023-10-15T14:15:31Z</time>
      </trkpt>
      <trkpt lat="42.232945" lon="12.744552">
        <ele>322.233</ele>
        <time>2023-10-15T14:16:09Z</time>
      </trkpt>
      <trkpt lat="42.232803" lon="12.744567">
        <ele>325.377</ele>
        <time>2023-10-15T14:17:00Z</time>
      </trkpt>
      <trkpt lat="42.232933" lon="12.744155">
        <ele>325.461</ele>
        <time>2023-10-15T14:19:12Z</time>
      </trkpt>
      <trkpt lat="42.232452" lon="12.742760">
        <ele>331.227</ele>
        <time>2023-10-15T14:24:43Z</time>
      </trkpt>
      <trkpt lat="42.232496" lon="12.742579">
        <ele>334.109</ele>
        <time>2023-10-15T14:25:06Z</time>
      </trkpt>
      <trkpt lat="42.232408" lon="12.741898">
        <ele>344.348</ele>
        <time>2023-10-15T14:26:39Z</time>
      </trkpt>
      <trkpt lat="42.232153" lon="12.741950">
        <ele>349.462</ele>
        <time>2023-10-15T14:27:29Z</time>
      </trkpt>
      <trkpt lat="42.231956" lon="12.742201">
        <ele>350.327</ele>
        <time>2023-10-15T14:27:54Z</time>
      </trkpt>
    </trkseg>
  </trk></gpx>