<?xml version="1.0" encoding="UTF-8"?>
<gpx creator="Wikiloc - https://www.wikiloc.com" version="1.1" xmlns="http://www.topografix.com/GPX/1/1" xmlns:xsi="http://www.w3.org/2001/XMLSchema-instance" xsi:schemaLocation="http://www.topografix.com/GPX/1/1 http://www.topografix.com/GPX/1/1/gpx.xsd">
  <metadata>
    <name>Wikiloc - Colonnata, Vergheto, cima Gioia, David di Kobra, Colonnata -...</name>
    <link href="https://www.wikiloc.com/hiking-trails/colonnata-vergheto-cima-gioia-david-di-kobra-colonnata-112128088">
      <text>Colonnata, Vergheto, cima Gioia, David di Kobra, Colonnata -... on Wikiloc</text>
    </link>
    <time>2022-08-28T13:18:55Z</time>
  </metadata>
  <trk>
    <name>Colonnata, Vergheto, cima Gioia, David di Kobra, Colonnata -... - Wikiloc</name>
    <cmt></cmt>
    <desc></desc>
    <trkseg>
      <trkpt lat="44.086223" lon="10.155836">
        <ele>572.815</ele>
        <time>2022-08-28T10:01:28Z</time>
      </trkpt>
      <trkpt lat="44.086204" lon="10.156777">
        <ele>572.865</ele>
        <time>2022-08-28T10:03:10Z</time>
      </trkpt>
      <trkpt lat="44.086261" lon="10.157377">
        <ele>588.211</ele>
        <time>2022-08-28T10:03:55Z</time>
      </trkpt>
      <trkpt lat="44.086401" lon="10.157828">
        <ele>586.809</ele>
        <time>2022-08-28T10:04:26Z</time>
      </trkpt>
      <trkpt lat="44.086378" lon="10.158171">
        <ele>585.652</ele>
        <time>2022-08-28T10:05:21Z</time>
      </trkpt>
      <trkpt lat="44.086486" lon="10.158594">
        <ele>589.592</ele>
        <time>2022-08-28T10:06:12Z</time>
      </trkpt>
      <trkpt lat="44.086754" lon="10.159000">
        <ele>595.173</ele>
        <time>2022-08-28T10:06:46Z</time>
      </trkpt>
      <trkpt lat="44.086561" lon="10.159469">
        <ele>598.392</ele>
        <time>2022-08-28T10:07:28Z</time>
      </trkpt>
      <trkpt lat="44.086656" lon="10.159524">
        <ele>598.623</ele>
        <time>2022-08-28T10:07:42Z</time>
      </trkpt>
      <trkpt lat="44.086834" lon="10.159911">
        <ele>601.759</ele>
        <time>2022-08-28T10:08:04Z</time>
      </trkpt>
      <trkpt lat="44.086799" lon="10.160691">
        <ele>610.811</ele>
        <time>2022-08-28T10:09:01Z</time>
      </trkpt>
      <trkpt lat="44.087131" lon="10.161777">
        <ele>624.239</ele>
        <time>2022-08-28T10:10:34Z</time>
      </trkpt>
      <trkpt lat="44.087337" lon="10.162067">
        <ele>624.799</ele>
        <time>2022-08-28T10:11:06Z</time>
      </trkpt>
      <trkpt lat="44.087415" lon="10.162460">
        <ele>628.667</ele>
        <time>2022-08-28T10:11:34Z</time>
      </trkpt>
      <trkpt lat="44.087740" lon="10.163017">
        <ele>642.481</ele>
        <time>2022-08-28T10:12:50Z</time>
      </trkpt>
      <trkpt lat="44.087832" lon="10.163472">
        <ele>650.719</ele>
        <time>2022-08-28T10:13:28Z</time>
      </trkpt>
      <trkpt lat="44.088044" lon="10.163996">
        <ele>651.109</ele>
        <time>2022-08-28T10:14:16Z</time>
      </trkpt>
      <trkpt lat="44.088416" lon="10.164625">
        <ele>652.957</ele>
        <time>2022-08-28T10:15:12Z</time>
      </trkpt>
      <trkpt lat="44.088606" lon="10.164723">
        <ele>657.427</ele>
        <time>2022-08-28T10:15:35Z</time>
      </trkpt>
      <trkpt lat="44.088985" lon="10.164674">
        <ele>663.828</ele>
        <time>2022-08-28T10:16:12Z</time>
      </trkpt>
      <trkpt lat="44.089089" lon="10.164545">
        <ele>658.347</ele>
        <time>2022-08-28T10:16:27Z</time>
      </trkpt>
      <trkpt lat="44.089782" lon="10.164364">
        <ele>669.288</ele>
        <time>2022-08-28T10:17:50Z</time>
      </trkpt>
      <trkpt lat="44.089982" lon="10.164444">
        <ele>670.964</ele>
        <time>2022-08-28T10:18:05Z</time>
      </trkpt>
      <trkpt lat="44.090256" lon="10.164735">
        <ele>673.376</ele>
        <time>2022-08-28T10:18:37Z</time>
      </trkpt>
      <trkpt lat="44.090794" lon="10.164953">
        <ele>669.244</ele>
        <time>2022-08-28T10:19:20Z</time>
      </trkpt>
      <trkpt lat="44.090652" lon="10.165247">
        <ele>669.454</ele>
        <time>2022-08-28T10:20:13Z</time>
      </trkpt>
      <trkpt lat="44.090755" lon="10.165356">
        <ele>674.064</ele>
        <time>2022-08-28T10:20:48Z</time>
      </trkpt>
      <trkpt lat="44.090765" lon="10.165545">
        <ele>675.706</ele>
        <time>2022-08-28T10:21:03Z</time>
      </trkpt>
      <trkpt lat="44.090725" lon="10.165507">
        <ele>676.516</ele>
        <time>2022-08-28T10:21:13Z</time>
      </trkpt>
      <trkpt lat="44.090843" lon="10.165353">
        <ele>685.809</ele>
        <time>2022-08-28T10:21:54Z</time>
      </trkpt>
      <trkpt lat="44.090898" lon="10.165387">
        <ele>685.657</ele>
        <time>2022-08-28T10:21:58Z</time>
      </trkpt>
      <trkpt lat="44.091192" lon="10.165833">
        <ele>698.647</ele>
        <time>2022-08-28T10:23:08Z</time>
      </trkpt>
      <trkpt lat="44.091228" lon="10.165686">
        <ele>703.838</ele>
        <time>2022-08-28T10:23:54Z</time>
      </trkpt>
      <trkpt lat="44.091305" lon="10.165669">
        <ele>704.337</ele>
        <time>2022-08-28T10:24:45Z</time>
      </trkpt>
      <trkpt lat="44.091327" lon="10.165991">
        <ele>709.858</ele>
        <time>2022-08-28T10:25:09Z</time>
      </trkpt>
      <trkpt lat="44.091464" lon="10.166265">
        <ele>714.924</ele>
        <time>2022-08-28T10:25:33Z</time>
      </trkpt>
      <trkpt lat="44.091414" lon="10.166486">
        <ele>722.996</ele>
        <time>2022-08-28T10:25:58Z</time>
      </trkpt>
      <trkpt lat="44.091375" lon="10.166448">
        <ele>721.564</ele>
        <time>2022-08-28T10:26:08Z</time>
      </trkpt>
      <trkpt lat="44.091362" lon="10.166254">
        <ele>722.794</ele>
        <time>2022-08-28T10:26:31Z</time>
      </trkpt>
      <trkpt lat="44.091452" lon="10.166228">
        <ele>720.749</ele>
        <time>2022-08-28T10:26:52Z</time>
      </trkpt>
      <trkpt lat="44.091634" lon="10.166556">
        <ele>728.802</ele>
        <time>2022-08-28T10:27:25Z</time>
      </trkpt>
      <trkpt lat="44.091586" lon="10.166920">
        <ele>736.022</ele>
        <time>2022-08-28T10:28:02Z</time>
      </trkpt>
      <trkpt lat="44.091888" lon="10.166991">
        <ele>744.309</ele>
        <time>2022-08-28T10:29:25Z</time>
      </trkpt>
      <trkpt lat="44.092135" lon="10.167147">
        <ele>749.155</ele>
        <time>2022-08-28T10:29:57Z</time>
      </trkpt>
      <trkpt lat="44.092198" lon="10.167382">
        <ele>752.775</ele>
        <time>2022-08-28T10:30:51Z</time>
      </trkpt>
      <trkpt lat="44.092024" lon="10.167668">
        <ele>756.566</ele>
        <time>2022-08-28T10:31:10Z</time>
      </trkpt>
      <trkpt lat="44.091611" lon="10.167808">
        <ele>773.325</ele>
        <time>2022-08-28T10:32:08Z</time>
      </trkpt>
      <trkpt lat="44.091474" lon="10.167957">
        <ele>770.546</ele>
        <time>2022-08-28T10:33:05Z</time>
      </trkpt>
      <trkpt lat="44.091644" lon="10.168122">
        <ele>779.122</ele>
        <time>2022-08-28T10:33:29Z</time>
      </trkpt>
      <trkpt lat="44.091505" lon="10.168390">
        <ele>785.034</ele>
        <time>2022-08-28T10:34:07Z</time>
      </trkpt>
      <trkpt lat="44.091138" lon="10.168556">
        <ele>798.822</ele>
        <time>2022-08-28T10:35:03Z</time>
      </trkpt>
      <trkpt lat="44.090601" lon="10.168515">
        <ele>800.982</ele>
        <time>2022-08-28T10:36:33Z</time>
      </trkpt>
      <trkpt lat="44.090541" lon="10.168760">
        <ele>806.421</ele>
        <time>2022-08-28T10:38:47Z</time>
      </trkpt>
      <trkpt lat="44.091146" lon="10.169632">
        <ele>835.841</ele>
        <time>2022-08-28T10:40:41Z</time>
      </trkpt>
      <trkpt lat="44.091241" lon="10.169894">
        <ele>839.405</ele>
        <time>2022-08-28T10:41:25Z</time>
      </trkpt>
      <trkpt lat="44.091181" lon="10.170014">
        <ele>839.809</ele>
        <time>2022-08-28T10:41:41Z</time>
      </trkpt>
      <trkpt lat="44.091449" lon="10.170394">
        <ele>847.563</ele>
        <time>2022-08-28T10:42:43Z</time>
      </trkpt>
      <trkpt lat="44.091796" lon="10.170443">
        <ele>856.013</ele>
        <time>2022-08-28T10:43:33Z</time>
      </trkpt>
      <trkpt lat="44.091962" lon="10.170573">
        <ele>858.454</ele>
        <time>2022-08-28T10:44:22Z</time>
      </trkpt>
      <trkpt lat="44.092261" lon="10.170579">
        <ele>871.153</ele>
        <time>2022-08-28T10:45:00Z</time>
      </trkpt>
      <trkpt lat="44.092413" lon="10.170719">
        <ele>871.184</ele>
        <time>2022-08-28T10:45:54Z</time>
      </trkpt>
      <trkpt lat="44.092745" lon="10.170596">
        <ele>888.020</ele>
        <time>2022-08-28T10:51:00Z</time>
      </trkpt>
      <trkpt lat="44.092936" lon="10.170702">
        <ele>892.682</ele>
        <time>2022-08-28T10:51:19Z</time>
      </trkpt>
      <trkpt lat="44.093195" lon="10.170530">
        <ele>893.630</ele>
        <time>2022-08-28T10:52:01Z</time>
      </trkpt>
      <trkpt lat="44.093381" lon="10.170571">
        <ele>900.170</ele>
        <time>2022-08-28T10:54:00Z</time>
      </trkpt>
      <trkpt lat="44.093760" lon="10.170430">
        <ele>902.145</ele>
        <time>2022-08-28T10:54:58Z</time>
      </trkpt>
      <trkpt lat="44.093485" lon="10.170561">
        <ele>903.347</ele>
        <time>2022-08-28T11:00:04Z</time>
      </trkpt>
      <trkpt lat="44.093461" lon="10.170646">
        <ele>904.411</ele>
        <time>2022-08-28T11:02:00Z</time>
      </trkpt>
      <trkpt lat="44.093417" lon="10.170573">
        <ele>901.909</ele>
        <time>2022-08-28T11:02:25Z</time>
      </trkpt>
      <trkpt lat="44.093337" lon="10.170615">
        <ele>897.815</ele>
        <time>2022-08-28T11:10:05Z</time>
      </trkpt>
      <trkpt lat="44.093340" lon="10.170529">
        <ele>898.375</ele>
        <time>2022-08-28T11:11:07Z</time>
      </trkpt>
      <trkpt lat="44.093494" lon="10.170624">
        <ele>901.596</ele>
        <time>2022-08-28T11:14:45Z</time>
      </trkpt>
      <trkpt lat="44.093429" lon="10.170561">
        <ele>904.685</ele>
        <time>2022-08-28T11:15:31Z</time>
      </trkpt>
      <trkpt lat="44.093247" lon="10.170643">
        <ele>900.416</ele>
        <time>2022-08-28T11:20:41Z</time>
      </trkpt>
      <trkpt lat="44.093282" lon="10.170594">
        <ele>901.182</ele>
        <time>2022-08-28T11:22:46Z</time>
      </trkpt>
      <trkpt lat="44.093137" lon="10.170590">
        <ele>899.064</ele>
        <time>2022-08-28T11:23:07Z</time>
      </trkpt>
      <trkpt lat="44.093026" lon="10.170726">
        <ele>893.742</ele>
        <time>2022-08-28T11:23:30Z</time>
      </trkpt>
      <trkpt lat="44.092928" lon="10.170648">
        <ele>891.152</ele>
        <time>2022-08-28T11:23:55Z</time>
      </trkpt>
      <trkpt lat="44.092413" lon="10.170815">
        <ele>874.935</ele>
        <time>2022-08-28T11:25:02Z</time>
      </trkpt>
      <trkpt lat="44.092134" lon="10.170603">
        <ele>867.586</ele>
        <time>2022-08-28T11:25:40Z</time>
      </trkpt>
      <trkpt lat="44.091953" lon="10.170668">
        <ele>860.914</ele>
        <time>2022-08-28T11:26:11Z</time>
      </trkpt>
      <trkpt lat="44.091738" lon="10.170546">
        <ele>854.309</ele>
        <time>2022-08-28T11:26:44Z</time>
      </trkpt>
      <trkpt lat="44.091491" lon="10.170515">
        <ele>854.194</ele>
        <time>2022-08-28T11:27:21Z</time>
      </trkpt>
      <trkpt lat="44.091294" lon="10.170362">
        <ele>850.564</ele>
        <time>2022-08-28T11:27:46Z</time>
      </trkpt>
      <trkpt lat="44.091283" lon="10.170433">
        <ele>845.685</ele>
        <time>2022-08-28T11:27:54Z</time>
      </trkpt>
      <trkpt lat="44.091087" lon="10.170074">
        <ele>836.944</ele>
        <time>2022-08-28T11:29:39Z</time>
      </trkpt>
      <trkpt lat="44.090680" lon="10.170145">
        <ele>836.025</ele>
        <time>2022-08-28T11:31:08Z</time>
      </trkpt>
      <trkpt lat="44.090385" lon="10.170061">
        <ele>838.841</ele>
        <time>2022-08-28T11:31:36Z</time>
      </trkpt>
      <trkpt lat="44.090052" lon="10.170173">
        <ele>839.793</ele>
        <time>2022-08-28T11:32:09Z</time>
      </trkpt>
      <trkpt lat="44.089896" lon="10.170120">
        <ele>843.651</ele>
        <time>2022-08-28T11:32:19Z</time>
      </trkpt>
      <trkpt lat="44.089802" lon="10.169883">
        <ele>840.221</ele>
        <time>2022-08-28T11:33:17Z</time>
      </trkpt>
      <trkpt lat="44.089668" lon="10.169812">
        <ele>835.834</ele>
        <time>2022-08-28T11:33:28Z</time>
      </trkpt>
      <trkpt lat="44.089015" lon="10.169716">
        <ele>828.255</ele>
        <time>2022-08-28T11:34:29Z</time>
      </trkpt>
      <trkpt lat="44.088952" lon="10.169615">
        <ele>826.310</ele>
        <time>2022-08-28T11:34:40Z</time>
      </trkpt>
      <trkpt lat="44.088538" lon="10.169519">
        <ele>808.709</ele>
        <time>2022-08-28T11:35:34Z</time>
      </trkpt>
      <trkpt lat="44.088195" lon="10.169301">
        <ele>812.994</ele>
        <time>2022-08-28T11:36:11Z</time>
      </trkpt>
      <trkpt lat="44.088046" lon="10.168798">
        <ele>800.854</ele>
        <time>2022-08-28T11:36:43Z</time>
      </trkpt>
      <trkpt lat="44.087824" lon="10.168655">
        <ele>795.685</ele>
        <time>2022-08-28T11:37:28Z</time>
      </trkpt>
      <trkpt lat="44.087734" lon="10.168690">
        <ele>794.824</ele>
        <time>2022-08-28T11:37:43Z</time>
      </trkpt>
      <trkpt lat="44.087543" lon="10.168600">
        <ele>787.225</ele>
        <time>2022-08-28T11:38:36Z</time>
      </trkpt>
      <trkpt lat="44.086818" lon="10.167714">
        <ele>773.811</ele>
        <time>2022-08-28T11:42:02Z</time>
      </trkpt>
      <trkpt lat="44.086565" lon="10.167500">
        <ele>766.843</ele>
        <time>2022-08-28T11:43:07Z</time>
      </trkpt>
      <trkpt lat="44.086223" lon="10.166895">
        <ele>765.171</ele>
        <time>2022-08-28T11:44:11Z</time>
      </trkpt>
      <trkpt lat="44.085944" lon="10.166615">
        <ele>769.331</ele>
        <time>2022-08-28T11:45:01Z</time>
      </trkpt>
      <trkpt lat="44.085580" lon="10.166502">
        <ele>773.568</ele>
        <time>2022-08-28T11:46:13Z</time>
      </trkpt>
      <trkpt lat="44.085471" lon="10.166299">
        <ele>773.842</ele>
        <time>2022-08-28T11:46:43Z</time>
      </trkpt>
      <trkpt lat="44.085232" lon="10.166279">
        <ele>775.126</ele>
        <time>2022-08-28T11:47:45Z</time>
      </trkpt>
      <trkpt lat="44.085240" lon="10.166146">
        <ele>772.109</ele>
        <time>2022-08-28T11:50:22Z</time>
      </trkpt>
      <trkpt lat="44.085001" lon="10.165838">
        <ele>772.597</ele>
        <time>2022-08-28T11:51:30Z</time>
      </trkpt>
      <trkpt lat="44.084439" lon="10.165348">
        <ele>779.497</ele>
        <time>2022-08-28T11:52:49Z</time>
      </trkpt>
      <trkpt lat="44.083979" lon="10.164653">
        <ele>788.548</ele>
        <time>2022-08-28T11:54:21Z</time>
      </trkpt>
      <trkpt lat="44.083553" lon="10.162988">
        <ele>801.557</ele>
        <time>2022-08-28T11:57:05Z</time>
      </trkpt>
      <trkpt lat="44.083350" lon="10.162503">
        <ele>807.998</ele>
        <time>2022-08-28T11:57:47Z</time>
      </trkpt>
      <trkpt lat="44.082947" lon="10.161849">
        <ele>820.234</ele>
        <time>2022-08-28T11:59:11Z</time>
      </trkpt>
      <trkpt lat="44.082469" lon="10.161794">
        <ele>822.646</ele>
        <time>2022-08-28T12:00:27Z</time>
      </trkpt>
      <trkpt lat="44.082016" lon="10.161535">
        <ele>824.574</ele>
        <time>2022-08-28T12:01:35Z</time>
      </trkpt>
      <trkpt lat="44.081846" lon="10.161296">
        <ele>828.144</ele>
        <time>2022-08-28T12:02:17Z</time>
      </trkpt>
      <trkpt lat="44.081451" lon="10.161043">
        <ele>831.368</ele>
        <time>2022-08-28T12:08:07Z</time>
      </trkpt>
      <trkpt lat="44.081278" lon="10.160641">
        <ele>834.942</ele>
        <time>2022-08-28T12:08:50Z</time>
      </trkpt>
      <trkpt lat="44.080837" lon="10.160081">
        <ele>846.526</ele>
        <time>2022-08-28T12:10:43Z</time>
      </trkpt>
      <trkpt lat="44.080783" lon="10.159552">
        <ele>851.209</ele>
        <time>2022-08-28T12:12:25Z</time>
      </trkpt>
      <trkpt lat="44.080580" lon="10.159101">
        <ele>858.987</ele>
        <time>2022-08-28T12:13:16Z</time>
      </trkpt>
      <trkpt lat="44.080563" lon="10.158708">
        <ele>860.227</ele>
        <time>2022-08-28T12:13:51Z</time>
      </trkpt>
      <trkpt lat="44.080469" lon="10.159057">
        <ele>866.388</ele>
        <time>2022-08-28T12:14:57Z</time>
      </trkpt>
      <trkpt lat="44.080249" lon="10.158475">
        <ele>887.167</ele>
        <time>2022-08-28T12:19:06Z</time>
      </trkpt>
      <trkpt lat="44.080105" lon="10.158503">
        <ele>886.338</ele>
        <time>2022-08-28T12:19:26Z</time>
      </trkpt>
      <trkpt lat="44.080298" lon="10.158525">
        <ele>886.174</ele>
        <time>2022-08-28T12:23:05Z</time>
      </trkpt>
      <trkpt lat="44.080214" lon="10.158500">
        <ele>884.756</ele>
        <time>2022-08-28T12:25:48Z</time>
      </trkpt>
      <trkpt lat="44.080266" lon="10.158490">
        <ele>886.244</ele>
        <time>2022-08-28T12:27:45Z</time>
      </trkpt>
      <trkpt lat="44.080341" lon="10.158587">
        <ele>886.574</ele>
        <time>2022-08-28T12:27:55Z</time>
      </trkpt>
      <trkpt lat="44.080420" lon="10.159092">
        <ele>875.629</ele>
        <time>2022-08-28T12:29:02Z</time>
      </trkpt>
      <trkpt lat="44.080457" lon="10.158532">
        <ele>870.300</ele>
        <time>2022-08-28T12:29:48Z</time>
      </trkpt>
      <trkpt lat="44.080377" lon="10.158347">
        <ele>872.220</ele>
        <time>2022-08-28T12:30:07Z</time>
      </trkpt>
      <trkpt lat="44.080128" lon="10.158420">
        <ele>870.409</ele>
        <time>2022-08-28T12:30:35Z</time>
      </trkpt>
      <trkpt lat="44.080115" lon="10.158354">
        <ele>869.583</ele>
        <time>2022-08-28T12:30:51Z</time>
      </trkpt>
      <trkpt lat="44.080203" lon="10.158305">
        <ele>872.693</ele>
        <time>2022-08-28T12:31:45Z</time>
      </trkpt>
      <trkpt lat="44.080479" lon="10.158489">
        <ele>873.364</ele>
        <time>2022-08-28T12:35:00Z</time>
      </trkpt>
      <trkpt lat="44.080514" lon="10.159055">
        <ele>869.723</ele>
        <time>2022-08-28T12:35:34Z</time>
      </trkpt>
      <trkpt lat="44.080577" lon="10.158682">
        <ele>863.524</ele>
        <time>2022-08-28T12:36:07Z</time>
      </trkpt>
      <trkpt lat="44.080606" lon="10.158744">
        <ele>863.360</ele>
        <time>2022-08-28T12:36:10Z</time>
      </trkpt>
      <trkpt lat="44.080622" lon="10.159184">
        <ele>858.272</ele>
        <time>2022-08-28T12:36:38Z</time>
      </trkpt>
      <trkpt lat="44.080850" lon="10.159737">
        <ele>850.680</ele>
        <time>2022-08-28T12:37:59Z</time>
      </trkpt>
      <trkpt lat="44.080859" lon="10.160079">
        <ele>849.270</ele>
        <time>2022-08-28T12:38:34Z</time>
      </trkpt>
      <trkpt lat="44.080978" lon="10.160302">
        <ele>840.873</ele>
        <time>2022-08-28T12:39:23Z</time>
      </trkpt>
      <trkpt lat="44.081197" lon="10.160500">
        <ele>832.585</ele>
        <time>2022-08-28T12:40:17Z</time>
      </trkpt>
      <trkpt lat="44.081454" lon="10.161040">
        <ele>831.913</ele>
        <time>2022-08-28T12:42:28Z</time>
      </trkpt>
      <trkpt lat="44.082007" lon="10.161499">
        <ele>824.209</ele>
        <time>2022-08-28T12:44:47Z</time>
      </trkpt>
      <trkpt lat="44.082016" lon="10.161425">
        <ele>822.898</ele>
        <time>2022-08-28T12:44:59Z</time>
      </trkpt>
      <trkpt lat="44.082306" lon="10.161368">
        <ele>816.948</ele>
        <time>2022-08-28T12:46:19Z</time>
      </trkpt>
      <trkpt lat="44.082327" lon="10.161157">
        <ele>803.459</ele>
        <time>2022-08-28T12:47:44Z</time>
      </trkpt>
      <trkpt lat="44.082699" lon="10.161132">
        <ele>788.188</ele>
        <time>2022-08-28T12:49:21Z</time>
      </trkpt>
      <trkpt lat="44.082858" lon="10.160931">
        <ele>782.889</ele>
        <time>2022-08-28T12:50:22Z</time>
      </trkpt>
      <trkpt lat="44.082583" lon="10.160472">
        <ele>767.575</ele>
        <time>2022-08-28T12:52:15Z</time>
      </trkpt>
      <trkpt lat="44.082499" lon="10.160016">
        <ele>752.767</ele>
        <time>2022-08-28T12:53:55Z</time>
      </trkpt>
      <trkpt lat="44.082654" lon="10.159778">
        <ele>741.525</ele>
        <time>2022-08-28T12:55:28Z</time>
      </trkpt>
      <trkpt lat="44.082586" lon="10.159504">
        <ele>734.355</ele>
        <time>2022-08-28T12:55:52Z</time>
      </trkpt>
      <trkpt lat="44.082642" lon="10.159084">
        <ele>722.341</ele>
        <time>2022-08-28T12:56:43Z</time>
      </trkpt>
      <trkpt lat="44.082785" lon="10.159119">
        <ele>720.381</ele>
        <time>2022-08-28T12:56:59Z</time>
      </trkpt>
      <trkpt lat="44.082897" lon="10.159247">
        <ele>716.609</ele>
        <time>2022-08-28T12:57:15Z</time>
      </trkpt>
      <trkpt lat="44.083295" lon="10.159042">
        <ele>709.409</ele>
        <time>2022-08-28T12:58:26Z</time>
      </trkpt>
      <trkpt lat="44.083357" lon="10.159113">
        <ele>704.785</ele>
        <time>2022-08-28T12:58:35Z</time>
      </trkpt>
      <trkpt lat="44.083536" lon="10.159121">
        <ele>700.485</ele>
        <time>2022-08-28T12:59:05Z</time>
      </trkpt>
      <trkpt lat="44.083633" lon="10.158854">
        <ele>681.866</ele>
        <time>2022-08-28T13:00:26Z</time>
      </trkpt>
      <trkpt lat="44.083836" lon="10.158644">
        <ele>669.185</ele>
        <time>2022-08-28T13:01:09Z</time>
      </trkpt>
      <trkpt lat="44.083999" lon="10.158682">
        <ele>662.836</ele>
        <time>2022-08-28T13:01:26Z</time>
      </trkpt>
      <trkpt lat="44.084126" lon="10.158604">
        <ele>656.632</ele>
        <time>2022-08-28T13:02:00Z</time>
      </trkpt>
      <trkpt lat="44.084071" lon="10.158451">
        <ele>651.824</ele>
        <time>2022-08-28T13:02:17Z</time>
      </trkpt>
      <trkpt lat="44.084186" lon="10.158076">
        <ele>644.762</ele>
        <time>2022-08-28T13:03:30Z</time>
      </trkpt>
      <trkpt lat="44.084498" lon="10.157917">
        <ele>626.622</ele>
        <time>2022-08-28T13:04:47Z</time>
      </trkpt>
      <trkpt lat="44.084606" lon="10.157931">
        <ele>623.031</ele>
        <time>2022-08-28T13:04:58Z</time>
      </trkpt>
      <trkpt lat="44.084926" lon="10.158291">
        <ele>615.161</ele>
        <time>2022-08-28T13:05:54Z</time>
      </trkpt>
      <trkpt lat="44.085030" lon="10.158268">
        <ele>607.407</ele>
        <time>2022-08-28T13:06:45Z</time>
      </trkpt>
      <trkpt lat="44.085207" lon="10.158428">
        <ele>603.609</ele>
        <time>2022-08-28T13:07:03Z</time>
      </trkpt>
      <trkpt lat="44.085447" lon="10.158477">
        <ele>594.514</ele>
        <time>2022-08-28T13:07:38Z</time>
      </trkpt>
      <trkpt lat="44.085701" lon="10.158806">
        <ele>591.134</ele>
        <time>2022-08-28T13:08:30Z</time>
      </trkpt>
      <trkpt lat="44.085888" lon="10.159289">
        <ele>580.955</ele>
        <time>2022-08-28T13:09:04Z</time>
      </trkpt>
      <trkpt lat="44.086036" lon="10.159473">
        <ele>579.864</ele>
        <time>2022-08-28T13:09:22Z</time>
      </trkpt>
      <trkpt lat="44.086234" lon="10.160143">
        <ele>581.975</ele>
        <time>2022-08-28T13:10:12Z</time>
      </trkpt>
      <trkpt lat="44.086216" lon="10.159472">
        <ele>587.241</ele>
        <time>2022-08-28T13:11:27Z</time>
      </trkpt>
      <trkpt lat="44.086364" lon="10.159140">
        <ele>585.323</ele>
        <time>2022-08-28T13:13:31Z</time>
      </trkpt>
      <trkpt lat="44.086200" lon="10.158603">
        <ele>589.421</ele>
        <time>2022-08-28T13:14:23Z</time>
      </trkpt>
      <trkpt lat="44.086404" lon="10.157918">
        <ele>591.971</ele>
        <time>2022-08-28T13:15:42Z</time>
      </trkpt>
      <trkpt lat="44.086234" lon="10.157189">
        <ele>586.611</ele>
        <time>2022-08-28T13:16:24Z</time>
      </trkpt>
      <trkpt lat="44.086296" lon="10.156605">
        <ele>583.821</ele>
        <time>2022-08-28T13:17:00Z</time>
      </trkpt>
      <trkpt lat="44.086209" lon="10.156290">
        <ele>582.303</ele>
        <time>2022-08-28T13:17:29Z</time>
      </trkpt>
      <trkpt lat="44.086294" lon="10.155991">
        <ele>580.009</ele>
        <time>2022-08-28T13:17:52Z</time>
      </trkpt>
      <trkpt lat="44.086177" lon="10.155544">
        <ele>580.562</ele>
        <time>2022-08-28T13:18:55Z</time>
      </trkpt>
    </trkseg>
  </trk></gpx>