<?xml version="1.0" encoding="UTF-8"?>
<gpx creator="Wikiloc - https://www.wikiloc.com" version="1.1" xmlns="http://www.topografix.com/GPX/1/1" xmlns:xsi="http://www.w3.org/2001/XMLSchema-instance" xsi:schemaLocation="http://www.topografix.com/GPX/1/1 http://www.topografix.com/GPX/1/1/gpx.xsd">
  <metadata>
    <name>Wikiloc - Corno Stella, Lago Moro e Lago delle Trote da Foppolo - Wiki...</name>
    <link href="https://www.wikiloc.com/hiking-trails/corno-stella-lago-moro-e-lago-delle-trote-da-foppolo-285612673">
      <text>Corno Stella, Lago Moro e Lago delle Trote da Foppolo - Wiki... on Wikiloc</text>
    </link>
    <time>2026-09-13T12:21:59.999Z</time>
  </metadata>
  <trk>
    <name>Corno Stella, Lago Moro e Lago delle Trote da Foppolo - Wiki... - Wikiloc</name>
    <cmt></cmt>
    <desc></desc>
    <trkseg>
      <trkpt lat="46.041597" lon="9.759784">
        <ele>1612.381</ele>
        <time>2026-09-13T06:50:59.003Z</time>
      </trkpt>
      <trkpt lat="46.041818" lon="9.760656">
        <ele>1614.061</ele>
        <time>2026-09-13T06:53:00.002Z</time>
      </trkpt>
      <trkpt lat="46.041535" lon="9.761345">
        <ele>1625.617</ele>
        <time>2026-09-13T06:54:22.001Z</time>
      </trkpt>
      <trkpt lat="46.041810" lon="9.762950">
        <ele>1648.909</ele>
        <time>2026-09-13T06:56:46.001Z</time>
      </trkpt>
      <trkpt lat="46.042215" lon="9.764095">
        <ele>1663.160</ele>
        <time>2026-09-13T06:58:28.002Z</time>
      </trkpt>
      <trkpt lat="46.042589" lon="9.764566">
        <ele>1669.326</ele>
        <time>2026-09-13T06:59:19.003Z</time>
      </trkpt>
      <trkpt lat="46.042716" lon="9.765039">
        <ele>1671.793</ele>
        <time>2026-09-13T07:00:14.002Z</time>
      </trkpt>
      <trkpt lat="46.042695" lon="9.765254">
        <ele>1672.274</ele>
        <time>2026-09-13T07:00:27.002Z</time>
      </trkpt>
      <trkpt lat="46.042441" lon="9.765517">
        <ele>1673.829</ele>
        <time>2026-09-13T07:00:51.002Z</time>
      </trkpt>
      <trkpt lat="46.042346" lon="9.766005">
        <ele>1673.730</ele>
        <time>2026-09-13T07:01:20.002Z</time>
      </trkpt>
      <trkpt lat="46.042447" lon="9.766917">
        <ele>1680.734</ele>
        <time>2026-09-13T07:02:25.002Z</time>
      </trkpt>
      <trkpt lat="46.042790" lon="9.767775">
        <ele>1688.355</ele>
        <time>2026-09-13T07:03:29.002Z</time>
      </trkpt>
      <trkpt lat="46.043067" lon="9.768173">
        <ele>1690.211</ele>
        <time>2026-09-13T07:04:03.003Z</time>
      </trkpt>
      <trkpt lat="46.043781" lon="9.768970">
        <ele>1701.494</ele>
        <time>2026-09-13T07:05:44.004Z</time>
      </trkpt>
      <trkpt lat="46.044144" lon="9.769172">
        <ele>1707.157</ele>
        <time>2026-09-13T07:06:28.004Z</time>
      </trkpt>
      <trkpt lat="46.045190" lon="9.772663">
        <ele>1762.422</ele>
        <time>2026-09-13T07:12:09.007Z</time>
      </trkpt>
      <trkpt lat="46.044889" lon="9.774134">
        <ele>1767.809</ele>
        <time>2026-09-13T07:13:46.007Z</time>
      </trkpt>
      <trkpt lat="46.044486" lon="9.775251">
        <ele>1778.971</ele>
        <time>2026-09-13T07:15:16.008Z</time>
      </trkpt>
      <trkpt lat="46.044312" lon="9.775367">
        <ele>1782.947</ele>
        <time>2026-09-13T07:15:44.008Z</time>
      </trkpt>
      <trkpt lat="46.044087" lon="9.775171">
        <ele>1785.154</ele>
        <time>2026-09-13T07:16:06.009Z</time>
      </trkpt>
      <trkpt lat="46.044020" lon="9.774544">
        <ele>1790.415</ele>
        <time>2026-09-13T07:17:01.009Z</time>
      </trkpt>
      <trkpt lat="46.043907" lon="9.774236">
        <ele>1796.230</ele>
        <time>2026-09-13T07:17:39.009Z</time>
      </trkpt>
      <trkpt lat="46.043807" lon="9.774224">
        <ele>1798.791</ele>
        <time>2026-09-13T07:18:12.010Z</time>
      </trkpt>
      <trkpt lat="46.043607" lon="9.775131">
        <ele>1814.455</ele>
        <time>2026-09-13T07:19:51.010Z</time>
      </trkpt>
      <trkpt lat="46.043152" lon="9.775484">
        <ele>1825.986</ele>
        <time>2026-09-13T07:21:04.011Z</time>
      </trkpt>
      <trkpt lat="46.042863" lon="9.776005">
        <ele>1837.992</ele>
        <time>2026-09-13T07:22:16.011Z</time>
      </trkpt>
      <trkpt lat="46.042372" lon="9.776407">
        <ele>1851.843</ele>
        <time>2026-09-13T07:23:45.012Z</time>
      </trkpt>
      <trkpt lat="46.042316" lon="9.776874">
        <ele>1860.064</ele>
        <time>2026-09-13T07:24:36.013Z</time>
      </trkpt>
      <trkpt lat="46.042172" lon="9.777044">
        <ele>1864.610</ele>
        <time>2026-09-13T07:24:59.013Z</time>
      </trkpt>
      <trkpt lat="46.041825" lon="9.778091">
        <ele>1878.009</ele>
        <time>2026-09-13T07:26:33.013Z</time>
      </trkpt>
      <trkpt lat="46.041802" lon="9.778659">
        <ele>1881.236</ele>
        <time>2026-09-13T07:27:16.014Z</time>
      </trkpt>
      <trkpt lat="46.042533" lon="9.779462">
        <ele>1895.782</ele>
        <time>2026-09-13T07:29:14.015Z</time>
      </trkpt>
      <trkpt lat="46.042986" lon="9.779679">
        <ele>1910.219</ele>
        <time>2026-09-13T07:31:01.016Z</time>
      </trkpt>
      <trkpt lat="46.043262" lon="9.779748">
        <ele>1920.490</ele>
        <time>2026-09-13T07:31:57.016Z</time>
      </trkpt>
      <trkpt lat="46.043723" lon="9.779493">
        <ele>1932.095</ele>
        <time>2026-09-13T07:33:06.017Z</time>
      </trkpt>
      <trkpt lat="46.044231" lon="9.779711">
        <ele>1943.586</ele>
        <time>2026-09-13T07:34:16.017Z</time>
      </trkpt>
      <trkpt lat="46.044213" lon="9.780008">
        <ele>1947.630</ele>
        <time>2026-09-13T07:34:47.017Z</time>
      </trkpt>
      <trkpt lat="46.043762" lon="9.779959">
        <ele>1952.411</ele>
        <time>2026-09-13T07:35:38.018Z</time>
      </trkpt>
      <trkpt lat="46.043738" lon="9.780197">
        <ele>1955.387</ele>
        <time>2026-09-13T07:36:00.018Z</time>
      </trkpt>
      <trkpt lat="46.044008" lon="9.780499">
        <ele>1960.937</ele>
        <time>2026-09-13T07:36:42.018Z</time>
      </trkpt>
      <trkpt lat="46.044388" lon="9.780542">
        <ele>1969.049</ele>
        <time>2026-09-13T07:37:36.019Z</time>
      </trkpt>
      <trkpt lat="46.044870" lon="9.780894">
        <ele>1978.613</ele>
        <time>2026-09-13T07:38:45.019Z</time>
      </trkpt>
      <trkpt lat="46.045327" lon="9.781423">
        <ele>1987.909</ele>
        <time>2026-09-13T07:40:09.020Z</time>
      </trkpt>
      <trkpt lat="46.045929" lon="9.782782">
        <ele>2011.935</ele>
        <time>2026-09-13T07:42:55.021Z</time>
      </trkpt>
      <trkpt lat="46.046005" lon="9.782879">
        <ele>2014.281</ele>
        <time>2026-09-13T07:43:08.021Z</time>
      </trkpt>
      <trkpt lat="46.046247" lon="9.782869">
        <ele>2018.788</ele>
        <time>2026-09-13T07:44:07.021Z</time>
      </trkpt>
      <trkpt lat="46.046226" lon="9.783199">
        <ele>2022.959</ele>
        <time>2026-09-13T07:45:20.021Z</time>
      </trkpt>
      <trkpt lat="46.047065" lon="9.785602">
        <ele>2048.024</ele>
        <time>2026-09-13T07:50:23.020Z</time>
      </trkpt>
      <trkpt lat="46.047692" lon="9.786977">
        <ele>2060.595</ele>
        <time>2026-09-13T07:52:29.020Z</time>
      </trkpt>
      <trkpt lat="46.048161" lon="9.787480">
        <ele>2065.329</ele>
        <time>2026-09-13T07:54:03.020Z</time>
      </trkpt>
      <trkpt lat="46.049028" lon="9.789190">
        <ele>2073.610</ele>
        <time>2026-09-13T07:57:03.020Z</time>
      </trkpt>
      <trkpt lat="46.049300" lon="9.790183">
        <ele>2081.626</ele>
        <time>2026-09-13T07:58:22.020Z</time>
      </trkpt>
      <trkpt lat="46.049293" lon="9.790939">
        <ele>2087.564</ele>
        <time>2026-09-13T07:59:26.020Z</time>
      </trkpt>
      <trkpt lat="46.049806" lon="9.793308">
        <ele>2113.506</ele>
        <time>2026-09-13T08:03:18.020Z</time>
      </trkpt>
      <trkpt lat="46.050065" lon="9.793427">
        <ele>2118.416</ele>
        <time>2026-09-13T08:03:49.020Z</time>
      </trkpt>
      <trkpt lat="46.050267" lon="9.793125">
        <ele>2119.909</ele>
        <time>2026-09-13T08:04:20.020Z</time>
      </trkpt>
      <trkpt lat="46.050555" lon="9.793062">
        <ele>2124.138</ele>
        <time>2026-09-13T08:04:56.020Z</time>
      </trkpt>
      <trkpt lat="46.050682" lon="9.792869">
        <ele>2127.414</ele>
        <time>2026-09-13T08:05:22.020Z</time>
      </trkpt>
      <trkpt lat="46.050693" lon="9.793223">
        <ele>2132.281</ele>
        <time>2026-09-13T08:06:02.020Z</time>
      </trkpt>
      <trkpt lat="46.050509" lon="9.793779">
        <ele>2141.222</ele>
        <time>2026-09-13T08:07:12.020Z</time>
      </trkpt>
      <trkpt lat="46.050816" lon="9.794646">
        <ele>2162.367</ele>
        <time>2026-09-13T08:09:55.020Z</time>
      </trkpt>
      <trkpt lat="46.050830" lon="9.795218">
        <ele>2171.718</ele>
        <time>2026-09-13T08:13:07.020Z</time>
      </trkpt>
      <trkpt lat="46.050592" lon="9.795263">
        <ele>2174.462</ele>
        <time>2026-09-13T08:13:49.020Z</time>
      </trkpt>
      <trkpt lat="46.050290" lon="9.795844">
        <ele>2183.463</ele>
        <time>2026-09-13T08:15:57.020Z</time>
      </trkpt>
      <trkpt lat="46.050559" lon="9.796173">
        <ele>2203.979</ele>
        <time>2026-09-13T08:20:29.020Z</time>
      </trkpt>
      <trkpt lat="46.050436" lon="9.796467">
        <ele>2216.963</ele>
        <time>2026-09-13T08:22:17.020Z</time>
      </trkpt>
      <trkpt lat="46.050521" lon="9.796411">
        <ele>2220.044</ele>
        <time>2026-09-13T08:22:47.020Z</time>
      </trkpt>
      <trkpt lat="46.050638" lon="9.796512">
        <ele>2225.518</ele>
        <time>2026-09-13T08:24:07.020Z</time>
      </trkpt>
      <trkpt lat="46.050574" lon="9.797247">
        <ele>2240.809</ele>
        <time>2026-09-13T08:25:41.020Z</time>
      </trkpt>
      <trkpt lat="46.050647" lon="9.797673">
        <ele>2248.258</ele>
        <time>2026-09-13T08:27:08.020Z</time>
      </trkpt>
      <trkpt lat="46.050962" lon="9.798310">
        <ele>2260.914</ele>
        <time>2026-09-13T08:29:16.020Z</time>
      </trkpt>
      <trkpt lat="46.051098" lon="9.799050">
        <ele>2282.761</ele>
        <time>2026-09-13T08:32:20.020Z</time>
      </trkpt>
      <trkpt lat="46.051328" lon="9.799230">
        <ele>2288.892</ele>
        <time>2026-09-13T08:34:37.020Z</time>
      </trkpt>
      <trkpt lat="46.051307" lon="9.799376">
        <ele>2291.837</ele>
        <time>2026-09-13T08:34:57.020Z</time>
      </trkpt>
      <trkpt lat="46.051499" lon="9.799482">
        <ele>2300.128</ele>
        <time>2026-09-13T08:36:02.020Z</time>
      </trkpt>
      <trkpt lat="46.051716" lon="9.799939">
        <ele>2322.312</ele>
        <time>2026-09-13T08:39:06.020Z</time>
      </trkpt>
      <trkpt lat="46.052433" lon="9.799990">
        <ele>2353.093</ele>
        <time>2026-09-13T08:43:43.020Z</time>
      </trkpt>
      <trkpt lat="46.052336" lon="9.800264">
        <ele>2361.959</ele>
        <time>2026-09-13T08:45:30.020Z</time>
      </trkpt>
      <trkpt lat="46.052488" lon="9.800318">
        <ele>2367.916</ele>
        <time>2026-09-13T08:46:36.020Z</time>
      </trkpt>
      <trkpt lat="46.052468" lon="9.800923">
        <ele>2392.976</ele>
        <time>2026-09-13T08:49:46.020Z</time>
      </trkpt>
      <trkpt lat="46.052667" lon="9.801049">
        <ele>2401.213</ele>
        <time>2026-09-13T08:50:58.020Z</time>
      </trkpt>
      <trkpt lat="46.052857" lon="9.801476">
        <ele>2414.609</ele>
        <time>2026-09-13T08:53:14.020Z</time>
      </trkpt>
      <trkpt lat="46.053175" lon="9.801780">
        <ele>2432.393</ele>
        <time>2026-09-13T08:55:40.020Z</time>
      </trkpt>
      <trkpt lat="46.053335" lon="9.803597">
        <ele>2460.839</ele>
        <time>2026-09-13T09:03:44.017Z</time>
      </trkpt>
      <trkpt lat="46.053324" lon="9.805787">
        <ele>2483.856</ele>
        <time>2026-09-13T09:12:59.017Z</time>
      </trkpt>
      <trkpt lat="46.053435" lon="9.806534">
        <ele>2502.937</ele>
        <time>2026-09-13T09:15:20.017Z</time>
      </trkpt>
      <trkpt lat="46.053561" lon="9.806522">
        <ele>2511.462</ele>
        <time>2026-09-13T09:17:12.017Z</time>
      </trkpt>
      <trkpt lat="46.053536" lon="9.807116">
        <ele>2522.943</ele>
        <time>2026-09-13T09:18:46.017Z</time>
      </trkpt>
      <trkpt lat="46.053662" lon="9.807140">
        <ele>2536.127</ele>
        <time>2026-09-13T09:29:20.018Z</time>
      </trkpt>
      <trkpt lat="46.053533" lon="9.807036">
        <ele>2532.898</ele>
        <time>2026-09-13T09:42:38.020Z</time>
      </trkpt>
      <trkpt lat="46.053555" lon="9.806537">
        <ele>2520.574</ele>
        <time>2026-09-13T09:43:25.019Z</time>
      </trkpt>
      <trkpt lat="46.053537" lon="9.806466">
        <ele>2519.634</ele>
        <time>2026-09-13T09:43:34.019Z</time>
      </trkpt>
      <trkpt lat="46.053458" lon="9.806547">
        <ele>2517.355</ele>
        <time>2026-09-13T09:44:24.019Z</time>
      </trkpt>
      <trkpt lat="46.053412" lon="9.806364">
        <ele>2507.710</ele>
        <time>2026-09-13T09:44:50.019Z</time>
      </trkpt>
      <trkpt lat="46.053457" lon="9.805155">
        <ele>2491.309</ele>
        <time>2026-09-13T09:51:11.018Z</time>
      </trkpt>
      <trkpt lat="46.053428" lon="9.805018">
        <ele>2487.665</ele>
        <time>2026-09-13T09:51:52.017Z</time>
      </trkpt>
      <trkpt lat="46.053377" lon="9.805138">
        <ele>2483.361</ele>
        <time>2026-09-13T09:52:21.017Z</time>
      </trkpt>
      <trkpt lat="46.053306" lon="9.804634">
        <ele>2475.158</ele>
        <time>2026-09-13T09:53:13.017Z</time>
      </trkpt>
      <trkpt lat="46.053324" lon="9.803443">
        <ele>2458.919</ele>
        <time>2026-09-13T09:55:43.017Z</time>
      </trkpt>
      <trkpt lat="46.053158" lon="9.801778">
        <ele>2440.884</ele>
        <time>2026-09-13T10:00:27.015Z</time>
      </trkpt>
      <trkpt lat="46.052480" lon="9.800849">
        <ele>2401.135</ele>
        <time>2026-09-13T10:04:28.013Z</time>
      </trkpt>
      <trkpt lat="46.052495" lon="9.800226">
        <ele>2375.849</ele>
        <time>2026-09-13T10:07:23.012Z</time>
      </trkpt>
      <trkpt lat="46.052354" lon="9.800274">
        <ele>2370.320</ele>
        <time>2026-09-13T10:07:49.012Z</time>
      </trkpt>
      <trkpt lat="46.052446" lon="9.800025">
        <ele>2363.746</ele>
        <time>2026-09-13T10:08:34.012Z</time>
      </trkpt>
      <trkpt lat="46.051737" lon="9.799955">
        <ele>2334.638</ele>
        <time>2026-09-13T10:10:55.012Z</time>
      </trkpt>
      <trkpt lat="46.051725" lon="9.799802">
        <ele>2329.870</ele>
        <time>2026-09-13T10:11:19.012Z</time>
      </trkpt>
      <trkpt lat="46.051581" lon="9.799816">
        <ele>2323.317</ele>
        <time>2026-09-13T10:11:44.012Z</time>
      </trkpt>
      <trkpt lat="46.051508" lon="9.799478">
        <ele>2310.209</ele>
        <time>2026-09-13T10:12:52.012Z</time>
      </trkpt>
      <trkpt lat="46.051158" lon="9.799067">
        <ele>2288.435</ele>
        <time>2026-09-13T10:14:34.012Z</time>
      </trkpt>
      <trkpt lat="46.050964" lon="9.798627">
        <ele>2276.221</ele>
        <time>2026-09-13T10:15:31.012Z</time>
      </trkpt>
      <trkpt lat="46.050975" lon="9.798363">
        <ele>2269.048</ele>
        <time>2026-09-13T10:16:01.012Z</time>
      </trkpt>
      <trkpt lat="46.050646" lon="9.797661">
        <ele>2253.439</ele>
        <time>2026-09-13T10:17:12.012Z</time>
      </trkpt>
      <trkpt lat="46.050600" lon="9.796448">
        <ele>2231.424</ele>
        <time>2026-09-13T10:19:12.012Z</time>
      </trkpt>
      <trkpt lat="46.050474" lon="9.796424">
        <ele>2225.745</ele>
        <time>2026-09-13T10:19:53.012Z</time>
      </trkpt>
      <trkpt lat="46.050443" lon="9.796299">
        <ele>2220.719</ele>
        <time>2026-09-13T10:20:23.012Z</time>
      </trkpt>
      <trkpt lat="46.050563" lon="9.796174">
        <ele>2212.870</ele>
        <time>2026-09-13T10:20:52.012Z</time>
      </trkpt>
      <trkpt lat="46.050283" lon="9.795848">
        <ele>2192.766</ele>
        <time>2026-09-13T10:22:29.012Z</time>
      </trkpt>
      <trkpt lat="46.050555" lon="9.795296">
        <ele>2175.726</ele>
        <time>2026-09-13T10:23:36.012Z</time>
      </trkpt>
      <trkpt lat="46.050786" lon="9.795097">
        <ele>2170.447</ele>
        <time>2026-09-13T10:24:14.012Z</time>
      </trkpt>
      <trkpt lat="46.050876" lon="9.794546">
        <ele>2165.311</ele>
        <time>2026-09-13T10:25:01.012Z</time>
      </trkpt>
      <trkpt lat="46.051032" lon="9.794284">
        <ele>2167.209</ele>
        <time>2026-09-13T10:26:30.012Z</time>
      </trkpt>
      <trkpt lat="46.051699" lon="9.793453">
        <ele>2170.974</ele>
        <time>2026-09-13T10:29:37.012Z</time>
      </trkpt>
      <trkpt lat="46.051924" lon="9.793338">
        <ele>2175.340</ele>
        <time>2026-09-13T10:30:36.012Z</time>
      </trkpt>
      <trkpt lat="46.051971" lon="9.793095">
        <ele>2180.857</ele>
        <time>2026-09-13T10:31:23.012Z</time>
      </trkpt>
      <trkpt lat="46.052169" lon="9.792912">
        <ele>2188.138</ele>
        <time>2026-09-13T10:32:34.012Z</time>
      </trkpt>
      <trkpt lat="46.052800" lon="9.792616">
        <ele>2202.553</ele>
        <time>2026-09-13T10:37:06.011Z</time>
      </trkpt>
      <trkpt lat="46.053088" lon="9.793102">
        <ele>2219.474</ele>
        <time>2026-09-13T10:39:34.010Z</time>
      </trkpt>
      <trkpt lat="46.053272" lon="9.792942">
        <ele>2225.038</ele>
        <time>2026-09-13T10:40:21.009Z</time>
      </trkpt>
      <trkpt lat="46.053616" lon="9.793477">
        <ele>2235.749</ele>
        <time>2026-09-13T10:41:51.009Z</time>
      </trkpt>
      <trkpt lat="46.053830" lon="9.793561">
        <ele>2241.255</ele>
        <time>2026-09-13T10:42:44.009Z</time>
      </trkpt>
      <trkpt lat="46.053749" lon="9.793411">
        <ele>2245.165</ele>
        <time>2026-09-13T10:43:50.009Z</time>
      </trkpt>
      <trkpt lat="46.053834" lon="9.792751">
        <ele>2262.368</ele>
        <time>2026-09-13T10:47:37.008Z</time>
      </trkpt>
      <trkpt lat="46.053720" lon="9.790695">
        <ele>2289.114</ele>
        <time>2026-09-13T10:52:18.007Z</time>
      </trkpt>
      <trkpt lat="46.054823" lon="9.789856">
        <ele>2252.509</ele>
        <time>2026-09-13T10:59:16.006Z</time>
      </trkpt>
      <trkpt lat="46.054918" lon="9.789632">
        <ele>2243.618</ele>
        <time>2026-09-13T10:59:55.006Z</time>
      </trkpt>
      <trkpt lat="46.054831" lon="9.789114">
        <ele>2222.924</ele>
        <time>2026-09-13T11:02:05.006Z</time>
      </trkpt>
      <trkpt lat="46.054990" lon="9.787914">
        <ele>2204.421</ele>
        <time>2026-09-13T11:04:54.006Z</time>
      </trkpt>
      <trkpt lat="46.054739" lon="9.787422">
        <ele>2203.922</ele>
        <time>2026-09-13T11:05:46.006Z</time>
      </trkpt>
      <trkpt lat="46.054690" lon="9.787084">
        <ele>2201.717</ele>
        <time>2026-09-13T11:06:17.006Z</time>
      </trkpt>
      <trkpt lat="46.054352" lon="9.786981">
        <ele>2198.088</ele>
        <time>2026-09-13T11:07:24.006Z</time>
      </trkpt>
      <trkpt lat="46.053953" lon="9.786585">
        <ele>2188.082</ele>
        <time>2026-09-13T11:08:34.006Z</time>
      </trkpt>
      <trkpt lat="46.053989" lon="9.786253">
        <ele>2182.243</ele>
        <time>2026-09-13T11:09:09.006Z</time>
      </trkpt>
      <trkpt lat="46.053837" lon="9.785805">
        <ele>2173.789</ele>
        <time>2026-09-13T11:09:51.006Z</time>
      </trkpt>
      <trkpt lat="46.053729" lon="9.784687">
        <ele>2166.618</ele>
        <time>2026-09-13T11:11:21.006Z</time>
      </trkpt>
      <trkpt lat="46.053970" lon="9.783785">
        <ele>2174.998</ele>
        <time>2026-09-13T11:12:50.006Z</time>
      </trkpt>
      <trkpt lat="46.053948" lon="9.783027">
        <ele>2171.317</ele>
        <time>2026-09-13T11:14:32.006Z</time>
      </trkpt>
      <trkpt lat="46.053747" lon="9.782601">
        <ele>2165.309</ele>
        <time>2026-09-13T11:15:11.006Z</time>
      </trkpt>
      <trkpt lat="46.053633" lon="9.781949">
        <ele>2159.093</ele>
        <time>2026-09-13T11:16:29.005Z</time>
      </trkpt>
      <trkpt lat="46.053217" lon="9.781186">
        <ele>2143.749</ele>
        <time>2026-09-13T11:18:05.005Z</time>
      </trkpt>
      <trkpt lat="46.053213" lon="9.780696">
        <ele>2137.896</ele>
        <time>2026-09-13T11:19:02.005Z</time>
      </trkpt>
      <trkpt lat="46.053052" lon="9.780138">
        <ele>2132.357</ele>
        <time>2026-09-13T11:20:14.005Z</time>
      </trkpt>
      <trkpt lat="46.053167" lon="9.779806">
        <ele>2129.152</ele>
        <time>2026-09-13T11:20:37.005Z</time>
      </trkpt>
      <trkpt lat="46.053424" lon="9.779556">
        <ele>2128.733</ele>
        <time>2026-09-13T11:22:20.004Z</time>
      </trkpt>
      <trkpt lat="46.053576" lon="9.778288">
        <ele>2121.527</ele>
        <time>2026-09-13T11:23:59.002Z</time>
      </trkpt>
      <trkpt lat="46.053161" lon="9.777381">
        <ele>2100.458</ele>
        <time>2026-09-13T11:25:36.002Z</time>
      </trkpt>
      <trkpt lat="46.052768" lon="9.777448">
        <ele>2097.354</ele>
        <time>2026-09-13T11:26:18.002Z</time>
      </trkpt>
      <trkpt lat="46.052594" lon="9.777327">
        <ele>2094.582</ele>
        <time>2026-09-13T11:27:37.002Z</time>
      </trkpt>
      <trkpt lat="46.052454" lon="9.777769">
        <ele>2079.643</ele>
        <time>2026-09-13T11:29:12.002Z</time>
      </trkpt>
      <trkpt lat="46.052214" lon="9.777561">
        <ele>2066.317</ele>
        <time>2026-09-13T11:30:34.002Z</time>
      </trkpt>
      <trkpt lat="46.052123" lon="9.778072">
        <ele>2050.609</ele>
        <time>2026-09-13T11:31:28.002Z</time>
      </trkpt>
      <trkpt lat="46.051703" lon="9.777425">
        <ele>2040.390</ele>
        <time>2026-09-13T11:32:45.002Z</time>
      </trkpt>
      <trkpt lat="46.051387" lon="9.778292">
        <ele>2044.626</ele>
        <time>2026-09-13T11:34:49.002Z</time>
      </trkpt>
      <trkpt lat="46.051642" lon="9.779146">
        <ele>2037.763</ele>
        <time>2026-09-13T11:35:55.002Z</time>
      </trkpt>
      <trkpt lat="46.051576" lon="9.779337">
        <ele>2037.624</ele>
        <time>2026-09-13T11:36:07.002Z</time>
      </trkpt>
      <trkpt lat="46.050472" lon="9.780242">
        <ele>2038.159</ele>
        <time>2026-09-13T11:40:58Z</time>
      </trkpt>
      <trkpt lat="46.050374" lon="9.780990">
        <ele>2035.810</ele>
        <time>2026-09-13T11:42:34Z</time>
      </trkpt>
      <trkpt lat="46.050150" lon="9.781364">
        <ele>2037.584</ele>
        <time>2026-09-13T11:43:09Z</time>
      </trkpt>
      <trkpt lat="46.049724" lon="9.781558">
        <ele>2041.335</ele>
        <time>2026-09-13T11:44:06Z</time>
      </trkpt>
      <trkpt lat="46.048910" lon="9.782342">
        <ele>2045.081</ele>
        <time>2026-09-13T11:46:06Z</time>
      </trkpt>
      <trkpt lat="46.048239" lon="9.782147">
        <ele>2028.075</ele>
        <time>2026-09-13T11:47:24Z</time>
      </trkpt>
      <trkpt lat="46.047672" lon="9.782318">
        <ele>2027.428</ele>
        <time>2026-09-13T11:48:45Z</time>
      </trkpt>
      <trkpt lat="46.046791" lon="9.782318">
        <ele>2024.120</ele>
        <time>2026-09-13T11:50:15Z</time>
      </trkpt>
      <trkpt lat="46.046377" lon="9.782820">
        <ele>2021.609</ele>
        <time>2026-09-13T11:51:12Z</time>
      </trkpt>
      <trkpt lat="46.046047" lon="9.782913">
        <ele>2019.099</ele>
        <time>2026-09-13T11:51:59Z</time>
      </trkpt>
      <trkpt lat="46.045248" lon="9.781320">
        <ele>1992.955</ele>
        <time>2026-09-13T11:54:08.999Z</time>
      </trkpt>
      <trkpt lat="46.044843" lon="9.780862">
        <ele>1982.792</ele>
        <time>2026-09-13T11:54:42.999Z</time>
      </trkpt>
      <trkpt lat="46.044322" lon="9.780502">
        <ele>1972.783</ele>
        <time>2026-09-13T11:55:18.999Z</time>
      </trkpt>
      <trkpt lat="46.044069" lon="9.780530">
        <ele>1968.468</ele>
        <time>2026-09-13T11:55:36.999Z</time>
      </trkpt>
      <trkpt lat="46.043791" lon="9.780256">
        <ele>1960.359</ele>
        <time>2026-09-13T11:55:59.999Z</time>
      </trkpt>
      <trkpt lat="46.043790" lon="9.779975">
        <ele>1956.113</ele>
        <time>2026-09-13T11:56:14.999Z</time>
      </trkpt>
      <trkpt lat="46.044259" lon="9.779980">
        <ele>1949.214</ele>
        <time>2026-09-13T11:56:50.999Z</time>
      </trkpt>
      <trkpt lat="46.044215" lon="9.779707">
        <ele>1947.080</ele>
        <time>2026-09-13T11:57:04.999Z</time>
      </trkpt>
      <trkpt lat="46.043717" lon="9.779501">
        <ele>1938.898</ele>
        <time>2026-09-13T11:57:39.999Z</time>
      </trkpt>
      <trkpt lat="46.043326" lon="9.779731">
        <ele>1929.815</ele>
        <time>2026-09-13T11:58:08.999Z</time>
      </trkpt>
      <trkpt lat="46.042928" lon="9.779662">
        <ele>1919.526</ele>
        <time>2026-09-13T11:58:39.999Z</time>
      </trkpt>
      <trkpt lat="46.042583" lon="9.779506">
        <ele>1907.409</ele>
        <time>2026-09-13T11:59:07.999Z</time>
      </trkpt>
      <trkpt lat="46.042329" lon="9.779138">
        <ele>1896.591</ele>
        <time>2026-09-13T11:59:36.999Z</time>
      </trkpt>
      <trkpt lat="46.042665" lon="9.778621">
        <ele>1893.817</ele>
        <time>2026-09-13T12:00:21.999Z</time>
      </trkpt>
      <trkpt lat="46.042360" lon="9.779132">
        <ele>1893.434</ele>
        <time>2026-09-13T12:01:14.999Z</time>
      </trkpt>
      <trkpt lat="46.041868" lon="9.778665">
        <ele>1884.675</ele>
        <time>2026-09-13T12:01:56.999Z</time>
      </trkpt>
      <trkpt lat="46.041836" lon="9.778099">
        <ele>1880.220</ele>
        <time>2026-09-13T12:02:23.999Z</time>
      </trkpt>
      <trkpt lat="46.042326" lon="9.776835">
        <ele>1866.871</ele>
        <time>2026-09-13T12:03:41.999Z</time>
      </trkpt>
      <trkpt lat="46.042405" lon="9.776354">
        <ele>1859.365</ele>
        <time>2026-09-13T12:04:06.999Z</time>
      </trkpt>
      <trkpt lat="46.043228" lon="9.775401">
        <ele>1832.796</ele>
        <time>2026-09-13T12:05:27.999Z</time>
      </trkpt>
      <trkpt lat="46.043332" lon="9.775427">
        <ele>1830.372</ele>
        <time>2026-09-13T12:05:35.999Z</time>
      </trkpt>
      <trkpt lat="46.043667" lon="9.775060">
        <ele>1821.335</ele>
        <time>2026-09-13T12:06:05.999Z</time>
      </trkpt>
      <trkpt lat="46.043885" lon="9.774183">
        <ele>1806.486</ele>
        <time>2026-09-13T12:06:55.999Z</time>
      </trkpt>
      <trkpt lat="46.044137" lon="9.775185">
        <ele>1788.314</ele>
        <time>2026-09-13T12:07:57.999Z</time>
      </trkpt>
      <trkpt lat="46.044315" lon="9.775331">
        <ele>1785.809</ele>
        <time>2026-09-13T12:08:11.999Z</time>
      </trkpt>
      <trkpt lat="46.044471" lon="9.775265">
        <ele>1785.455</ele>
        <time>2026-09-13T12:08:22.999Z</time>
      </trkpt>
      <trkpt lat="46.044950" lon="9.773906">
        <ele>1769.811</ele>
        <time>2026-09-13T12:09:31.999Z</time>
      </trkpt>
      <trkpt lat="46.045164" lon="9.772700">
        <ele>1766.768</ele>
        <time>2026-09-13T12:10:30Z</time>
      </trkpt>
      <trkpt lat="46.044099" lon="9.769089">
        <ele>1714.379</ele>
        <time>2026-09-13T12:13:36Z</time>
      </trkpt>
      <trkpt lat="46.043789" lon="9.768941">
        <ele>1708.374</ele>
        <time>2026-09-13T12:13:58Z</time>
      </trkpt>
      <trkpt lat="46.043129" lon="9.768241">
        <ele>1696.235</ele>
        <time>2026-09-13T12:15:03Z</time>
      </trkpt>
      <trkpt lat="46.042782" lon="9.767720">
        <ele>1691.829</ele>
        <time>2026-09-13T12:15:35Z</time>
      </trkpt>
      <trkpt lat="46.042401" lon="9.766778">
        <ele>1685.850</ele>
        <time>2026-09-13T12:16:23.999Z</time>
      </trkpt>
      <trkpt lat="46.042393" lon="9.765695">
        <ele>1676.196</ele>
        <time>2026-09-13T12:17:11.999Z</time>
      </trkpt>
      <trkpt lat="46.042503" lon="9.765360">
        <ele>1674.733</ele>
        <time>2026-09-13T12:17:27.999Z</time>
      </trkpt>
      <trkpt lat="46.042696" lon="9.765233">
        <ele>1674.623</ele>
        <time>2026-09-13T12:17:41.999Z</time>
      </trkpt>
      <trkpt lat="46.042710" lon="9.765016">
        <ele>1674.515</ele>
        <time>2026-09-13T12:17:51.999Z</time>
      </trkpt>
      <trkpt lat="46.041804" lon="9.762886">
        <ele>1653.809</ele>
        <time>2026-09-13T12:19:32.999Z</time>
      </trkpt>
      <trkpt lat="46.041528" lon="9.761296">
        <ele>1633.685</ele>
        <time>2026-09-13T12:20:48.999Z</time>
      </trkpt>
      <trkpt lat="46.041763" lon="9.760709">
        <ele>1624.751</ele>
        <time>2026-09-13T12:21:31.999Z</time>
      </trkpt>
      <trkpt lat="46.041705" lon="9.760107">
        <ele>1615.458</ele>
        <time>2026-09-13T12:21:59.999Z</time>
      </trkpt>
    </trkseg>
  </trk></gpx>