<?xml version="1.0" encoding="UTF-8"?>
<gpx creator="Wikiloc - https://www.wikiloc.com" version="1.1" xmlns="http://www.topografix.com/GPX/1/1" xmlns:xsi="http://www.w3.org/2001/XMLSchema-instance" xsi:schemaLocation="http://www.topografix.com/GPX/1/1 http://www.topografix.com/GPX/1/1/gpx.xsd">
  <metadata>
    <name>Wikiloc - Madonna di Campiglio (Loc. Patascoss)-Rifugio ai Cinque Lagh...</name>
    <link href="https://www.wikiloc.com/hiking-trails/madonna-di-campiglio-loc-patascoss-rifugio-ai-cinque-laghi-lago-ritort-malga-ritort-madonna-di-camp-30179634">
      <text>Madonna di Campiglio (Loc. Patascoss)-Rifugio ai Cinque Lagh... on Wikiloc</text>
    </link>
    <time>2026-10-06T16:01:21.851Z</time>
  </metadata>
  <trk>
    <name>Madonna di Campiglio (Loc. Patascoss)-Rifugio ai Cinque Lagh... - Wikiloc</name>
    <cmt></cmt>
    <desc></desc>
    <trkseg>
      <trkpt lat="46.230583" lon="10.815875">
        <ele>1730.617</ele>
        <time>1998-10-03T10:16:42Z</time>
      </trkpt>
      <trkpt lat="46.230620" lon="10.815858">
        <ele>1724.487</ele>
        <time>1998-10-03T10:16:48Z</time>
      </trkpt>
      <trkpt lat="46.230678" lon="10.815712">
        <ele>1727.215</ele>
        <time>1998-10-03T10:17:05Z</time>
      </trkpt>
      <trkpt lat="46.230655" lon="10.815580">
        <ele>1729.408</ele>
        <time>1998-10-03T10:17:20Z</time>
      </trkpt>
      <trkpt lat="46.230801" lon="10.815332">
        <ele>1735.614</ele>
        <time>1998-10-03T10:17:58Z</time>
      </trkpt>
      <trkpt lat="46.230842" lon="10.815318">
        <ele>1736.681</ele>
        <time>1998-10-03T10:18:05Z</time>
      </trkpt>
      <trkpt lat="46.230909" lon="10.815167">
        <ele>1741.062</ele>
        <time>1998-10-03T10:18:36Z</time>
      </trkpt>
      <trkpt lat="46.230997" lon="10.815147">
        <ele>1743.048</ele>
        <time>1998-10-03T10:18:53Z</time>
      </trkpt>
      <trkpt lat="46.231070" lon="10.815070">
        <ele>1745.830</ele>
        <time>1998-10-03T10:19:13Z</time>
      </trkpt>
      <trkpt lat="46.231122" lon="10.814834">
        <ele>1750.467</ele>
        <time>1998-10-03T10:19:49Z</time>
      </trkpt>
      <trkpt lat="46.231104" lon="10.814739">
        <ele>1751.234</ele>
        <time>1998-10-03T10:20:00Z</time>
      </trkpt>
      <trkpt lat="46.231202" lon="10.814013">
        <ele>1755.285</ele>
        <time>1998-10-03T10:21:04Z</time>
      </trkpt>
      <trkpt lat="46.231278" lon="10.813836">
        <ele>1758.234</ele>
        <time>1998-10-03T10:21:27Z</time>
      </trkpt>
      <trkpt lat="46.231545" lon="10.813556">
        <ele>1764.855</ele>
        <time>1998-10-03T10:22:22Z</time>
      </trkpt>
      <trkpt lat="46.231995" lon="10.812976">
        <ele>1774.210</ele>
        <time>1998-10-03T10:23:50Z</time>
      </trkpt>
      <trkpt lat="46.232069" lon="10.812757">
        <ele>1777.608</ele>
        <time>1998-10-03T10:24:19Z</time>
      </trkpt>
      <trkpt lat="46.232170" lon="10.812671">
        <ele>1779.096</ele>
        <time>1998-10-03T10:24:39Z</time>
      </trkpt>
      <trkpt lat="46.232225" lon="10.812533">
        <ele>1782.093</ele>
        <time>1998-10-03T10:25:02Z</time>
      </trkpt>
      <trkpt lat="46.231980" lon="10.812464">
        <ele>1787.834</ele>
        <time>1998-10-03T10:25:46Z</time>
      </trkpt>
      <trkpt lat="46.231989" lon="10.812402">
        <ele>1787.820</ele>
        <time>1998-10-03T10:26:12Z</time>
      </trkpt>
      <trkpt lat="46.231937" lon="10.812331">
        <ele>1788.882</ele>
        <time>1998-10-03T10:26:36Z</time>
      </trkpt>
      <trkpt lat="46.231725" lon="10.812223">
        <ele>1792.639</ele>
        <time>1998-10-03T10:27:07Z</time>
      </trkpt>
      <trkpt lat="46.231686" lon="10.812239">
        <ele>1793.446</ele>
        <time>1998-10-03T10:27:14Z</time>
      </trkpt>
      <trkpt lat="46.231524" lon="10.812166">
        <ele>1794.897</ele>
        <time>1998-10-03T10:27:35Z</time>
      </trkpt>
      <trkpt lat="46.231396" lon="10.812182">
        <ele>1795.613</ele>
        <time>1998-10-03T10:27:54Z</time>
      </trkpt>
      <trkpt lat="46.231170" lon="10.812104">
        <ele>1799.043</ele>
        <time>1998-10-03T10:28:26Z</time>
      </trkpt>
      <trkpt lat="46.231086" lon="10.811967">
        <ele>1802.407</ele>
        <time>1998-10-03T10:28:46Z</time>
      </trkpt>
      <trkpt lat="46.231010" lon="10.811737">
        <ele>1807.208</ele>
        <time>1998-10-03T10:29:20Z</time>
      </trkpt>
      <trkpt lat="46.231274" lon="10.811217">
        <ele>1817.434</ele>
        <time>1998-10-03T10:30:32Z</time>
      </trkpt>
      <trkpt lat="46.231277" lon="10.811131">
        <ele>1819.651</ele>
        <time>1998-10-03T10:30:45Z</time>
      </trkpt>
      <trkpt lat="46.231311" lon="10.811141">
        <ele>1820.632</ele>
        <time>1998-10-03T10:31:19Z</time>
      </trkpt>
      <trkpt lat="46.231320" lon="10.811111">
        <ele>1820.488</ele>
        <time>1998-10-03T10:31:46Z</time>
      </trkpt>
      <trkpt lat="46.231327" lon="10.811183">
        <ele>1820.670</ele>
        <time>1998-10-03T10:32:32Z</time>
      </trkpt>
      <trkpt lat="46.231451" lon="10.811033">
        <ele>1824.817</ele>
        <time>1998-10-03T10:32:58Z</time>
      </trkpt>
      <trkpt lat="46.231411" lon="10.811020">
        <ele>1827.074</ele>
        <time>1998-10-03T10:33:12Z</time>
      </trkpt>
      <trkpt lat="46.231379" lon="10.810898">
        <ele>1830.075</ele>
        <time>1998-10-03T10:33:32Z</time>
      </trkpt>
      <trkpt lat="46.231254" lon="10.810799">
        <ele>1833.848</ele>
        <time>1998-10-03T10:34:17Z</time>
      </trkpt>
      <trkpt lat="46.231270" lon="10.810617">
        <ele>1836.861</ele>
        <time>1998-10-03T10:34:41Z</time>
      </trkpt>
      <trkpt lat="46.231176" lon="10.810586">
        <ele>1840.017</ele>
        <time>1998-10-03T10:35:03Z</time>
      </trkpt>
      <trkpt lat="46.231165" lon="10.810548">
        <ele>1840.808</ele>
        <time>1998-10-03T10:35:08Z</time>
      </trkpt>
      <trkpt lat="46.231101" lon="10.810554">
        <ele>1842.027</ele>
        <time>1998-10-03T10:35:21Z</time>
      </trkpt>
      <trkpt lat="46.231083" lon="10.810498">
        <ele>1844.614</ele>
        <time>1998-10-03T10:35:36Z</time>
      </trkpt>
      <trkpt lat="46.231039" lon="10.810502">
        <ele>1846.055</ele>
        <time>1998-10-03T10:35:49Z</time>
      </trkpt>
      <trkpt lat="46.231015" lon="10.810444">
        <ele>1847.071</ele>
        <time>1998-10-03T10:35:57Z</time>
      </trkpt>
      <trkpt lat="46.230625" lon="10.810111">
        <ele>1859.653</ele>
        <time>1998-10-03T10:37:25Z</time>
      </trkpt>
      <trkpt lat="46.230836" lon="10.809889">
        <ele>1866.870</ele>
        <time>1998-10-03T10:38:28Z</time>
      </trkpt>
      <trkpt lat="46.230805" lon="10.809765">
        <ele>1869.297</ele>
        <time>1998-10-03T10:38:50Z</time>
      </trkpt>
      <trkpt lat="46.230570" lon="10.809665">
        <ele>1874.028</ele>
        <time>1998-10-03T10:39:51Z</time>
      </trkpt>
      <trkpt lat="46.230491" lon="10.809567">
        <ele>1873.876</ele>
        <time>1998-10-03T10:40:02Z</time>
      </trkpt>
      <trkpt lat="46.230437" lon="10.809563">
        <ele>1873.890</ele>
        <time>1998-10-03T10:40:08Z</time>
      </trkpt>
      <trkpt lat="46.230276" lon="10.809446">
        <ele>1875.419</ele>
        <time>1998-10-03T10:40:26Z</time>
      </trkpt>
      <trkpt lat="46.230087" lon="10.809348">
        <ele>1877.408</ele>
        <time>1998-10-03T10:40:47Z</time>
      </trkpt>
      <trkpt lat="46.229997" lon="10.809350">
        <ele>1878.080</ele>
        <time>1998-10-03T10:41:05Z</time>
      </trkpt>
      <trkpt lat="46.229761" lon="10.809202">
        <ele>1878.627</ele>
        <time>1998-10-03T10:41:42Z</time>
      </trkpt>
      <trkpt lat="46.229646" lon="10.808877">
        <ele>1880.438</ele>
        <time>1998-10-03T10:42:12Z</time>
      </trkpt>
      <trkpt lat="46.229583" lon="10.808842">
        <ele>1881.014</ele>
        <time>1998-10-03T10:42:31Z</time>
      </trkpt>
      <trkpt lat="46.229477" lon="10.808642">
        <ele>1882.686</ele>
        <time>1998-10-03T10:42:49Z</time>
      </trkpt>
      <trkpt lat="46.229378" lon="10.808607">
        <ele>1883.223</ele>
        <time>1998-10-03T10:43:00Z</time>
      </trkpt>
      <trkpt lat="46.229088" lon="10.808227">
        <ele>1889.490</ele>
        <time>1998-10-03T10:44:08Z</time>
      </trkpt>
      <trkpt lat="46.229061" lon="10.808121">
        <ele>1890.251</ele>
        <time>1998-10-03T10:44:20Z</time>
      </trkpt>
      <trkpt lat="46.229072" lon="10.807868">
        <ele>1891.811</ele>
        <time>1998-10-03T10:44:49Z</time>
      </trkpt>
      <trkpt lat="46.228930" lon="10.807613">
        <ele>1893.821</ele>
        <time>1998-10-03T10:45:21Z</time>
      </trkpt>
      <trkpt lat="46.228740" lon="10.807490">
        <ele>1896.203</ele>
        <time>1998-10-03T10:45:54Z</time>
      </trkpt>
      <trkpt lat="46.228714" lon="10.807383">
        <ele>1898.208</ele>
        <time>1998-10-03T10:46:09Z</time>
      </trkpt>
      <trkpt lat="46.228744" lon="10.807255">
        <ele>1901.664</ele>
        <time>1998-10-03T10:46:34Z</time>
      </trkpt>
      <trkpt lat="46.228442" lon="10.807156">
        <ele>1907.291</ele>
        <time>1998-10-03T10:47:58Z</time>
      </trkpt>
      <trkpt lat="46.228364" lon="10.807043">
        <ele>1908.642</ele>
        <time>1998-10-03T10:48:25Z</time>
      </trkpt>
      <trkpt lat="46.228286" lon="10.806982">
        <ele>1910.678</ele>
        <time>1998-10-03T10:48:40Z</time>
      </trkpt>
      <trkpt lat="46.228259" lon="10.806996">
        <ele>1910.610</ele>
        <time>1998-10-03T10:48:55Z</time>
      </trkpt>
      <trkpt lat="46.228060" lon="10.806779">
        <ele>1916.257</ele>
        <time>1998-10-03T10:49:39Z</time>
      </trkpt>
      <trkpt lat="46.227842" lon="10.806635">
        <ele>1920.244</ele>
        <time>1998-10-03T10:50:47Z</time>
      </trkpt>
      <trkpt lat="46.227758" lon="10.806506">
        <ele>1922.855</ele>
        <time>1998-10-03T10:51:07Z</time>
      </trkpt>
      <trkpt lat="46.227650" lon="10.806420">
        <ele>1925.619</ele>
        <time>1998-10-03T10:51:49Z</time>
      </trkpt>
      <trkpt lat="46.227575" lon="10.806102">
        <ele>1932.209</ele>
        <time>1998-10-03T10:52:36Z</time>
      </trkpt>
      <trkpt lat="46.227519" lon="10.806026">
        <ele>1934.419</ele>
        <time>1998-10-03T10:52:53Z</time>
      </trkpt>
      <trkpt lat="46.227531" lon="10.805943">
        <ele>1936.408</ele>
        <time>1998-10-03T10:53:05Z</time>
      </trkpt>
      <trkpt lat="46.227367" lon="10.805578">
        <ele>1942.034</ele>
        <time>1998-10-03T10:54:27Z</time>
      </trkpt>
      <trkpt lat="46.227623" lon="10.805438">
        <ele>1950.291</ele>
        <time>1998-10-03T10:55:44Z</time>
      </trkpt>
      <trkpt lat="46.227750" lon="10.805421">
        <ele>1954.862</ele>
        <time>1998-10-03T10:56:18Z</time>
      </trkpt>
      <trkpt lat="46.227833" lon="10.805448">
        <ele>1956.458</ele>
        <time>1998-10-03T10:56:49Z</time>
      </trkpt>
      <trkpt lat="46.227956" lon="10.805277">
        <ele>1959.240</ele>
        <time>1998-10-03T10:57:19Z</time>
      </trkpt>
      <trkpt lat="46.228034" lon="10.805286">
        <ele>1959.487</ele>
        <time>1998-10-03T10:57:34Z</time>
      </trkpt>
      <trkpt lat="46.228058" lon="10.805169">
        <ele>1959.664</ele>
        <time>1998-10-03T10:58:03Z</time>
      </trkpt>
      <trkpt lat="46.227964" lon="10.805094">
        <ele>1960.045</ele>
        <time>1998-10-03T10:58:27Z</time>
      </trkpt>
      <trkpt lat="46.228068" lon="10.804906">
        <ele>1961.655</ele>
        <time>1998-10-03T10:58:45Z</time>
      </trkpt>
      <trkpt lat="46.228075" lon="10.804654">
        <ele>1962.407</ele>
        <time>1998-10-03T10:59:13Z</time>
      </trkpt>
      <trkpt lat="46.227990" lon="10.804451">
        <ele>1962.817</ele>
        <time>1998-10-03T10:59:36Z</time>
      </trkpt>
      <trkpt lat="46.227803" lon="10.803521">
        <ele>1969.608</ele>
        <time>1998-10-03T11:00:48Z</time>
      </trkpt>
      <trkpt lat="46.227684" lon="10.803139">
        <ele>1976.458</ele>
        <time>1998-10-03T11:01:38Z</time>
      </trkpt>
      <trkpt lat="46.227581" lon="10.802999">
        <ele>1981.065</ele>
        <time>1998-10-03T11:02:13Z</time>
      </trkpt>
      <trkpt lat="46.227397" lon="10.802868">
        <ele>1988.046</ele>
        <time>1998-10-03T11:03:13Z</time>
      </trkpt>
      <trkpt lat="46.227196" lon="10.802797">
        <ele>1992.632</ele>
        <time>1998-10-03T11:03:57Z</time>
      </trkpt>
      <trkpt lat="46.227117" lon="10.802663">
        <ele>1994.684</ele>
        <time>1998-10-03T11:04:15Z</time>
      </trkpt>
      <trkpt lat="46.227113" lon="10.802424">
        <ele>1998.431</ele>
        <time>1998-10-03T11:04:46Z</time>
      </trkpt>
      <trkpt lat="46.227241" lon="10.802275">
        <ele>2003.478</ele>
        <time>1998-10-03T11:05:21Z</time>
      </trkpt>
      <trkpt lat="46.227278" lon="10.802142">
        <ele>2006.429</ele>
        <time>1998-10-03T11:05:44Z</time>
      </trkpt>
      <trkpt lat="46.227337" lon="10.802080">
        <ele>2008.047</ele>
        <time>1998-10-03T11:05:57Z</time>
      </trkpt>
      <trkpt lat="46.227332" lon="10.801894">
        <ele>2009.429</ele>
        <time>1998-10-03T11:06:32Z</time>
      </trkpt>
      <trkpt lat="46.227234" lon="10.801942">
        <ele>2009.221</ele>
        <time>1998-10-03T11:07:21Z</time>
      </trkpt>
      <trkpt lat="46.227082" lon="10.801926">
        <ele>2010.208</ele>
        <time>1998-10-03T11:07:38Z</time>
      </trkpt>
      <trkpt lat="46.226840" lon="10.801960">
        <ele>2015.417</ele>
        <time>1998-10-03T11:08:16Z</time>
      </trkpt>
      <trkpt lat="46.226459" lon="10.802099">
        <ele>2026.864</ele>
        <time>1998-10-03T11:09:45Z</time>
      </trkpt>
      <trkpt lat="46.226311" lon="10.802062">
        <ele>2029.615</ele>
        <time>1998-10-03T11:10:10Z</time>
      </trkpt>
      <trkpt lat="46.226227" lon="10.802092">
        <ele>2031.451</ele>
        <time>1998-10-03T11:10:25Z</time>
      </trkpt>
      <trkpt lat="46.225912" lon="10.802077">
        <ele>2038.283</ele>
        <time>1998-10-03T11:11:24Z</time>
      </trkpt>
      <trkpt lat="46.225796" lon="10.801868">
        <ele>2041.220</ele>
        <time>1998-10-03T11:12:02Z</time>
      </trkpt>
      <trkpt lat="46.225784" lon="10.801758">
        <ele>2043.497</ele>
        <time>1998-10-03T11:13:03Z</time>
      </trkpt>
      <trkpt lat="46.225836" lon="10.801642">
        <ele>2046.048</ele>
        <time>1998-10-03T11:13:25Z</time>
      </trkpt>
      <trkpt lat="46.225911" lon="10.801540">
        <ele>2049.015</ele>
        <time>1998-10-03T11:13:47Z</time>
      </trkpt>
      <trkpt lat="46.226019" lon="10.801526">
        <ele>2051.465</ele>
        <time>1998-10-03T11:14:08Z</time>
      </trkpt>
      <trkpt lat="46.226094" lon="10.801305">
        <ele>2057.211</ele>
        <time>1998-10-03T11:15:10Z</time>
      </trkpt>
      <trkpt lat="46.226065" lon="10.801133">
        <ele>2059.408</ele>
        <time>1998-10-03T11:15:36Z</time>
      </trkpt>
      <trkpt lat="46.225951" lon="10.801220">
        <ele>2058.274</ele>
        <time>1998-10-03T11:17:10Z</time>
      </trkpt>
      <trkpt lat="46.226046" lon="10.801205">
        <ele>2058.631</ele>
        <time>1998-10-03T11:17:25Z</time>
      </trkpt>
      <trkpt lat="46.225999" lon="10.801040">
        <ele>2058.812</ele>
        <time>1998-10-03T11:17:41Z</time>
      </trkpt>
      <trkpt lat="46.226039" lon="10.800888">
        <ele>2058.688</ele>
        <time>1998-10-03T11:18:03Z</time>
      </trkpt>
      <trkpt lat="46.225937" lon="10.800837">
        <ele>2058.810</ele>
        <time>1998-10-03T11:18:19Z</time>
      </trkpt>
      <trkpt lat="46.225890" lon="10.800949">
        <ele>2056.817</ele>
        <time>1998-10-03T11:18:33Z</time>
      </trkpt>
      <trkpt lat="46.225833" lon="10.800930">
        <ele>2055.814</ele>
        <time>1998-10-03T11:18:39Z</time>
      </trkpt>
      <trkpt lat="46.225787" lon="10.800831">
        <ele>2053.835</ele>
        <time>1998-10-03T11:18:48Z</time>
      </trkpt>
      <trkpt lat="46.225772" lon="10.800453">
        <ele>2052.212</ele>
        <time>1998-10-03T11:19:17Z</time>
      </trkpt>
      <trkpt lat="46.225797" lon="10.800141">
        <ele>2052.032</ele>
        <time>1998-10-03T11:19:39Z</time>
      </trkpt>
      <trkpt lat="46.225857" lon="10.800065">
        <ele>2052.205</ele>
        <time>1998-10-03T11:19:47Z</time>
      </trkpt>
      <trkpt lat="46.225868" lon="10.799918">
        <ele>2052.208</ele>
        <time>1998-10-03T11:19:58Z</time>
      </trkpt>
      <trkpt lat="46.225933" lon="10.799776">
        <ele>2052.014</ele>
        <time>1998-10-03T11:20:13Z</time>
      </trkpt>
      <trkpt lat="46.225945" lon="10.799534">
        <ele>2053.081</ele>
        <time>1998-10-03T11:20:41Z</time>
      </trkpt>
      <trkpt lat="46.225996" lon="10.799413">
        <ele>2052.292</ele>
        <time>1998-10-03T11:20:55Z</time>
      </trkpt>
      <trkpt lat="46.225976" lon="10.799238">
        <ele>2052.448</ele>
        <time>1998-10-03T11:21:15Z</time>
      </trkpt>
      <trkpt lat="46.226045" lon="10.799030">
        <ele>2052.630</ele>
        <time>1998-10-03T11:21:41Z</time>
      </trkpt>
      <trkpt lat="46.226059" lon="10.798856">
        <ele>2052.857</ele>
        <time>1998-10-03T11:21:56Z</time>
      </trkpt>
      <trkpt lat="46.226101" lon="10.798786">
        <ele>2052.644</ele>
        <time>1998-10-03T11:22:04Z</time>
      </trkpt>
      <trkpt lat="46.226205" lon="10.798777">
        <ele>2052.035</ele>
        <time>1998-10-03T11:22:37Z</time>
      </trkpt>
      <trkpt lat="46.226251" lon="10.798635">
        <ele>2052.288</ele>
        <time>1998-10-03T11:22:50Z</time>
      </trkpt>
      <trkpt lat="46.226414" lon="10.798504">
        <ele>2052.824</ele>
        <time>1998-10-03T11:23:10Z</time>
      </trkpt>
      <trkpt lat="46.226541" lon="10.798297">
        <ele>2053.626</ele>
        <time>1998-10-03T11:23:34Z</time>
      </trkpt>
      <trkpt lat="46.226586" lon="10.797978">
        <ele>2054.008</ele>
        <time>1998-10-03T11:24:03Z</time>
      </trkpt>
      <trkpt lat="46.226788" lon="10.797834">
        <ele>2052.271</ele>
        <time>1998-10-03T11:24:28Z</time>
      </trkpt>
      <trkpt lat="46.227094" lon="10.797006">
        <ele>2052.298</ele>
        <time>1998-10-03T11:26:12Z</time>
      </trkpt>
      <trkpt lat="46.227301" lon="10.796106">
        <ele>2051.859</ele>
        <time>1998-10-03T11:27:31Z</time>
      </trkpt>
      <trkpt lat="46.227296" lon="10.795813">
        <ele>2050.215</ele>
        <time>1998-10-03T11:28:09Z</time>
      </trkpt>
      <trkpt lat="46.227433" lon="10.795563">
        <ele>2050.487</ele>
        <time>1998-10-03T11:28:30Z</time>
      </trkpt>
      <trkpt lat="46.227500" lon="10.795339">
        <ele>2051.484</ele>
        <time>1998-10-03T11:28:47Z</time>
      </trkpt>
      <trkpt lat="46.227715" lon="10.793950">
        <ele>2051.871</ele>
        <time>1998-10-03T11:30:41Z</time>
      </trkpt>
      <trkpt lat="46.227833" lon="10.793570">
        <ele>2052.292</ele>
        <time>1998-10-03T11:31:10Z</time>
      </trkpt>
      <trkpt lat="46.227838" lon="10.792713">
        <ele>2052.611</ele>
        <time>1998-10-03T11:32:16Z</time>
      </trkpt>
      <trkpt lat="46.227881" lon="10.792357">
        <ele>2052.821</ele>
        <time>1998-10-03T11:32:44Z</time>
      </trkpt>
      <trkpt lat="46.227861" lon="10.792173">
        <ele>2052.603</ele>
        <time>1998-10-03T11:32:58Z</time>
      </trkpt>
      <trkpt lat="46.227768" lon="10.791614">
        <ele>2053.808</ele>
        <time>1998-10-03T11:33:43Z</time>
      </trkpt>
      <trkpt lat="46.227717" lon="10.791486">
        <ele>2053.424</ele>
        <time>1998-10-03T11:33:55Z</time>
      </trkpt>
      <trkpt lat="46.227685" lon="10.791444">
        <ele>2053.421</ele>
        <time>1998-10-03T11:34:00Z</time>
      </trkpt>
      <trkpt lat="46.227536" lon="10.791415">
        <ele>2053.032</ele>
        <time>1998-10-03T11:34:19Z</time>
      </trkpt>
      <trkpt lat="46.227431" lon="10.791329">
        <ele>2052.688</ele>
        <time>1998-10-03T11:34:36Z</time>
      </trkpt>
      <trkpt lat="46.227314" lon="10.791085">
        <ele>2052.610</ele>
        <time>1998-10-03T11:34:59Z</time>
      </trkpt>
      <trkpt lat="46.227330" lon="10.790966">
        <ele>2052.647</ele>
        <time>1998-10-03T11:35:09Z</time>
      </trkpt>
      <trkpt lat="46.227280" lon="10.790612">
        <ele>2052.864</ele>
        <time>1998-10-03T11:35:41Z</time>
      </trkpt>
      <trkpt lat="46.227316" lon="10.790464">
        <ele>2053.645</ele>
        <time>1998-10-03T11:36:06Z</time>
      </trkpt>
      <trkpt lat="46.227285" lon="10.790417">
        <ele>2053.443</ele>
        <time>1998-10-03T11:36:24Z</time>
      </trkpt>
      <trkpt lat="46.227409" lon="10.790357">
        <ele>2054.664</ele>
        <time>1998-10-03T11:36:45Z</time>
      </trkpt>
      <trkpt lat="46.227419" lon="10.790245">
        <ele>2054.610</ele>
        <time>1998-10-03T11:37:55Z</time>
      </trkpt>
      <trkpt lat="46.227280" lon="10.790035">
        <ele>2054.808</ele>
        <time>1998-10-03T11:38:15Z</time>
      </trkpt>
      <trkpt lat="46.227213" lon="10.790037">
        <ele>2055.817</ele>
        <time>1998-10-03T11:38:42Z</time>
      </trkpt>
      <trkpt lat="46.227262" lon="10.790088">
        <ele>2055.044</ele>
        <time>1998-10-03T11:40:25Z</time>
      </trkpt>
      <trkpt lat="46.227296" lon="10.789966">
        <ele>2056.215</ele>
        <time>1998-10-03T11:40:50Z</time>
      </trkpt>
      <trkpt lat="46.227249" lon="10.790062">
        <ele>2054.861</ele>
        <time>1998-10-03T11:41:17Z</time>
      </trkpt>
      <trkpt lat="46.227172" lon="10.790098">
        <ele>2055.073</ele>
        <time>1998-10-03T12:15:49Z</time>
      </trkpt>
      <trkpt lat="46.227221" lon="10.790021">
        <ele>2054.890</ele>
        <time>1998-10-03T12:15:53Z</time>
      </trkpt>
      <trkpt lat="46.227192" lon="10.790001">
        <ele>2054.857</ele>
        <time>1998-10-03T12:15:55Z</time>
      </trkpt>
      <trkpt lat="46.227170" lon="10.790034">
        <ele>2054.858</ele>
        <time>1998-10-03T12:15:56Z</time>
      </trkpt>
      <trkpt lat="46.227172" lon="10.789979">
        <ele>2054.484</ele>
        <time>1998-10-03T12:15:58Z</time>
      </trkpt>
      <trkpt lat="46.227113" lon="10.789940">
        <ele>2054.007</ele>
        <time>1998-10-03T12:16:02Z</time>
      </trkpt>
      <trkpt lat="46.227078" lon="10.789966">
        <ele>2053.817</ele>
        <time>1998-10-03T12:16:04Z</time>
      </trkpt>
      <trkpt lat="46.227080" lon="10.789909">
        <ele>2053.808</ele>
        <time>1998-10-03T12:16:07Z</time>
      </trkpt>
      <trkpt lat="46.226967" lon="10.789902">
        <ele>2054.061</ele>
        <time>1998-10-03T12:16:24Z</time>
      </trkpt>
      <trkpt lat="46.226902" lon="10.790092">
        <ele>2054.418</ele>
        <time>1998-10-03T12:16:40Z</time>
      </trkpt>
      <trkpt lat="46.226925" lon="10.790161">
        <ele>2054.029</ele>
        <time>1998-10-03T12:16:52Z</time>
      </trkpt>
      <trkpt lat="46.226729" lon="10.790387">
        <ele>2055.855</ele>
        <time>1998-10-03T12:17:18Z</time>
      </trkpt>
      <trkpt lat="46.226521" lon="10.790363">
        <ele>2058.857</ele>
        <time>1998-10-03T12:17:44Z</time>
      </trkpt>
      <trkpt lat="46.226495" lon="10.790324">
        <ele>2059.624</ele>
        <time>1998-10-03T12:17:54Z</time>
      </trkpt>
      <trkpt lat="46.226404" lon="10.790457">
        <ele>2056.671</ele>
        <time>1998-10-03T12:18:12Z</time>
      </trkpt>
      <trkpt lat="46.226273" lon="10.790490">
        <ele>2054.612</ele>
        <time>1998-10-03T12:18:25Z</time>
      </trkpt>
      <trkpt lat="46.226217" lon="10.790468">
        <ele>2054.094</ele>
        <time>1998-10-03T12:18:36Z</time>
      </trkpt>
      <trkpt lat="46.226008" lon="10.790572">
        <ele>2048.657</ele>
        <time>1998-10-03T12:19:06Z</time>
      </trkpt>
      <trkpt lat="46.225896" lon="10.790540">
        <ele>2047.622</ele>
        <time>1998-10-03T12:19:25Z</time>
      </trkpt>
      <trkpt lat="46.225834" lon="10.790475">
        <ele>2047.408</ele>
        <time>1998-10-03T12:19:36Z</time>
      </trkpt>
      <trkpt lat="46.225735" lon="10.790524">
        <ele>2045.442</ele>
        <time>1998-10-03T12:19:50Z</time>
      </trkpt>
      <trkpt lat="46.225560" lon="10.790528">
        <ele>2043.259</ele>
        <time>1998-10-03T12:20:09Z</time>
      </trkpt>
      <trkpt lat="46.225498" lon="10.790595">
        <ele>2040.840</ele>
        <time>1998-10-03T12:20:23Z</time>
      </trkpt>
      <trkpt lat="46.225393" lon="10.790515">
        <ele>2038.696</ele>
        <time>1998-10-03T12:20:45Z</time>
      </trkpt>
      <trkpt lat="46.225251" lon="10.790525">
        <ele>2034.628</ele>
        <time>1998-10-03T12:21:06Z</time>
      </trkpt>
      <trkpt lat="46.225210" lon="10.790588">
        <ele>2033.275</ele>
        <time>1998-10-03T12:21:13Z</time>
      </trkpt>
      <trkpt lat="46.225018" lon="10.790697">
        <ele>2032.862</ele>
        <time>1998-10-03T12:21:34Z</time>
      </trkpt>
      <trkpt lat="46.225023" lon="10.790883">
        <ele>2037.223</ele>
        <time>1998-10-03T12:21:56Z</time>
      </trkpt>
      <trkpt lat="46.224970" lon="10.791081">
        <ele>2041.694</ele>
        <time>1998-10-03T12:22:26Z</time>
      </trkpt>
      <trkpt lat="46.224963" lon="10.791276">
        <ele>2040.857</ele>
        <time>1998-10-03T12:22:45Z</time>
      </trkpt>
      <trkpt lat="46.224963" lon="10.791236">
        <ele>2040.622</ele>
        <time>1998-10-03T12:23:09Z</time>
      </trkpt>
      <trkpt lat="46.224939" lon="10.791247">
        <ele>2040.808</ele>
        <time>1998-10-03T12:25:12Z</time>
      </trkpt>
      <trkpt lat="46.225006" lon="10.790804">
        <ele>2036.892</ele>
        <time>1998-10-03T12:28:06Z</time>
      </trkpt>
      <trkpt lat="46.224950" lon="10.790691">
        <ele>2033.229</ele>
        <time>1998-10-03T12:28:25Z</time>
      </trkpt>
      <trkpt lat="46.224990" lon="10.790546">
        <ele>2028.890</ele>
        <time>1998-10-03T12:28:52Z</time>
      </trkpt>
      <trkpt lat="46.224835" lon="10.790542">
        <ele>2024.246</ele>
        <time>1998-10-03T12:29:14Z</time>
      </trkpt>
      <trkpt lat="46.224777" lon="10.790573">
        <ele>2023.238</ele>
        <time>1998-10-03T12:29:20Z</time>
      </trkpt>
      <trkpt lat="46.224544" lon="10.790913">
        <ele>2016.035</ele>
        <time>1998-10-03T12:29:59Z</time>
      </trkpt>
      <trkpt lat="46.224499" lon="10.790897">
        <ele>2014.492</ele>
        <time>1998-10-03T12:30:05Z</time>
      </trkpt>
      <trkpt lat="46.224466" lon="10.790943">
        <ele>2013.633</ele>
        <time>1998-10-03T12:30:11Z</time>
      </trkpt>
      <trkpt lat="46.224387" lon="10.790685">
        <ele>2008.886</ele>
        <time>1998-10-03T12:30:39Z</time>
      </trkpt>
      <trkpt lat="46.224324" lon="10.790765">
        <ele>2006.860</ele>
        <time>1998-10-03T12:30:50Z</time>
      </trkpt>
      <trkpt lat="46.224220" lon="10.790816">
        <ele>2003.626</ele>
        <time>1998-10-03T12:31:03Z</time>
      </trkpt>
      <trkpt lat="46.224200" lon="10.790778">
        <ele>2003.008</ele>
        <time>1998-10-03T12:31:09Z</time>
      </trkpt>
      <trkpt lat="46.224224" lon="10.790757">
        <ele>2002.871</ele>
        <time>1998-10-03T12:31:27Z</time>
      </trkpt>
      <trkpt lat="46.224204" lon="10.790769">
        <ele>2003.078</ele>
        <time>1998-10-03T12:31:48Z</time>
      </trkpt>
      <trkpt lat="46.224060" lon="10.790554">
        <ele>2002.459</ele>
        <time>1998-10-03T12:32:16Z</time>
      </trkpt>
      <trkpt lat="46.223947" lon="10.790532">
        <ele>2001.235</ele>
        <time>1998-10-03T12:32:36Z</time>
      </trkpt>
      <trkpt lat="46.223749" lon="10.790699">
        <ele>1997.437</ele>
        <time>1998-10-03T12:33:37Z</time>
      </trkpt>
      <trkpt lat="46.223608" lon="10.790736">
        <ele>1997.694</ele>
        <time>1998-10-03T12:33:49Z</time>
      </trkpt>
      <trkpt lat="46.223583" lon="10.790819">
        <ele>1997.421</ele>
        <time>1998-10-03T12:33:54Z</time>
      </trkpt>
      <trkpt lat="46.223502" lon="10.790908">
        <ele>1997.092</ele>
        <time>1998-10-03T12:34:02Z</time>
      </trkpt>
      <trkpt lat="46.223374" lon="10.790932">
        <ele>1997.473</ele>
        <time>1998-10-03T12:34:12Z</time>
      </trkpt>
      <trkpt lat="46.223246" lon="10.790879">
        <ele>1997.085</ele>
        <time>1998-10-03T12:34:24Z</time>
      </trkpt>
      <trkpt lat="46.223180" lon="10.790908">
        <ele>1996.013</ele>
        <time>1998-10-03T12:34:31Z</time>
      </trkpt>
      <trkpt lat="46.223150" lon="10.790968">
        <ele>1995.008</ele>
        <time>1998-10-03T12:34:37Z</time>
      </trkpt>
      <trkpt lat="46.223089" lon="10.790971">
        <ele>1994.470</ele>
        <time>1998-10-03T12:34:45Z</time>
      </trkpt>
      <trkpt lat="46.222965" lon="10.791278">
        <ele>1993.287</ele>
        <time>1998-10-03T12:35:11Z</time>
      </trkpt>
      <trkpt lat="46.222865" lon="10.791401">
        <ele>1995.498</ele>
        <time>1998-10-03T12:35:26Z</time>
      </trkpt>
      <trkpt lat="46.222900" lon="10.791583">
        <ele>1997.444</ele>
        <time>1998-10-03T12:35:43Z</time>
      </trkpt>
      <trkpt lat="46.222852" lon="10.791638">
        <ele>1999.416</ele>
        <time>1998-10-03T12:35:55Z</time>
      </trkpt>
      <trkpt lat="46.222820" lon="10.791836">
        <ele>2001.813</ele>
        <time>1998-10-03T12:36:19Z</time>
      </trkpt>
      <trkpt lat="46.222750" lon="10.791887">
        <ele>2004.260</ele>
        <time>1998-10-03T12:36:37Z</time>
      </trkpt>
      <trkpt lat="46.222555" lon="10.791905">
        <ele>2006.021</ele>
        <time>1998-10-03T12:37:20Z</time>
      </trkpt>
      <trkpt lat="46.222499" lon="10.791945">
        <ele>2006.861</ele>
        <time>1998-10-03T12:37:28Z</time>
      </trkpt>
      <trkpt lat="46.222291" lon="10.791899">
        <ele>2010.221</ele>
        <time>1998-10-03T12:37:58Z</time>
      </trkpt>
      <trkpt lat="46.222014" lon="10.791770">
        <ele>2015.613</ele>
        <time>1998-10-03T12:38:50Z</time>
      </trkpt>
      <trkpt lat="46.221914" lon="10.791821">
        <ele>2016.808</ele>
        <time>1998-10-03T12:39:07Z</time>
      </trkpt>
      <trkpt lat="46.221761" lon="10.791812">
        <ele>2015.619</ele>
        <time>1998-10-03T12:39:26Z</time>
      </trkpt>
      <trkpt lat="46.221728" lon="10.791838">
        <ele>2015.016</ele>
        <time>1998-10-03T12:39:34Z</time>
      </trkpt>
      <trkpt lat="46.221706" lon="10.791815">
        <ele>2014.447</ele>
        <time>1998-10-03T12:39:41Z</time>
      </trkpt>
      <trkpt lat="46.221554" lon="10.791925">
        <ele>2009.033</ele>
        <time>1998-10-03T12:40:23Z</time>
      </trkpt>
      <trkpt lat="46.221250" lon="10.791934">
        <ele>2003.265</ele>
        <time>1998-10-03T12:41:11Z</time>
      </trkpt>
      <trkpt lat="46.221207" lon="10.791995">
        <ele>2001.862</ele>
        <time>1998-10-03T12:41:21Z</time>
      </trkpt>
      <trkpt lat="46.221025" lon="10.792083">
        <ele>1995.449</ele>
        <time>1998-10-03T12:42:13Z</time>
      </trkpt>
      <trkpt lat="46.220911" lon="10.792072">
        <ele>1993.030</ele>
        <time>1998-10-03T12:42:29Z</time>
      </trkpt>
      <trkpt lat="46.220841" lon="10.792105">
        <ele>1991.668</ele>
        <time>1998-10-03T12:42:40Z</time>
      </trkpt>
      <trkpt lat="46.220754" lon="10.792068">
        <ele>1991.442</ele>
        <time>1998-10-03T12:43:03Z</time>
      </trkpt>
      <trkpt lat="46.220553" lon="10.792138">
        <ele>1991.226</ele>
        <time>1998-10-03T12:43:26Z</time>
      </trkpt>
      <trkpt lat="46.220378" lon="10.792146">
        <ele>1990.208</ele>
        <time>1998-10-03T12:43:48Z</time>
      </trkpt>
      <trkpt lat="46.220151" lon="10.792084">
        <ele>1989.819</ele>
        <time>1998-10-03T12:44:13Z</time>
      </trkpt>
      <trkpt lat="46.220043" lon="10.791968">
        <ele>1989.636</ele>
        <time>1998-10-03T12:44:27Z</time>
      </trkpt>
      <trkpt lat="46.219973" lon="10.791762">
        <ele>1990.477</ele>
        <time>1998-10-03T12:44:58Z</time>
      </trkpt>
      <trkpt lat="46.219892" lon="10.791723">
        <ele>1989.663</ele>
        <time>1998-10-03T12:45:10Z</time>
      </trkpt>
      <trkpt lat="46.219775" lon="10.791582">
        <ele>1990.855</ele>
        <time>1998-10-03T12:45:31Z</time>
      </trkpt>
      <trkpt lat="46.219609" lon="10.791533">
        <ele>1991.472</ele>
        <time>1998-10-03T12:45:58Z</time>
      </trkpt>
      <trkpt lat="46.219519" lon="10.791632">
        <ele>1990.049</ele>
        <time>1998-10-03T12:46:16Z</time>
      </trkpt>
      <trkpt lat="46.219396" lon="10.791637">
        <ele>1989.640</ele>
        <time>1998-10-03T12:46:34Z</time>
      </trkpt>
      <trkpt lat="46.219391" lon="10.791612">
        <ele>1989.432</ele>
        <time>1998-10-03T12:46:52Z</time>
      </trkpt>
      <trkpt lat="46.219354" lon="10.791661">
        <ele>1988.692</ele>
        <time>1998-10-03T12:47:00Z</time>
      </trkpt>
      <trkpt lat="46.219264" lon="10.791645">
        <ele>1987.411</ele>
        <time>1998-10-03T12:47:10Z</time>
      </trkpt>
      <trkpt lat="46.218864" lon="10.791905">
        <ele>1983.608</ele>
        <time>1998-10-03T12:47:55Z</time>
      </trkpt>
      <trkpt lat="46.218765" lon="10.791868">
        <ele>1985.216</ele>
        <time>1998-10-03T12:48:33Z</time>
      </trkpt>
      <trkpt lat="46.218682" lon="10.791887">
        <ele>1986.013</ele>
        <time>1998-10-03T12:48:48Z</time>
      </trkpt>
      <trkpt lat="46.218150" lon="10.791716">
        <ele>1988.834</ele>
        <time>1998-10-03T12:50:15Z</time>
      </trkpt>
      <trkpt lat="46.217914" lon="10.791762">
        <ele>1987.820</ele>
        <time>1998-10-03T12:50:42Z</time>
      </trkpt>
      <trkpt lat="46.217773" lon="10.791843">
        <ele>1987.812</ele>
        <time>1998-10-03T12:50:57Z</time>
      </trkpt>
      <trkpt lat="46.217782" lon="10.791805">
        <ele>1987.619</ele>
        <time>1998-10-03T12:51:17Z</time>
      </trkpt>
      <trkpt lat="46.217687" lon="10.791794">
        <ele>1988.426</ele>
        <time>1998-10-03T12:51:28Z</time>
      </trkpt>
      <trkpt lat="46.217638" lon="10.791838">
        <ele>1988.437</ele>
        <time>1998-10-03T12:51:36Z</time>
      </trkpt>
      <trkpt lat="46.217498" lon="10.792247">
        <ele>1986.852</ele>
        <time>1998-10-03T12:52:10Z</time>
      </trkpt>
      <trkpt lat="46.217403" lon="10.792385">
        <ele>1985.853</ele>
        <time>1998-10-03T12:52:40Z</time>
      </trkpt>
      <trkpt lat="46.217316" lon="10.792383">
        <ele>1983.408</ele>
        <time>1998-10-03T12:52:53Z</time>
      </trkpt>
      <trkpt lat="46.217237" lon="10.792299">
        <ele>1982.808</ele>
        <time>1998-10-03T12:53:01Z</time>
      </trkpt>
      <trkpt lat="46.217163" lon="10.792277">
        <ele>1983.028</ele>
        <time>1998-10-03T12:53:07Z</time>
      </trkpt>
      <trkpt lat="46.217004" lon="10.792374">
        <ele>1983.485</ele>
        <time>1998-10-03T12:53:24Z</time>
      </trkpt>
      <trkpt lat="46.216891" lon="10.792385">
        <ele>1985.016</ele>
        <time>1998-10-03T12:53:38Z</time>
      </trkpt>
      <trkpt lat="46.216779" lon="10.792374">
        <ele>1984.652</ele>
        <time>1998-10-03T12:53:50Z</time>
      </trkpt>
      <trkpt lat="46.216689" lon="10.792296">
        <ele>1985.284</ele>
        <time>1998-10-03T12:54:01Z</time>
      </trkpt>
      <trkpt lat="46.216521" lon="10.792442">
        <ele>1985.891</ele>
        <time>1998-10-03T12:54:22Z</time>
      </trkpt>
      <trkpt lat="46.216447" lon="10.792558">
        <ele>1984.488</ele>
        <time>1998-10-03T12:54:37Z</time>
      </trkpt>
      <trkpt lat="46.216256" lon="10.792643">
        <ele>1983.259</ele>
        <time>1998-10-03T12:54:53Z</time>
      </trkpt>
      <trkpt lat="46.216173" lon="10.792646">
        <ele>1983.044</ele>
        <time>1998-10-03T12:55:00Z</time>
      </trkpt>
      <trkpt lat="46.215844" lon="10.792474">
        <ele>1982.205</ele>
        <time>1998-10-03T12:56:16Z</time>
      </trkpt>
      <trkpt lat="46.215680" lon="10.792567">
        <ele>1981.015</ele>
        <time>1998-10-03T12:56:32Z</time>
      </trkpt>
      <trkpt lat="46.215456" lon="10.792580">
        <ele>1980.408</ele>
        <time>1998-10-03T12:56:51Z</time>
      </trkpt>
      <trkpt lat="46.215398" lon="10.792635">
        <ele>1980.447</ele>
        <time>1998-10-03T12:56:58Z</time>
      </trkpt>
      <trkpt lat="46.215046" lon="10.792714">
        <ele>1980.854</ele>
        <time>1998-10-03T12:58:02Z</time>
      </trkpt>
      <trkpt lat="46.214773" lon="10.792823">
        <ele>1977.285</ele>
        <time>1998-10-03T12:58:33Z</time>
      </trkpt>
      <trkpt lat="46.214510" lon="10.792767">
        <ele>1973.081</ele>
        <time>1998-10-03T12:59:09Z</time>
      </trkpt>
      <trkpt lat="46.214402" lon="10.792826">
        <ele>1969.053</ele>
        <time>1998-10-03T12:59:31Z</time>
      </trkpt>
      <trkpt lat="46.214409" lon="10.792795">
        <ele>1968.670</ele>
        <time>1998-10-03T12:59:52Z</time>
      </trkpt>
      <trkpt lat="46.214508" lon="10.793118">
        <ele>1965.637</ele>
        <time>1998-10-03T13:00:45Z</time>
      </trkpt>
      <trkpt lat="46.214592" lon="10.793151">
        <ele>1963.668</ele>
        <time>1998-10-03T13:00:56Z</time>
      </trkpt>
      <trkpt lat="46.214607" lon="10.793363">
        <ele>1961.621</ele>
        <time>1998-10-03T13:01:11Z</time>
      </trkpt>
      <trkpt lat="46.214663" lon="10.793534">
        <ele>1961.441</ele>
        <time>1998-10-03T13:01:24Z</time>
      </trkpt>
      <trkpt lat="46.214736" lon="10.793605">
        <ele>1962.405</ele>
        <time>1998-10-03T13:01:34Z</time>
      </trkpt>
      <trkpt lat="46.214778" lon="10.793978">
        <ele>1961.208</ele>
        <time>1998-10-03T13:02:11Z</time>
      </trkpt>
      <trkpt lat="46.214850" lon="10.794061">
        <ele>1961.485</ele>
        <time>1998-10-03T13:02:19Z</time>
      </trkpt>
      <trkpt lat="46.214999" lon="10.794451">
        <ele>1959.272</ele>
        <time>1998-10-03T13:02:48Z</time>
      </trkpt>
      <trkpt lat="46.215133" lon="10.794595">
        <ele>1957.033</ele>
        <time>1998-10-03T13:03:06Z</time>
      </trkpt>
      <trkpt lat="46.215142" lon="10.794837">
        <ele>1955.099</ele>
        <time>1998-10-03T13:03:23Z</time>
      </trkpt>
      <trkpt lat="46.215266" lon="10.795194">
        <ele>1953.291</ele>
        <time>1998-10-03T13:03:51Z</time>
      </trkpt>
      <trkpt lat="46.215161" lon="10.795279">
        <ele>1951.828</ele>
        <time>1998-10-03T13:04:42Z</time>
      </trkpt>
      <trkpt lat="46.215153" lon="10.795342">
        <ele>1950.465</ele>
        <time>1998-10-03T13:04:48Z</time>
      </trkpt>
      <trkpt lat="46.215040" lon="10.795461">
        <ele>1949.846</ele>
        <time>1998-10-03T13:05:02Z</time>
      </trkpt>
      <trkpt lat="46.214772" lon="10.795244">
        <ele>1943.274</ele>
        <time>1998-10-03T13:05:33Z</time>
      </trkpt>
      <trkpt lat="46.214559" lon="10.795122">
        <ele>1938.656</ele>
        <time>1998-10-03T13:05:57Z</time>
      </trkpt>
      <trkpt lat="46.214309" lon="10.794875">
        <ele>1930.221</ele>
        <time>1998-10-03T13:06:42Z</time>
      </trkpt>
      <trkpt lat="46.214153" lon="10.795113">
        <ele>1924.608</ele>
        <time>1998-10-03T13:07:14Z</time>
      </trkpt>
      <trkpt lat="46.214125" lon="10.795123">
        <ele>1923.810</ele>
        <time>1998-10-03T13:07:29Z</time>
      </trkpt>
      <trkpt lat="46.214116" lon="10.795087">
        <ele>1924.087</ele>
        <time>1998-10-03T13:07:42Z</time>
      </trkpt>
      <trkpt lat="46.213897" lon="10.795206">
        <ele>1920.648</ele>
        <time>1998-10-03T13:08:07Z</time>
      </trkpt>
      <trkpt lat="46.213785" lon="10.795211">
        <ele>1918.494</ele>
        <time>1998-10-03T13:08:17Z</time>
      </trkpt>
      <trkpt lat="46.213686" lon="10.795155">
        <ele>1916.066</ele>
        <time>1998-10-03T13:08:29Z</time>
      </trkpt>
      <trkpt lat="46.213673" lon="10.795243">
        <ele>1914.463</ele>
        <time>1998-10-03T13:08:38Z</time>
      </trkpt>
      <trkpt lat="46.213710" lon="10.795368">
        <ele>1911.850</ele>
        <time>1998-10-03T13:08:52Z</time>
      </trkpt>
      <trkpt lat="46.213980" lon="10.795810">
        <ele>1904.491</ele>
        <time>1998-10-03T13:09:49Z</time>
      </trkpt>
      <trkpt lat="46.213976" lon="10.795977">
        <ele>1902.853</ele>
        <time>1998-10-03T13:09:59Z</time>
      </trkpt>
      <trkpt lat="46.213924" lon="10.796074">
        <ele>1901.004</ele>
        <time>1998-10-03T13:10:08Z</time>
      </trkpt>
      <trkpt lat="46.213838" lon="10.796077">
        <ele>1898.614</ele>
        <time>1998-10-03T13:10:17Z</time>
      </trkpt>
      <trkpt lat="46.213643" lon="10.796191">
        <ele>1893.608</ele>
        <time>1998-10-03T13:10:39Z</time>
      </trkpt>
      <trkpt lat="46.213549" lon="10.796431">
        <ele>1889.058</ele>
        <time>1998-10-03T13:11:11Z</time>
      </trkpt>
      <trkpt lat="46.213468" lon="10.796514">
        <ele>1886.415</ele>
        <time>1998-10-03T13:11:24Z</time>
      </trkpt>
      <trkpt lat="46.213440" lon="10.796724">
        <ele>1882.456</ele>
        <time>1998-10-03T13:11:45Z</time>
      </trkpt>
      <trkpt lat="46.213814" lon="10.797329">
        <ele>1873.252</ele>
        <time>1998-10-03T13:13:07Z</time>
      </trkpt>
      <trkpt lat="46.213828" lon="10.797467">
        <ele>1872.494</ele>
        <time>1998-10-03T13:13:18Z</time>
      </trkpt>
      <trkpt lat="46.213915" lon="10.797626">
        <ele>1870.271</ele>
        <time>1998-10-03T13:13:31Z</time>
      </trkpt>
      <trkpt lat="46.213925" lon="10.797884">
        <ele>1867.658</ele>
        <time>1998-10-03T13:13:47Z</time>
      </trkpt>
      <trkpt lat="46.213866" lon="10.797930">
        <ele>1866.869</ele>
        <time>1998-10-03T13:13:53Z</time>
      </trkpt>
      <trkpt lat="46.213679" lon="10.797865">
        <ele>1865.426</ele>
        <time>1998-10-03T13:14:12Z</time>
      </trkpt>
      <trkpt lat="46.213525" lon="10.797861">
        <ele>1863.047</ele>
        <time>1998-10-03T13:14:27Z</time>
      </trkpt>
      <trkpt lat="46.213477" lon="10.797789">
        <ele>1862.211</ele>
        <time>1998-10-03T13:14:48Z</time>
      </trkpt>
      <trkpt lat="46.213490" lon="10.797902">
        <ele>1862.408</ele>
        <time>1998-10-03T13:15:17Z</time>
      </trkpt>
      <trkpt lat="46.213443" lon="10.797843">
        <ele>1862.885</ele>
        <time>1998-10-03T13:15:38Z</time>
      </trkpt>
      <trkpt lat="46.213488" lon="10.797833">
        <ele>1862.872</ele>
        <time>1998-10-03T13:15:46Z</time>
      </trkpt>
      <trkpt lat="46.213432" lon="10.797832">
        <ele>1862.893</ele>
        <time>1998-10-03T13:16:05Z</time>
      </trkpt>
      <trkpt lat="46.213401" lon="10.797727">
        <ele>1862.049</ele>
        <time>1998-10-03T13:16:14Z</time>
      </trkpt>
      <trkpt lat="46.213399" lon="10.797966">
        <ele>1858.881</ele>
        <time>1998-10-03T13:16:38Z</time>
      </trkpt>
      <trkpt lat="46.213282" lon="10.798423">
        <ele>1855.028</ele>
        <time>1998-10-03T13:17:14Z</time>
      </trkpt>
      <trkpt lat="46.213309" lon="10.798751">
        <ele>1850.455</ele>
        <time>1998-10-03T13:17:40Z</time>
      </trkpt>
      <trkpt lat="46.213169" lon="10.798839">
        <ele>1850.436</ele>
        <time>1998-10-03T13:17:55Z</time>
      </trkpt>
      <trkpt lat="46.213122" lon="10.798964">
        <ele>1849.461</ele>
        <time>1998-10-03T13:18:19Z</time>
      </trkpt>
      <trkpt lat="46.213012" lon="10.799016">
        <ele>1847.421</ele>
        <time>1998-10-03T13:18:33Z</time>
      </trkpt>
      <trkpt lat="46.212918" lon="10.799551">
        <ele>1840.613</ele>
        <time>1998-10-03T13:19:32Z</time>
      </trkpt>
      <trkpt lat="46.212727" lon="10.799896">
        <ele>1837.608</ele>
        <time>1998-10-03T13:20:02Z</time>
      </trkpt>
      <trkpt lat="46.212755" lon="10.800184">
        <ele>1833.039</ele>
        <time>1998-10-03T13:20:27Z</time>
      </trkpt>
      <trkpt lat="46.212856" lon="10.800309">
        <ele>1830.656</ele>
        <time>1998-10-03T13:20:46Z</time>
      </trkpt>
      <trkpt lat="46.212916" lon="10.800457">
        <ele>1829.297</ele>
        <time>1998-10-03T13:20:58Z</time>
      </trkpt>
      <trkpt lat="46.212985" lon="10.800518">
        <ele>1828.423</ele>
        <time>1998-10-03T13:21:07Z</time>
      </trkpt>
      <trkpt lat="46.213015" lon="10.800472">
        <ele>1828.275</ele>
        <time>1998-10-03T13:21:46Z</time>
      </trkpt>
      <trkpt lat="46.212926" lon="10.800509">
        <ele>1828.642</ele>
        <time>1998-10-03T13:22:28Z</time>
      </trkpt>
      <trkpt lat="46.213023" lon="10.800459">
        <ele>1828.649</ele>
        <time>1998-10-03T13:22:46Z</time>
      </trkpt>
      <trkpt lat="46.213123" lon="10.800697">
        <ele>1827.620</ele>
        <time>1998-10-03T13:23:10Z</time>
      </trkpt>
      <trkpt lat="46.213350" lon="10.800875">
        <ele>1825.215</ele>
        <time>1998-10-03T13:23:51Z</time>
      </trkpt>
      <trkpt lat="46.213474" lon="10.800865">
        <ele>1824.665</ele>
        <time>1998-10-03T13:24:00Z</time>
      </trkpt>
      <trkpt lat="46.213577" lon="10.800921">
        <ele>1823.811</ele>
        <time>1998-10-03T13:24:11Z</time>
      </trkpt>
      <trkpt lat="46.213688" lon="10.800874">
        <ele>1823.008</ele>
        <time>1998-10-03T13:24:26Z</time>
      </trkpt>
      <trkpt lat="46.213864" lon="10.800966">
        <ele>1822.674</ele>
        <time>1998-10-03T13:24:43Z</time>
      </trkpt>
      <trkpt lat="46.214045" lon="10.801222">
        <ele>1821.251</ele>
        <time>1998-10-03T13:25:09Z</time>
      </trkpt>
      <trkpt lat="46.214115" lon="10.801229">
        <ele>1820.862</ele>
        <time>1998-10-03T13:25:15Z</time>
      </trkpt>
      <trkpt lat="46.214165" lon="10.801327">
        <ele>1819.888</ele>
        <time>1998-10-03T13:25:23Z</time>
      </trkpt>
      <trkpt lat="46.214289" lon="10.801431">
        <ele>1819.020</ele>
        <time>1998-10-03T13:25:38Z</time>
      </trkpt>
      <trkpt lat="46.214488" lon="10.801791">
        <ele>1816.237</ele>
        <time>1998-10-03T13:26:13Z</time>
      </trkpt>
      <trkpt lat="46.214529" lon="10.801797">
        <ele>1816.044</ele>
        <time>1998-10-03T13:26:17Z</time>
      </trkpt>
      <trkpt lat="46.214601" lon="10.801921">
        <ele>1813.635</ele>
        <time>1998-10-03T13:26:29Z</time>
      </trkpt>
      <trkpt lat="46.214682" lon="10.801966">
        <ele>1812.816</ele>
        <time>1998-10-03T13:26:38Z</time>
      </trkpt>
      <trkpt lat="46.214778" lon="10.802177">
        <ele>1810.676</ele>
        <time>1998-10-03T13:26:57Z</time>
      </trkpt>
      <trkpt lat="46.214904" lon="10.802344">
        <ele>1808.213</ele>
        <time>1998-10-03T13:27:16Z</time>
      </trkpt>
      <trkpt lat="46.214997" lon="10.802748">
        <ele>1806.208</ele>
        <time>1998-10-03T13:27:45Z</time>
      </trkpt>
      <trkpt lat="46.215123" lon="10.802915">
        <ele>1803.494</ele>
        <time>1998-10-03T13:28:07Z</time>
      </trkpt>
      <trkpt lat="46.215039" lon="10.802900">
        <ele>1803.221</ele>
        <time>1998-10-03T13:28:54Z</time>
      </trkpt>
      <trkpt lat="46.215057" lon="10.802873">
        <ele>1803.042</ele>
        <time>1998-10-03T13:29:05Z</time>
      </trkpt>
      <trkpt lat="46.215062" lon="10.802920">
        <ele>1802.688</ele>
        <time>1998-10-03T13:29:25Z</time>
      </trkpt>
      <trkpt lat="46.215182" lon="10.802949">
        <ele>1802.440</ele>
        <time>1998-10-03T13:29:55Z</time>
      </trkpt>
      <trkpt lat="46.215203" lon="10.802999">
        <ele>1801.837</ele>
        <time>1998-10-03T13:30:03Z</time>
      </trkpt>
      <trkpt lat="46.215181" lon="10.803418">
        <ele>1797.234</ele>
        <time>1998-10-03T13:30:36Z</time>
      </trkpt>
      <trkpt lat="46.215330" lon="10.803862">
        <ele>1792.045</ele>
        <time>1998-10-03T13:31:14Z</time>
      </trkpt>
      <trkpt lat="46.215361" lon="10.804124">
        <ele>1787.849</ele>
        <time>1998-10-03T13:31:45Z</time>
      </trkpt>
      <trkpt lat="46.215417" lon="10.804191">
        <ele>1786.802</ele>
        <time>1998-10-03T13:31:54Z</time>
      </trkpt>
      <trkpt lat="46.215394" lon="10.804342">
        <ele>1785.622</ele>
        <time>1998-10-03T13:32:11Z</time>
      </trkpt>
      <trkpt lat="46.215320" lon="10.804490">
        <ele>1783.208</ele>
        <time>1998-10-03T13:32:29Z</time>
      </trkpt>
      <trkpt lat="46.215410" lon="10.804680">
        <ele>1780.027</ele>
        <time>1998-10-03T13:32:53Z</time>
      </trkpt>
      <trkpt lat="46.215463" lon="10.804685">
        <ele>1779.424</ele>
        <time>1998-10-03T13:32:58Z</time>
      </trkpt>
      <trkpt lat="46.215555" lon="10.804940">
        <ele>1777.855</ele>
        <time>1998-10-03T13:33:17Z</time>
      </trkpt>
      <trkpt lat="46.215526" lon="10.805128">
        <ele>1776.841</ele>
        <time>1998-10-03T13:33:30Z</time>
      </trkpt>
      <trkpt lat="46.215487" lon="10.805112">
        <ele>1776.233</ele>
        <time>1998-10-03T13:33:45Z</time>
      </trkpt>
      <trkpt lat="46.215489" lon="10.805387">
        <ele>1775.290</ele>
        <time>1998-10-03T13:34:03Z</time>
      </trkpt>
      <trkpt lat="46.215446" lon="10.805487">
        <ele>1774.847</ele>
        <time>1998-10-03T13:34:11Z</time>
      </trkpt>
      <trkpt lat="46.215521" lon="10.805791">
        <ele>1774.848</ele>
        <time>1998-10-03T13:34:36Z</time>
      </trkpt>
      <trkpt lat="46.215553" lon="10.805807">
        <ele>1774.884</ele>
        <time>1998-10-03T13:34:41Z</time>
      </trkpt>
      <trkpt lat="46.215675" lon="10.805626">
        <ele>1775.007</ele>
        <time>1998-10-03T13:34:58Z</time>
      </trkpt>
      <trkpt lat="46.215772" lon="10.805551">
        <ele>1776.217</ele>
        <time>1998-10-03T13:35:13Z</time>
      </trkpt>
      <trkpt lat="46.215789" lon="10.805573">
        <ele>1776.008</ele>
        <time>1998-10-03T13:35:30Z</time>
      </trkpt>
      <trkpt lat="46.215748" lon="10.805675">
        <ele>1775.671</ele>
        <time>1998-10-03T13:35:54Z</time>
      </trkpt>
      <trkpt lat="46.215449" lon="10.806063">
        <ele>1774.098</ele>
        <time>1998-10-03T13:36:28Z</time>
      </trkpt>
      <trkpt lat="46.215242" lon="10.806128">
        <ele>1774.289</ele>
        <time>1998-10-03T13:36:49Z</time>
      </trkpt>
      <trkpt lat="46.215180" lon="10.806321">
        <ele>1774.875</ele>
        <time>1998-10-03T13:37:11Z</time>
      </trkpt>
      <trkpt lat="46.215182" lon="10.806356">
        <ele>1774.897</ele>
        <time>1998-10-03T13:37:25Z</time>
      </trkpt>
      <trkpt lat="46.215219" lon="10.806338">
        <ele>1774.874</ele>
        <time>1998-10-03T13:37:37Z</time>
      </trkpt>
      <trkpt lat="46.215240" lon="10.806368">
        <ele>1775.091</ele>
        <time>1998-10-03T13:37:43Z</time>
      </trkpt>
      <trkpt lat="46.215214" lon="10.806279">
        <ele>1773.832</ele>
        <time>1998-10-03T13:40:57Z</time>
      </trkpt>
      <trkpt lat="46.215022" lon="10.806149">
        <ele>1770.073</ele>
        <time>1998-10-03T13:41:20Z</time>
      </trkpt>
      <trkpt lat="46.214414" lon="10.806379">
        <ele>1765.085</ele>
        <time>1998-10-03T13:42:10Z</time>
      </trkpt>
      <trkpt lat="46.214294" lon="10.806519">
        <ele>1763.613</ele>
        <time>1998-10-03T13:42:24Z</time>
      </trkpt>
      <trkpt lat="46.214221" lon="10.806808">
        <ele>1761.808</ele>
        <time>1998-10-03T13:42:47Z</time>
      </trkpt>
      <trkpt lat="46.214196" lon="10.806726">
        <ele>1761.280</ele>
        <time>1998-10-03T13:43:08Z</time>
      </trkpt>
      <trkpt lat="46.214220" lon="10.806767">
        <ele>1761.227</ele>
        <time>1998-10-03T13:43:30Z</time>
      </trkpt>
      <trkpt lat="46.214261" lon="10.806761">
        <ele>1761.428</ele>
        <time>1998-10-03T13:43:40Z</time>
      </trkpt>
      <trkpt lat="46.214229" lon="10.806770">
        <ele>1761.854</ele>
        <time>1998-10-03T13:44:08Z</time>
      </trkpt>
      <trkpt lat="46.214329" lon="10.806870">
        <ele>1761.826</ele>
        <time>1998-10-03T13:44:21Z</time>
      </trkpt>
      <trkpt lat="46.214822" lon="10.807115">
        <ele>1763.693</ele>
        <time>1998-10-03T13:45:00Z</time>
      </trkpt>
      <trkpt lat="46.215207" lon="10.807382">
        <ele>1764.640</ele>
        <time>1998-10-03T13:45:32Z</time>
      </trkpt>
      <trkpt lat="46.215750" lon="10.807825">
        <ele>1764.411</ele>
        <time>1998-10-03T13:46:22Z</time>
      </trkpt>
      <trkpt lat="46.216146" lon="10.807996">
        <ele>1764.071</ele>
        <time>1998-10-03T13:46:55Z</time>
      </trkpt>
      <trkpt lat="46.216331" lon="10.808024">
        <ele>1762.841</ele>
        <time>1998-10-03T13:47:10Z</time>
      </trkpt>
      <trkpt lat="46.216871" lon="10.807982">
        <ele>1759.815</ele>
        <time>1998-10-03T13:47:53Z</time>
      </trkpt>
      <trkpt lat="46.217363" lon="10.807896">
        <ele>1757.608</ele>
        <time>1998-10-03T13:48:34Z</time>
      </trkpt>
      <trkpt lat="46.217566" lon="10.807955">
        <ele>1757.280</ele>
        <time>1998-10-03T13:48:54Z</time>
      </trkpt>
      <trkpt lat="46.217563" lon="10.808044">
        <ele>1756.827</ele>
        <time>1998-10-03T13:49:08Z</time>
      </trkpt>
      <trkpt lat="46.217778" lon="10.808132">
        <ele>1756.488</ele>
        <time>1998-10-03T13:49:38Z</time>
      </trkpt>
      <trkpt lat="46.218053" lon="10.808401">
        <ele>1755.024</ele>
        <time>1998-10-03T13:50:06Z</time>
      </trkpt>
      <trkpt lat="46.218223" lon="10.808756">
        <ele>1753.896</ele>
        <time>1998-10-03T13:50:31Z</time>
      </trkpt>
      <trkpt lat="46.218424" lon="10.809369">
        <ele>1751.463</ele>
        <time>1998-10-03T13:51:16Z</time>
      </trkpt>
      <trkpt lat="46.218690" lon="10.809518">
        <ele>1750.070</ele>
        <time>1998-10-03T13:51:45Z</time>
      </trkpt>
      <trkpt lat="46.218762" lon="10.809499">
        <ele>1750.091</ele>
        <time>1998-10-03T13:51:58Z</time>
      </trkpt>
      <trkpt lat="46.218778" lon="10.809544">
        <ele>1749.686</ele>
        <time>1998-10-03T13:52:03Z</time>
      </trkpt>
      <trkpt lat="46.218925" lon="10.809620">
        <ele>1749.660</ele>
        <time>1998-10-03T13:52:19Z</time>
      </trkpt>
      <trkpt lat="46.218997" lon="10.809728">
        <ele>1749.226</ele>
        <time>1998-10-03T13:52:28Z</time>
      </trkpt>
      <trkpt lat="46.218993" lon="10.810215">
        <ele>1749.208</ele>
        <time>1998-10-03T13:53:00Z</time>
      </trkpt>
      <trkpt lat="46.219029" lon="10.810411">
        <ele>1749.081</ele>
        <time>1998-10-03T13:53:12Z</time>
      </trkpt>
      <trkpt lat="46.219075" lon="10.810449">
        <ele>1748.878</ele>
        <time>1998-10-03T13:53:15Z</time>
      </trkpt>
      <trkpt lat="46.219171" lon="10.810926">
        <ele>1749.059</ele>
        <time>1998-10-03T13:53:47Z</time>
      </trkpt>
      <trkpt lat="46.219118" lon="10.811159">
        <ele>1749.245</ele>
        <time>1998-10-03T13:54:03Z</time>
      </trkpt>
      <trkpt lat="46.219136" lon="10.811244">
        <ele>1749.027</ele>
        <time>1998-10-03T13:54:08Z</time>
      </trkpt>
      <trkpt lat="46.219104" lon="10.811424">
        <ele>1749.284</ele>
        <time>1998-10-03T13:54:17Z</time>
      </trkpt>
      <trkpt lat="46.219143" lon="10.811543">
        <ele>1748.851</ele>
        <time>1998-10-03T13:54:31Z</time>
      </trkpt>
      <trkpt lat="46.219094" lon="10.811825">
        <ele>1748.212</ele>
        <time>1998-10-03T13:54:47Z</time>
      </trkpt>
      <trkpt lat="46.219109" lon="10.811971">
        <ele>1748.259</ele>
        <time>1998-10-03T13:54:57Z</time>
      </trkpt>
      <trkpt lat="46.219085" lon="10.811973">
        <ele>1748.203</ele>
        <time>1998-10-03T13:55:02Z</time>
      </trkpt>
      <trkpt lat="46.219121" lon="10.811957">
        <ele>1748.023</ele>
        <time>1998-10-03T13:55:10Z</time>
      </trkpt>
      <trkpt lat="46.219193" lon="10.812116">
        <ele>1748.008</ele>
        <time>1998-10-03T13:55:20Z</time>
      </trkpt>
      <trkpt lat="46.219325" lon="10.812574">
        <ele>1747.448</ele>
        <time>1998-10-03T13:55:47Z</time>
      </trkpt>
      <trkpt lat="46.219520" lon="10.812730">
        <ele>1747.875</ele>
        <time>1998-10-03T13:56:03Z</time>
      </trkpt>
      <trkpt lat="46.219535" lon="10.812856">
        <ele>1748.036</ele>
        <time>1998-10-03T13:56:10Z</time>
      </trkpt>
      <trkpt lat="46.219768" lon="10.813222">
        <ele>1748.622</ele>
        <time>1998-10-03T13:56:32Z</time>
      </trkpt>
      <trkpt lat="46.219838" lon="10.813401">
        <ele>1748.854</ele>
        <time>1998-10-03T13:56:44Z</time>
      </trkpt>
      <trkpt lat="46.220019" lon="10.813597">
        <ele>1749.061</ele>
        <time>1998-10-03T13:57:03Z</time>
      </trkpt>
      <trkpt lat="46.220081" lon="10.813618">
        <ele>1749.018</ele>
        <time>1998-10-03T13:57:07Z</time>
      </trkpt>
      <trkpt lat="46.220170" lon="10.813779">
        <ele>1748.849</ele>
        <time>1998-10-03T13:57:19Z</time>
      </trkpt>
      <trkpt lat="46.220382" lon="10.813916">
        <ele>1748.034</ele>
        <time>1998-10-03T13:57:32Z</time>
      </trkpt>
      <trkpt lat="46.220471" lon="10.813929">
        <ele>1747.855</ele>
        <time>1998-10-03T13:57:35Z</time>
      </trkpt>
      <trkpt lat="46.220602" lon="10.814060">
        <ele>1747.210</ele>
        <time>1998-10-03T13:57:46Z</time>
      </trkpt>
      <trkpt lat="46.220834" lon="10.814105">
        <ele>1746.608</ele>
        <time>1998-10-03T13:58:07Z</time>
      </trkpt>
      <trkpt lat="46.220918" lon="10.814184">
        <ele>1746.846</ele>
        <time>1998-10-03T13:58:19Z</time>
      </trkpt>
      <trkpt lat="46.221068" lon="10.814451">
        <ele>1746.653</ele>
        <time>1998-10-03T13:58:46Z</time>
      </trkpt>
      <trkpt lat="46.221230" lon="10.814610">
        <ele>1746.084</ele>
        <time>1998-10-03T13:58:59Z</time>
      </trkpt>
      <trkpt lat="46.221617" lon="10.814747">
        <ele>1744.850</ele>
        <time>1998-10-03T13:59:26Z</time>
      </trkpt>
      <trkpt lat="46.221703" lon="10.814815">
        <ele>1744.252</ele>
        <time>1998-10-03T13:59:33Z</time>
      </trkpt>
      <trkpt lat="46.221830" lon="10.814801">
        <ele>1743.639</ele>
        <time>1998-10-03T13:59:41Z</time>
      </trkpt>
      <trkpt lat="46.221930" lon="10.814837">
        <ele>1743.256</ele>
        <time>1998-10-03T13:59:47Z</time>
      </trkpt>
      <trkpt lat="46.222188" lon="10.815006">
        <ele>1741.887</ele>
        <time>1998-10-03T14:00:03Z</time>
      </trkpt>
      <trkpt lat="46.222595" lon="10.815150">
        <ele>1739.472</ele>
        <time>1998-10-03T14:00:34Z</time>
      </trkpt>
      <trkpt lat="46.222722" lon="10.815272">
        <ele>1738.213</ele>
        <time>1998-10-03T14:00:47Z</time>
      </trkpt>
      <trkpt lat="46.222950" lon="10.815320">
        <ele>1738.014</ele>
        <time>1998-10-03T14:01:01Z</time>
      </trkpt>
      <trkpt lat="46.223120" lon="10.815422">
        <ele>1736.608</ele>
        <time>1998-10-03T14:01:17Z</time>
      </trkpt>
      <trkpt lat="46.223294" lon="10.815431">
        <ele>1736.650</ele>
        <time>1998-10-03T14:01:32Z</time>
      </trkpt>
      <trkpt lat="46.223500" lon="10.815493">
        <ele>1736.467</ele>
        <time>1998-10-03T14:01:46Z</time>
      </trkpt>
      <trkpt lat="46.223645" lon="10.815599">
        <ele>1736.228</ele>
        <time>1998-10-03T14:02:00Z</time>
      </trkpt>
      <trkpt lat="46.223744" lon="10.815605">
        <ele>1735.654</ele>
        <time>1998-10-03T14:02:07Z</time>
      </trkpt>
      <trkpt lat="46.223809" lon="10.815692">
        <ele>1735.266</ele>
        <time>1998-10-03T14:02:16Z</time>
      </trkpt>
      <trkpt lat="46.224187" lon="10.815817">
        <ele>1735.663</ele>
        <time>1998-10-03T14:02:44Z</time>
      </trkpt>
      <trkpt lat="46.225015" lon="10.815828">
        <ele>1735.680</ele>
        <time>1998-10-03T14:03:44Z</time>
      </trkpt>
      <trkpt lat="46.225368" lon="10.815743">
        <ele>1735.221</ele>
        <time>1998-10-03T14:04:06Z</time>
      </trkpt>
      <trkpt lat="46.225535" lon="10.815773">
        <ele>1735.037</ele>
        <time>1998-10-03T14:04:18Z</time>
      </trkpt>
      <trkpt lat="46.225620" lon="10.815852">
        <ele>1734.849</ele>
        <time>1998-10-03T14:04:26Z</time>
      </trkpt>
      <trkpt lat="46.225804" lon="10.815804">
        <ele>1734.613</ele>
        <time>1998-10-03T14:04:40Z</time>
      </trkpt>
      <trkpt lat="46.226052" lon="10.815898">
        <ele>1734.208</ele>
        <time>1998-10-03T14:04:58Z</time>
      </trkpt>
      <trkpt lat="46.226247" lon="10.816039">
        <ele>1734.826</ele>
        <time>1998-10-03T14:05:14Z</time>
      </trkpt>
      <trkpt lat="46.226540" lon="10.816184">
        <ele>1734.673</ele>
        <time>1998-10-03T14:05:45Z</time>
      </trkpt>
      <trkpt lat="46.226814" lon="10.816118">
        <ele>1735.044</ele>
        <time>1998-10-03T14:06:06Z</time>
      </trkpt>
      <trkpt lat="46.226898" lon="10.816144">
        <ele>1735.240</ele>
        <time>1998-10-03T14:06:11Z</time>
      </trkpt>
      <trkpt lat="46.227273" lon="10.816390">
        <ele>1734.032</ele>
        <time>1998-10-03T14:06:46Z</time>
      </trkpt>
      <trkpt lat="46.227453" lon="10.816396">
        <ele>1733.879</ele>
        <time>1998-10-03T14:06:58Z</time>
      </trkpt>
      <trkpt lat="46.227831" lon="10.816283">
        <ele>1731.616</ele>
        <time>1998-10-03T14:07:29Z</time>
      </trkpt>
      <trkpt lat="46.228458" lon="10.816216">
        <ele>1729.637</ele>
        <time>1998-10-03T14:08:12Z</time>
      </trkpt>
      <trkpt lat="46.229039" lon="10.816083">
        <ele>1729.451</ele>
        <time>1998-10-03T14:08:56Z</time>
      </trkpt>
      <trkpt lat="46.229841" lon="10.816032">
        <ele>1729.801</ele>
        <time>1998-10-03T14:10:00Z</time>
      </trkpt>
      <trkpt lat="46.230050" lon="10.815933">
        <ele>1729.011</ele>
        <time>1998-10-03T14:10:19Z</time>
      </trkpt>
      <trkpt lat="46.230344" lon="10.815863">
        <ele>1728.408</ele>
        <time>1998-10-03T14:10:50Z</time>
      </trkpt>
      <trkpt lat="46.230605" lon="10.815890">
        <ele>1727.658</ele>
        <time>1998-10-03T14:11:19Z</time>
      </trkpt>
    </trkseg>
  </trk></gpx>