<?xml version="1.0" encoding="UTF-8"?>
<gpx creator="Wikiloc - https://www.wikiloc.com" version="1.1" xmlns="http://www.topografix.com/GPX/1/1" xmlns:xsi="http://www.w3.org/2001/XMLSchema-instance" xsi:schemaLocation="http://www.topografix.com/GPX/1/1 http://www.topografix.com/GPX/1/1/gpx.xsd">
  <metadata>
    <name>Wikiloc - Mont Glacier, Col Fussy e Rifugio Dondena da Dondena - Wikil...</name>
    <link href="https://www.wikiloc.com/hiking-trails/mont-glacier-col-fussy-e-rifugio-dondena-da-dondena-231540455">
      <text>Mont Glacier, Col Fussy e Rifugio Dondena da Dondena - Wikil... on Wikiloc</text>
    </link>
    <time>2025-09-12T13:20:31Z</time>
  </metadata>
  <trk>
    <name>Mont Glacier, Col Fussy e Rifugio Dondena da Dondena - Wikil... - Wikiloc</name>
    <cmt></cmt>
    <desc></desc>
    <trkseg>
      <trkpt lat="45.616587" lon="7.555838">
        <ele>2072.741</ele>
        <time>2025-09-12T06:53:40Z</time>
      </trkpt>
      <trkpt lat="45.616432" lon="7.555447">
        <ele>2071.581</ele>
        <time>2025-09-12T06:56:08Z</time>
      </trkpt>
      <trkpt lat="45.616618" lon="7.555009">
        <ele>2065.509</ele>
        <time>2025-09-12T06:56:40Z</time>
      </trkpt>
      <trkpt lat="45.616668" lon="7.554371">
        <ele>2061.109</ele>
        <time>2025-09-12T06:57:13Z</time>
      </trkpt>
      <trkpt lat="45.616326" lon="7.553896">
        <ele>2062.146</ele>
        <time>2025-09-12T06:57:52Z</time>
      </trkpt>
      <trkpt lat="45.616143" lon="7.553946">
        <ele>2065.327</ele>
        <time>2025-09-12T06:58:12Z</time>
      </trkpt>
      <trkpt lat="45.615644" lon="7.553095">
        <ele>2075.465</ele>
        <time>2025-09-12T06:59:34Z</time>
      </trkpt>
      <trkpt lat="45.615392" lon="7.549765">
        <ele>2104.119</ele>
        <time>2025-09-12T07:03:37Z</time>
      </trkpt>
      <trkpt lat="45.614799" lon="7.546693">
        <ele>2140.998</ele>
        <time>2025-09-12T07:09:55Z</time>
      </trkpt>
      <trkpt lat="45.614853" lon="7.545669">
        <ele>2159.794</ele>
        <time>2025-09-12T07:11:43Z</time>
      </trkpt>
      <trkpt lat="45.615187" lon="7.544586">
        <ele>2179.678</ele>
        <time>2025-09-12T07:13:39Z</time>
      </trkpt>
      <trkpt lat="45.615062" lon="7.543767">
        <ele>2198.279</ele>
        <time>2025-09-12T07:15:32Z</time>
      </trkpt>
      <trkpt lat="45.614844" lon="7.543913">
        <ele>2205.269</ele>
        <time>2025-09-12T07:16:14Z</time>
      </trkpt>
      <trkpt lat="45.614786" lon="7.542420">
        <ele>2222.455</ele>
        <time>2025-09-12T07:18:09Z</time>
      </trkpt>
      <trkpt lat="45.614140" lon="7.539251">
        <ele>2240.507</ele>
        <time>2025-09-12T07:21:30Z</time>
      </trkpt>
      <trkpt lat="45.614204" lon="7.538563">
        <ele>2249.817</ele>
        <time>2025-09-12T07:22:31Z</time>
      </trkpt>
      <trkpt lat="45.614022" lon="7.538156">
        <ele>2256.309</ele>
        <time>2025-09-12T07:23:06Z</time>
      </trkpt>
      <trkpt lat="45.614000" lon="7.537455">
        <ele>2261.777</ele>
        <time>2025-09-12T07:24:10Z</time>
      </trkpt>
      <trkpt lat="45.613743" lon="7.536643">
        <ele>2268.388</ele>
        <time>2025-09-12T07:25:15Z</time>
      </trkpt>
      <trkpt lat="45.613916" lon="7.536241">
        <ele>2274.356</ele>
        <time>2025-09-12T07:25:55Z</time>
      </trkpt>
      <trkpt lat="45.613769" lon="7.535719">
        <ele>2277.150</ele>
        <time>2025-09-12T07:26:33Z</time>
      </trkpt>
      <trkpt lat="45.613291" lon="7.535315">
        <ele>2282.719</ele>
        <time>2025-09-12T07:27:31Z</time>
      </trkpt>
      <trkpt lat="45.612609" lon="7.533526">
        <ele>2288.945</ele>
        <time>2025-09-12T07:29:26Z</time>
      </trkpt>
      <trkpt lat="45.612900" lon="7.532961">
        <ele>2290.049</ele>
        <time>2025-09-12T07:33:11Z</time>
      </trkpt>
      <trkpt lat="45.612888" lon="7.532686">
        <ele>2287.090</ele>
        <time>2025-09-12T07:33:29Z</time>
      </trkpt>
      <trkpt lat="45.613156" lon="7.532312">
        <ele>2284.770</ele>
        <time>2025-09-12T07:34:19Z</time>
      </trkpt>
      <trkpt lat="45.613141" lon="7.531273">
        <ele>2286.881</ele>
        <time>2025-09-12T07:35:23Z</time>
      </trkpt>
      <trkpt lat="45.613490" lon="7.530277">
        <ele>2295.161</ele>
        <time>2025-09-12T07:36:36Z</time>
      </trkpt>
      <trkpt lat="45.613691" lon="7.528937">
        <ele>2302.617</ele>
        <time>2025-09-12T07:38:05Z</time>
      </trkpt>
      <trkpt lat="45.613513" lon="7.528778">
        <ele>2306.009</ele>
        <time>2025-09-12T07:38:28Z</time>
      </trkpt>
      <trkpt lat="45.613998" lon="7.528635">
        <ele>2317.750</ele>
        <time>2025-09-12T07:39:35Z</time>
      </trkpt>
      <trkpt lat="45.613976" lon="7.528417">
        <ele>2321.271</ele>
        <time>2025-09-12T07:39:56Z</time>
      </trkpt>
      <trkpt lat="45.614194" lon="7.528278">
        <ele>2325.119</ele>
        <time>2025-09-12T07:40:23Z</time>
      </trkpt>
      <trkpt lat="45.613740" lon="7.527646">
        <ele>2338.933</ele>
        <time>2025-09-12T07:41:50Z</time>
      </trkpt>
      <trkpt lat="45.613966" lon="7.527418">
        <ele>2344.932</ele>
        <time>2025-09-12T07:42:39Z</time>
      </trkpt>
      <trkpt lat="45.613662" lon="7.527185">
        <ele>2353.298</ele>
        <time>2025-09-12T07:43:27Z</time>
      </trkpt>
      <trkpt lat="45.614126" lon="7.527053">
        <ele>2360.842</ele>
        <time>2025-09-12T07:44:23Z</time>
      </trkpt>
      <trkpt lat="45.613866" lon="7.526885">
        <ele>2365.763</ele>
        <time>2025-09-12T07:45:04Z</time>
      </trkpt>
      <trkpt lat="45.613873" lon="7.526541">
        <ele>2369.343</ele>
        <time>2025-09-12T07:45:36Z</time>
      </trkpt>
      <trkpt lat="45.614216" lon="7.526657">
        <ele>2376.687</ele>
        <time>2025-09-12T07:46:32Z</time>
      </trkpt>
      <trkpt lat="45.614067" lon="7.526382">
        <ele>2379.742</ele>
        <time>2025-09-12T07:47:00Z</time>
      </trkpt>
      <trkpt lat="45.614128" lon="7.525887">
        <ele>2389.826</ele>
        <time>2025-09-12T07:47:58Z</time>
      </trkpt>
      <trkpt lat="45.614424" lon="7.526055">
        <ele>2398.809</ele>
        <time>2025-09-12T07:48:46Z</time>
      </trkpt>
      <trkpt lat="45.615176" lon="7.525899">
        <ele>2410.520</ele>
        <time>2025-09-12T07:50:12Z</time>
      </trkpt>
      <trkpt lat="45.616292" lon="7.526376">
        <ele>2431.761</ele>
        <time>2025-09-12T07:52:47Z</time>
      </trkpt>
      <trkpt lat="45.617332" lon="7.528111">
        <ele>2453.629</ele>
        <time>2025-09-12T07:55:59Z</time>
      </trkpt>
      <trkpt lat="45.617380" lon="7.527819">
        <ele>2459.793</ele>
        <time>2025-09-12T07:56:35Z</time>
      </trkpt>
      <trkpt lat="45.617630" lon="7.528708">
        <ele>2472.712</ele>
        <time>2025-09-12T07:58:02Z</time>
      </trkpt>
      <trkpt lat="45.617889" lon="7.529150">
        <ele>2479.228</ele>
        <time>2025-09-12T07:59:45Z</time>
      </trkpt>
      <trkpt lat="45.617700" lon="7.529556">
        <ele>2484.992</ele>
        <time>2025-09-12T08:00:27Z</time>
      </trkpt>
      <trkpt lat="45.617865" lon="7.530480">
        <ele>2496.563</ele>
        <time>2025-09-12T08:01:45Z</time>
      </trkpt>
      <trkpt lat="45.617916" lon="7.530589">
        <ele>2497.613</ele>
        <time>2025-09-12T08:01:56Z</time>
      </trkpt>
      <trkpt lat="45.617968" lon="7.530043">
        <ele>2504.518</ele>
        <time>2025-09-12T08:02:49Z</time>
      </trkpt>
      <trkpt lat="45.618153" lon="7.529619">
        <ele>2509.198</ele>
        <time>2025-09-12T08:03:40Z</time>
      </trkpt>
      <trkpt lat="45.618242" lon="7.530442">
        <ele>2518.817</ele>
        <time>2025-09-12T08:05:01Z</time>
      </trkpt>
      <trkpt lat="45.618650" lon="7.531326">
        <ele>2528.009</ele>
        <time>2025-09-12T08:06:24Z</time>
      </trkpt>
      <trkpt lat="45.618577" lon="7.530500">
        <ele>2537.343</ele>
        <time>2025-09-12T08:07:51Z</time>
      </trkpt>
      <trkpt lat="45.618723" lon="7.529953">
        <ele>2543.254</ele>
        <time>2025-09-12T08:08:38Z</time>
      </trkpt>
      <trkpt lat="45.618928" lon="7.530537">
        <ele>2553.872</ele>
        <time>2025-09-12T08:09:45Z</time>
      </trkpt>
      <trkpt lat="45.619332" lon="7.531165">
        <ele>2565.326</ele>
        <time>2025-09-12T08:11:02Z</time>
      </trkpt>
      <trkpt lat="45.619363" lon="7.530084">
        <ele>2582.945</ele>
        <time>2025-09-12T08:12:50Z</time>
      </trkpt>
      <trkpt lat="45.619544" lon="7.530728">
        <ele>2591.691</ele>
        <time>2025-09-12T08:13:51Z</time>
      </trkpt>
      <trkpt lat="45.619706" lon="7.530128">
        <ele>2601.735</ele>
        <time>2025-09-12T08:14:57Z</time>
      </trkpt>
      <trkpt lat="45.619778" lon="7.530685">
        <ele>2609.256</ele>
        <time>2025-09-12T08:15:50Z</time>
      </trkpt>
      <trkpt lat="45.619886" lon="7.530223">
        <ele>2617.036</ele>
        <time>2025-09-12T08:16:35Z</time>
      </trkpt>
      <trkpt lat="45.620044" lon="7.530063">
        <ele>2622.295</ele>
        <time>2025-09-12T08:17:02Z</time>
      </trkpt>
      <trkpt lat="45.620082" lon="7.530446">
        <ele>2632.549</ele>
        <time>2025-09-12T08:17:55Z</time>
      </trkpt>
      <trkpt lat="45.620330" lon="7.530617">
        <ele>2640.323</ele>
        <time>2025-09-12T08:18:56Z</time>
      </trkpt>
      <trkpt lat="45.620365" lon="7.531434">
        <ele>2657.309</ele>
        <time>2025-09-12T08:20:38Z</time>
      </trkpt>
      <trkpt lat="45.620560" lon="7.531066">
        <ele>2666.351</ele>
        <time>2025-09-12T08:21:33Z</time>
      </trkpt>
      <trkpt lat="45.620837" lon="7.531749">
        <ele>2684.862</ele>
        <time>2025-09-12T08:23:19Z</time>
      </trkpt>
      <trkpt lat="45.620951" lon="7.532485">
        <ele>2692.770</ele>
        <time>2025-09-12T08:25:34Z</time>
      </trkpt>
      <trkpt lat="45.621579" lon="7.533110">
        <ele>2704.914</ele>
        <time>2025-09-12T08:27:00Z</time>
      </trkpt>
      <trkpt lat="45.621691" lon="7.533585">
        <ele>2708.163</ele>
        <time>2025-09-12T08:27:37Z</time>
      </trkpt>
      <trkpt lat="45.621493" lon="7.534452">
        <ele>2716.099</ele>
        <time>2025-09-12T08:28:48Z</time>
      </trkpt>
      <trkpt lat="45.621920" lon="7.533905">
        <ele>2726.673</ele>
        <time>2025-09-12T08:30:31Z</time>
      </trkpt>
      <trkpt lat="45.622016" lon="7.533434">
        <ele>2730.854</ele>
        <time>2025-09-12T08:31:04Z</time>
      </trkpt>
      <trkpt lat="45.621964" lon="7.532987">
        <ele>2731.574</ele>
        <time>2025-09-12T08:31:34Z</time>
      </trkpt>
      <trkpt lat="45.622132" lon="7.533002">
        <ele>2735.533</ele>
        <time>2025-09-12T08:32:00Z</time>
      </trkpt>
      <trkpt lat="45.622109" lon="7.532729">
        <ele>2739.523</ele>
        <time>2025-09-12T08:32:29Z</time>
      </trkpt>
      <trkpt lat="45.622266" lon="7.532650">
        <ele>2741.915</ele>
        <time>2025-09-12T08:32:57Z</time>
      </trkpt>
      <trkpt lat="45.622224" lon="7.532298">
        <ele>2749.009</ele>
        <time>2025-09-12T08:33:30Z</time>
      </trkpt>
      <trkpt lat="45.622471" lon="7.532375">
        <ele>2753.995</ele>
        <time>2025-09-12T08:34:20Z</time>
      </trkpt>
      <trkpt lat="45.622200" lon="7.531530">
        <ele>2766.126</ele>
        <time>2025-09-12T08:35:38Z</time>
      </trkpt>
      <trkpt lat="45.622623" lon="7.531810">
        <ele>2774.634</ele>
        <time>2025-09-12T08:36:38Z</time>
      </trkpt>
      <trkpt lat="45.623158" lon="7.532495">
        <ele>2784.118</ele>
        <time>2025-09-12T08:38:10Z</time>
      </trkpt>
      <trkpt lat="45.624088" lon="7.533069">
        <ele>2797.337</ele>
        <time>2025-09-12T08:40:03Z</time>
      </trkpt>
      <trkpt lat="45.624326" lon="7.533402">
        <ele>2803.693</ele>
        <time>2025-09-12T08:40:44Z</time>
      </trkpt>
      <trkpt lat="45.624247" lon="7.533119">
        <ele>2808.947</ele>
        <time>2025-09-12T08:41:31Z</time>
      </trkpt>
      <trkpt lat="45.624421" lon="7.533198">
        <ele>2811.798</ele>
        <time>2025-09-12T08:41:53Z</time>
      </trkpt>
      <trkpt lat="45.625116" lon="7.532907">
        <ele>2816.738</ele>
        <time>2025-09-12T08:43:29Z</time>
      </trkpt>
      <trkpt lat="45.625631" lon="7.532992">
        <ele>2823.538</ele>
        <time>2025-09-12T08:44:25Z</time>
      </trkpt>
      <trkpt lat="45.625811" lon="7.533126">
        <ele>2826.770</ele>
        <time>2025-09-12T08:44:48Z</time>
      </trkpt>
      <trkpt lat="45.626212" lon="7.533006">
        <ele>2830.317</ele>
        <time>2025-09-12T08:45:37Z</time>
      </trkpt>
      <trkpt lat="45.626492" lon="7.533050">
        <ele>2832.309</ele>
        <time>2025-09-12T08:46:19Z</time>
      </trkpt>
      <trkpt lat="45.626613" lon="7.532932">
        <ele>2833.165</ele>
        <time>2025-09-12T08:46:39Z</time>
      </trkpt>
      <trkpt lat="45.626897" lon="7.533002">
        <ele>2838.736</ele>
        <time>2025-09-12T08:47:15Z</time>
      </trkpt>
      <trkpt lat="45.626912" lon="7.532831">
        <ele>2843.984</ele>
        <time>2025-09-12T08:47:50Z</time>
      </trkpt>
      <trkpt lat="45.627100" lon="7.532902">
        <ele>2846.638</ele>
        <time>2025-09-12T08:55:19Z</time>
      </trkpt>
      <trkpt lat="45.627084" lon="7.532666">
        <ele>2846.727</ele>
        <time>2025-09-12T08:55:34Z</time>
      </trkpt>
      <trkpt lat="45.627209" lon="7.532524">
        <ele>2844.663</ele>
        <time>2025-09-12T08:55:50Z</time>
      </trkpt>
      <trkpt lat="45.627062" lon="7.532887">
        <ele>2844.357</ele>
        <time>2025-09-12T08:56:36Z</time>
      </trkpt>
      <trkpt lat="45.627548" lon="7.533540">
        <ele>2845.088</ele>
        <time>2025-09-12T08:58:01Z</time>
      </trkpt>
      <trkpt lat="45.628131" lon="7.533954">
        <ele>2851.828</ele>
        <time>2025-09-12T08:59:36Z</time>
      </trkpt>
      <trkpt lat="45.628688" lon="7.534552">
        <ele>2860.327</ele>
        <time>2025-09-12T09:01:19Z</time>
      </trkpt>
      <trkpt lat="45.629389" lon="7.536212">
        <ele>2881.368</ele>
        <time>2025-09-12T09:05:26Z</time>
      </trkpt>
      <trkpt lat="45.629491" lon="7.536947">
        <ele>2894.314</ele>
        <time>2025-09-12T09:06:59Z</time>
      </trkpt>
      <trkpt lat="45.629720" lon="7.537583">
        <ele>2914.309</ele>
        <time>2025-09-12T09:08:59Z</time>
      </trkpt>
      <trkpt lat="45.629674" lon="7.538570">
        <ele>2934.234</ele>
        <time>2025-09-12T09:11:46Z</time>
      </trkpt>
      <trkpt lat="45.629809" lon="7.538769">
        <ele>2943.525</ele>
        <time>2025-09-12T09:13:03Z</time>
      </trkpt>
      <trkpt lat="45.629650" lon="7.539217">
        <ele>2958.253</ele>
        <time>2025-09-12T09:14:41Z</time>
      </trkpt>
      <trkpt lat="45.629791" lon="7.539393">
        <ele>2964.057</ele>
        <time>2025-09-12T09:16:09Z</time>
      </trkpt>
      <trkpt lat="45.629683" lon="7.539682">
        <ele>2980.616</ele>
        <time>2025-09-12T09:17:20Z</time>
      </trkpt>
      <trkpt lat="45.629739" lon="7.539870">
        <ele>2985.632</ele>
        <time>2025-09-12T09:18:16Z</time>
      </trkpt>
      <trkpt lat="45.629907" lon="7.539919">
        <ele>2996.626</ele>
        <time>2025-09-12T09:19:04Z</time>
      </trkpt>
      <trkpt lat="45.630052" lon="7.540295">
        <ele>3008.627</ele>
        <time>2025-09-12T09:20:34Z</time>
      </trkpt>
      <trkpt lat="45.630346" lon="7.540147">
        <ele>3022.267</ele>
        <time>2025-09-12T09:22:14Z</time>
      </trkpt>
      <trkpt lat="45.630396" lon="7.540251">
        <ele>3026.898</ele>
        <time>2025-09-12T09:22:40Z</time>
      </trkpt>
      <trkpt lat="45.630706" lon="7.540205">
        <ele>3046.715</ele>
        <time>2025-09-12T09:25:31Z</time>
      </trkpt>
      <trkpt lat="45.630802" lon="7.540427">
        <ele>3055.826</ele>
        <time>2025-09-12T09:26:16Z</time>
      </trkpt>
      <trkpt lat="45.630921" lon="7.540239">
        <ele>3064.409</ele>
        <time>2025-09-12T09:27:22Z</time>
      </trkpt>
      <trkpt lat="45.631189" lon="7.540370">
        <ele>3082.791</ele>
        <time>2025-09-12T09:29:16Z</time>
      </trkpt>
      <trkpt lat="45.631502" lon="7.539442">
        <ele>3112.212</ele>
        <time>2025-09-12T09:39:30Z</time>
      </trkpt>
      <trkpt lat="45.631142" lon="7.540356">
        <ele>3094.240</ele>
        <time>2025-09-12T09:57:53Z</time>
      </trkpt>
      <trkpt lat="45.630952" lon="7.540244">
        <ele>3081.024</ele>
        <time>2025-09-12T09:58:47Z</time>
      </trkpt>
      <trkpt lat="45.630780" lon="7.540492">
        <ele>3065.453</ele>
        <time>2025-09-12T09:59:46Z</time>
      </trkpt>
      <trkpt lat="45.630627" lon="7.540444">
        <ele>3054.529</ele>
        <time>2025-09-12T10:00:51Z</time>
      </trkpt>
      <trkpt lat="45.630377" lon="7.540688">
        <ele>3035.463</ele>
        <time>2025-09-12T10:01:56Z</time>
      </trkpt>
      <trkpt lat="45.630143" lon="7.540724">
        <ele>3022.924</ele>
        <time>2025-09-12T10:02:49Z</time>
      </trkpt>
      <trkpt lat="45.629796" lon="7.540369">
        <ele>3005.324</ele>
        <time>2025-09-12T10:04:23Z</time>
      </trkpt>
      <trkpt lat="45.629656" lon="7.539935">
        <ele>2995.556</ele>
        <time>2025-09-12T10:05:18Z</time>
      </trkpt>
      <trkpt lat="45.629820" lon="7.539499">
        <ele>2982.759</ele>
        <time>2025-09-12T10:07:58Z</time>
      </trkpt>
      <trkpt lat="45.629714" lon="7.539277">
        <ele>2974.114</ele>
        <time>2025-09-12T10:09:52Z</time>
      </trkpt>
      <trkpt lat="45.629772" lon="7.538965">
        <ele>2958.909</ele>
        <time>2025-09-12T10:10:50Z</time>
      </trkpt>
      <trkpt lat="45.629595" lon="7.538884">
        <ele>2951.257</ele>
        <time>2025-09-12T10:11:29Z</time>
      </trkpt>
      <trkpt lat="45.629633" lon="7.538687">
        <ele>2942.888</ele>
        <time>2025-09-12T10:12:03Z</time>
      </trkpt>
      <trkpt lat="45.629536" lon="7.538715">
        <ele>2938.676</ele>
        <time>2025-09-12T10:12:17Z</time>
      </trkpt>
      <trkpt lat="45.629734" lon="7.537583">
        <ele>2920.710</ele>
        <time>2025-09-12T10:15:01Z</time>
      </trkpt>
      <trkpt lat="45.629437" lon="7.536143">
        <ele>2886.069</ele>
        <time>2025-09-12T10:21:21Z</time>
      </trkpt>
      <trkpt lat="45.629306" lon="7.536066">
        <ele>2884.515</ele>
        <time>2025-09-12T10:21:47Z</time>
      </trkpt>
      <trkpt lat="45.628714" lon="7.534503">
        <ele>2862.689</ele>
        <time>2025-09-12T10:26:07Z</time>
      </trkpt>
      <trkpt lat="45.627513" lon="7.533457">
        <ele>2841.570</ele>
        <time>2025-09-12T10:28:44Z</time>
      </trkpt>
      <trkpt lat="45.627093" lon="7.532865">
        <ele>2841.920</ele>
        <time>2025-09-12T10:32:11Z</time>
      </trkpt>
      <trkpt lat="45.626943" lon="7.532796">
        <ele>2842.764</ele>
        <time>2025-09-12T10:34:37Z</time>
      </trkpt>
      <trkpt lat="45.626923" lon="7.532981">
        <ele>2841.606</ele>
        <time>2025-09-12T10:35:41Z</time>
      </trkpt>
      <trkpt lat="45.626580" lon="7.532975">
        <ele>2833.516</ele>
        <time>2025-09-12T10:37:17Z</time>
      </trkpt>
      <trkpt lat="45.626517" lon="7.533082">
        <ele>2832.609</ele>
        <time>2025-09-12T10:37:29Z</time>
      </trkpt>
      <trkpt lat="45.626194" lon="7.532984">
        <ele>2827.338</ele>
        <time>2025-09-12T10:38:01Z</time>
      </trkpt>
      <trkpt lat="45.625955" lon="7.533121">
        <ele>2825.629</ele>
        <time>2025-09-12T10:38:28Z</time>
      </trkpt>
      <trkpt lat="45.625069" lon="7.532905">
        <ele>2814.967</ele>
        <time>2025-09-12T10:40:47Z</time>
      </trkpt>
      <trkpt lat="45.624361" lon="7.533200">
        <ele>2808.461</ele>
        <time>2025-09-12T10:42:14Z</time>
      </trkpt>
      <trkpt lat="45.624328" lon="7.533399">
        <ele>2806.020</ele>
        <time>2025-09-12T10:42:33Z</time>
      </trkpt>
      <trkpt lat="45.623761" lon="7.532818">
        <ele>2791.536</ele>
        <time>2025-09-12T10:43:45Z</time>
      </trkpt>
      <trkpt lat="45.623183" lon="7.532569">
        <ele>2784.430</ele>
        <time>2025-09-12T10:44:56Z</time>
      </trkpt>
      <trkpt lat="45.622200" lon="7.531514">
        <ele>2766.041</ele>
        <time>2025-09-12T10:47:14Z</time>
      </trkpt>
      <trkpt lat="45.622467" lon="7.532434">
        <ele>2754.521</ele>
        <time>2025-09-12T10:48:32Z</time>
      </trkpt>
      <trkpt lat="45.622261" lon="7.532300">
        <ele>2749.058</ele>
        <time>2025-09-12T10:49:05Z</time>
      </trkpt>
      <trkpt lat="45.622105" lon="7.532560">
        <ele>2743.352</ele>
        <time>2025-09-12T10:49:36Z</time>
      </trkpt>
      <trkpt lat="45.622118" lon="7.533033">
        <ele>2734.517</ele>
        <time>2025-09-12T10:50:40Z</time>
      </trkpt>
      <trkpt lat="45.621944" lon="7.532999">
        <ele>2732.209</ele>
        <time>2025-09-12T10:51:04Z</time>
      </trkpt>
      <trkpt lat="45.621941" lon="7.533819">
        <ele>2725.077</ele>
        <time>2025-09-12T10:51:56Z</time>
      </trkpt>
      <trkpt lat="45.621507" lon="7.534460">
        <ele>2716.738</ele>
        <time>2025-09-12T10:52:55Z</time>
      </trkpt>
      <trkpt lat="45.621690" lon="7.533532">
        <ele>2705.266</ele>
        <time>2025-09-12T10:54:04Z</time>
      </trkpt>
      <trkpt lat="45.621564" lon="7.533170">
        <ele>2702.830</ele>
        <time>2025-09-12T10:54:29Z</time>
      </trkpt>
      <trkpt lat="45.620919" lon="7.532377">
        <ele>2692.119</ele>
        <time>2025-09-12T10:55:50Z</time>
      </trkpt>
      <trkpt lat="45.620873" lon="7.531920">
        <ele>2685.895</ele>
        <time>2025-09-12T10:56:30Z</time>
      </trkpt>
      <trkpt lat="45.620557" lon="7.531024">
        <ele>2669.499</ele>
        <time>2025-09-12T10:58:05Z</time>
      </trkpt>
      <trkpt lat="45.620337" lon="7.531378">
        <ele>2658.540</ele>
        <time>2025-09-12T10:59:18Z</time>
      </trkpt>
      <trkpt lat="45.620327" lon="7.530718">
        <ele>2643.590</ele>
        <time>2025-09-12T11:00:19Z</time>
      </trkpt>
      <trkpt lat="45.620259" lon="7.530543">
        <ele>2640.872</ele>
        <time>2025-09-12T11:00:35Z</time>
      </trkpt>
      <trkpt lat="45.620066" lon="7.530461">
        <ele>2634.713</ele>
        <time>2025-09-12T11:01:03Z</time>
      </trkpt>
      <trkpt lat="45.620060" lon="7.530055">
        <ele>2626.014</ele>
        <time>2025-09-12T11:01:39Z</time>
      </trkpt>
      <trkpt lat="45.619867" lon="7.530231">
        <ele>2617.809</ele>
        <time>2025-09-12T11:02:10Z</time>
      </trkpt>
      <trkpt lat="45.619779" lon="7.530666">
        <ele>2610.729</ele>
        <time>2025-09-12T11:02:41Z</time>
      </trkpt>
      <trkpt lat="45.619627" lon="7.530175">
        <ele>2601.440</ele>
        <time>2025-09-12T11:03:48Z</time>
      </trkpt>
      <trkpt lat="45.619539" lon="7.530730">
        <ele>2591.978</ele>
        <time>2025-09-12T11:04:31Z</time>
      </trkpt>
      <trkpt lat="45.619335" lon="7.530126">
        <ele>2582.132</ele>
        <time>2025-09-12T11:05:48Z</time>
      </trkpt>
      <trkpt lat="45.619318" lon="7.531223">
        <ele>2566.091</ele>
        <time>2025-09-12T11:07:23Z</time>
      </trkpt>
      <trkpt lat="45.618908" lon="7.530588">
        <ele>2552.657</ele>
        <time>2025-09-12T11:08:24Z</time>
      </trkpt>
      <trkpt lat="45.618735" lon="7.529962">
        <ele>2543.021</ele>
        <time>2025-09-12T11:09:25Z</time>
      </trkpt>
      <trkpt lat="45.618577" lon="7.530466">
        <ele>2535.322</ele>
        <time>2025-09-12T11:10:17Z</time>
      </trkpt>
      <trkpt lat="45.618649" lon="7.531372">
        <ele>2525.262</ele>
        <time>2025-09-12T11:11:19Z</time>
      </trkpt>
      <trkpt lat="45.618232" lon="7.530465">
        <ele>2514.762</ele>
        <time>2025-09-12T11:13:04Z</time>
      </trkpt>
      <trkpt lat="45.618162" lon="7.529661">
        <ele>2506.483</ele>
        <time>2025-09-12T11:13:58Z</time>
      </trkpt>
      <trkpt lat="45.617981" lon="7.530004">
        <ele>2501.311</ele>
        <time>2025-09-12T11:14:30Z</time>
      </trkpt>
      <trkpt lat="45.617886" lon="7.530595">
        <ele>2494.009</ele>
        <time>2025-09-12T11:15:15Z</time>
      </trkpt>
      <trkpt lat="45.617691" lon="7.529635">
        <ele>2481.968</ele>
        <time>2025-09-12T11:16:16Z</time>
      </trkpt>
      <trkpt lat="45.617872" lon="7.529144">
        <ele>2474.759</ele>
        <time>2025-09-12T11:17:18Z</time>
      </trkpt>
      <trkpt lat="45.617359" lon="7.527824">
        <ele>2455.527</ele>
        <time>2025-09-12T11:23:30Z</time>
      </trkpt>
      <trkpt lat="45.617326" lon="7.528150">
        <ele>2450.631</ele>
        <time>2025-09-12T11:23:53Z</time>
      </trkpt>
      <trkpt lat="45.616260" lon="7.526368">
        <ele>2425.110</ele>
        <time>2025-09-12T11:29:08Z</time>
      </trkpt>
      <trkpt lat="45.615140" lon="7.525908">
        <ele>2404.756</ele>
        <time>2025-09-12T11:31:13Z</time>
      </trkpt>
      <trkpt lat="45.614408" lon="7.526076">
        <ele>2393.110</ele>
        <time>2025-09-12T11:32:38Z</time>
      </trkpt>
      <trkpt lat="45.614157" lon="7.525834">
        <ele>2388.121</ele>
        <time>2025-09-12T11:33:08Z</time>
      </trkpt>
      <trkpt lat="45.614089" lon="7.526469">
        <ele>2373.761</ele>
        <time>2025-09-12T11:34:11Z</time>
      </trkpt>
      <trkpt lat="45.613746" lon="7.526474">
        <ele>2361.941</ele>
        <time>2025-09-12T11:34:53Z</time>
      </trkpt>
      <trkpt lat="45.613975" lon="7.527022">
        <ele>2355.781</ele>
        <time>2025-09-12T11:35:32Z</time>
      </trkpt>
      <trkpt lat="45.613793" lon="7.527220">
        <ele>2348.909</ele>
        <time>2025-09-12T11:36:00Z</time>
      </trkpt>
      <trkpt lat="45.613860" lon="7.527516">
        <ele>2339.709</ele>
        <time>2025-09-12T11:36:45Z</time>
      </trkpt>
      <trkpt lat="45.613750" lon="7.527649">
        <ele>2333.856</ele>
        <time>2025-09-12T11:37:00Z</time>
      </trkpt>
      <trkpt lat="45.614010" lon="7.527925">
        <ele>2326.387</ele>
        <time>2025-09-12T11:37:39Z</time>
      </trkpt>
      <trkpt lat="45.614034" lon="7.528524">
        <ele>2313.895</ele>
        <time>2025-09-12T11:38:29Z</time>
      </trkpt>
      <trkpt lat="45.613833" lon="7.528715">
        <ele>2308.899</ele>
        <time>2025-09-12T11:39:05Z</time>
      </trkpt>
      <trkpt lat="45.613527" lon="7.528746">
        <ele>2302.198</ele>
        <time>2025-09-12T11:39:38Z</time>
      </trkpt>
      <trkpt lat="45.613684" lon="7.528933">
        <ele>2296.534</ele>
        <time>2025-09-12T11:40:01Z</time>
      </trkpt>
      <trkpt lat="45.613533" lon="7.529147">
        <ele>2291.358</ele>
        <time>2025-09-12T11:41:35Z</time>
      </trkpt>
      <trkpt lat="45.613520" lon="7.530207">
        <ele>2286.229</ele>
        <time>2025-09-12T12:08:46Z</time>
      </trkpt>
      <trkpt lat="45.613136" lon="7.531331">
        <ele>2277.699</ele>
        <time>2025-09-12T12:10:00Z</time>
      </trkpt>
      <trkpt lat="45.613158" lon="7.532193">
        <ele>2273.818</ele>
        <time>2025-09-12T12:10:51Z</time>
      </trkpt>
      <trkpt lat="45.612619" lon="7.533564">
        <ele>2278.698</ele>
        <time>2025-09-12T12:13:50Z</time>
      </trkpt>
      <trkpt lat="45.613294" lon="7.535318">
        <ele>2273.417</ele>
        <time>2025-09-12T12:15:47Z</time>
      </trkpt>
      <trkpt lat="45.613782" lon="7.535699">
        <ele>2268.609</ele>
        <time>2025-09-12T12:16:30Z</time>
      </trkpt>
      <trkpt lat="45.613872" lon="7.535958">
        <ele>2266.963</ele>
        <time>2025-09-12T12:16:46Z</time>
      </trkpt>
      <trkpt lat="45.613926" lon="7.536303">
        <ele>2263.714</ele>
        <time>2025-09-12T12:17:06Z</time>
      </trkpt>
      <trkpt lat="45.613756" lon="7.536631">
        <ele>2262.112</ele>
        <time>2025-09-12T12:17:30Z</time>
      </trkpt>
      <trkpt lat="45.614224" lon="7.538561">
        <ele>2245.176</ele>
        <time>2025-09-12T12:19:29Z</time>
      </trkpt>
      <trkpt lat="45.614165" lon="7.539241">
        <ele>2233.665</ele>
        <time>2025-09-12T12:20:09Z</time>
      </trkpt>
      <trkpt lat="45.614805" lon="7.542383">
        <ele>2214.041</ele>
        <time>2025-09-12T12:23:12Z</time>
      </trkpt>
      <trkpt lat="45.614871" lon="7.543800">
        <ele>2200.885</ele>
        <time>2025-09-12T12:25:36Z</time>
      </trkpt>
      <trkpt lat="45.614777" lon="7.544063">
        <ele>2197.146</ele>
        <time>2025-09-12T12:25:54Z</time>
      </trkpt>
      <trkpt lat="45.613954" lon="7.545014">
        <ele>2181.236</ele>
        <time>2025-09-12T12:27:16Z</time>
      </trkpt>
      <trkpt lat="45.613771" lon="7.546786">
        <ele>2163.922</ele>
        <time>2025-09-12T12:28:56Z</time>
      </trkpt>
      <trkpt lat="45.613071" lon="7.549145">
        <ele>2155.362</ele>
        <time>2025-09-12T12:31:06Z</time>
      </trkpt>
      <trkpt lat="45.612947" lon="7.550480">
        <ele>2149.508</ele>
        <time>2025-09-12T12:32:15Z</time>
      </trkpt>
      <trkpt lat="45.612790" lon="7.550954">
        <ele>2145.309</ele>
        <time>2025-09-12T12:32:42Z</time>
      </trkpt>
      <trkpt lat="45.612516" lon="7.551296">
        <ele>2142.014</ele>
        <time>2025-09-12T12:33:10Z</time>
      </trkpt>
      <trkpt lat="45.612311" lon="7.551279">
        <ele>2140.045</ele>
        <time>2025-09-12T12:33:25Z</time>
      </trkpt>
      <trkpt lat="45.612145" lon="7.551114">
        <ele>2138.653</ele>
        <time>2025-09-12T12:33:41Z</time>
      </trkpt>
      <trkpt lat="45.611965" lon="7.551282">
        <ele>2135.827</ele>
        <time>2025-09-12T12:33:58Z</time>
      </trkpt>
      <trkpt lat="45.612036" lon="7.551547">
        <ele>2135.546</ele>
        <time>2025-09-12T12:34:18Z</time>
      </trkpt>
      <trkpt lat="45.611940" lon="7.551580">
        <ele>2135.472</ele>
        <time>2025-09-12T12:34:44Z</time>
      </trkpt>
      <trkpt lat="45.611978" lon="7.551391">
        <ele>2135.276</ele>
        <time>2025-09-12T13:04:35.017Z</time>
      </trkpt>
      <trkpt lat="45.611964" lon="7.551539">
        <ele>2134.827</ele>
        <time>2025-09-12T13:08:50.016Z</time>
      </trkpt>
      <trkpt lat="45.612353" lon="7.552165">
        <ele>2130.347</ele>
        <time>2025-09-12T13:10:34Z</time>
      </trkpt>
      <trkpt lat="45.612853" lon="7.552308">
        <ele>2124.488</ele>
        <time>2025-09-12T13:11:30Z</time>
      </trkpt>
      <trkpt lat="45.613328" lon="7.552704">
        <ele>2108.724</ele>
        <time>2025-09-12T13:12:27Z</time>
      </trkpt>
      <trkpt lat="45.614839" lon="7.553157">
        <ele>2062.326</ele>
        <time>2025-09-12T13:15:13Z</time>
      </trkpt>
      <trkpt lat="45.615488" lon="7.553075">
        <ele>2056.909</ele>
        <time>2025-09-12T13:16:23Z</time>
      </trkpt>
      <trkpt lat="45.616088" lon="7.553715">
        <ele>2059.820</ele>
        <time>2025-09-12T13:17:34Z</time>
      </trkpt>
      <trkpt lat="45.616117" lon="7.553916">
        <ele>2058.171</ele>
        <time>2025-09-12T13:17:45Z</time>
      </trkpt>
      <trkpt lat="45.616340" lon="7.553915">
        <ele>2054.049</ele>
        <time>2025-09-12T13:18:07Z</time>
      </trkpt>
      <trkpt lat="45.616633" lon="7.554345">
        <ele>2048.153</ele>
        <time>2025-09-12T13:18:39Z</time>
      </trkpt>
      <trkpt lat="45.616634" lon="7.554859">
        <ele>2048.232</ele>
        <time>2025-09-12T13:19:09Z</time>
      </trkpt>
      <trkpt lat="45.616436" lon="7.555454">
        <ele>2053.658</ele>
        <time>2025-09-12T13:19:59Z</time>
      </trkpt>
      <trkpt lat="45.616586" lon="7.555790">
        <ele>2058.082</ele>
        <time>2025-09-12T13:20:31Z</time>
      </trkpt>
    </trkseg>
  </trk></gpx>