<?xml version="1.0" encoding="UTF-8"?>
<gpx creator="Wikiloc - https://www.wikiloc.com" version="1.1" xmlns="http://www.topografix.com/GPX/1/1" xmlns:xsi="http://www.w3.org/2001/XMLSchema-instance" xsi:schemaLocation="http://www.topografix.com/GPX/1/1 http://www.topografix.com/GPX/1/1/gpx.xsd">
  <metadata>
    <name>Wikiloc - Monte Vettore, Rifugio Zilioli e Monte Vettoretto da Forca d...</name>
    <link href="https://www.wikiloc.com/hiking-trails/monte-vettore-rifugio-zilioli-e-monte-vettoretto-da-forca-di-presta-al-chiaro-di-luna-282683847">
      <text>Monte Vettore, Rifugio Zilioli e Monte Vettoretto da Forca d... on Wikiloc</text>
    </link>
    <time>2026-08-29T06:28:38Z</time>
  </metadata>
  <trk>
    <name>Monte Vettore, Rifugio Zilioli e Monte Vettoretto da Forca d... - Wikiloc</name>
    <cmt></cmt>
    <desc></desc>
    <trkseg>
      <trkpt lat="42.789255" lon="13.260508">
        <ele>1545.071</ele>
        <time>2026-08-29T00:14:25Z</time>
      </trkpt>
      <trkpt lat="42.789169" lon="13.260500">
        <ele>1545.041</ele>
        <time>2026-08-29T00:14:28Z</time>
      </trkpt>
      <trkpt lat="42.789233" lon="13.260448">
        <ele>1544.515</ele>
        <time>2026-08-29T00:14:39Z</time>
      </trkpt>
      <trkpt lat="42.789243" lon="13.260509">
        <ele>1540.509</ele>
        <time>2026-08-29T00:15:07Z</time>
      </trkpt>
      <trkpt lat="42.789192" lon="13.260520">
        <ele>1539.549</ele>
        <time>2026-08-29T00:15:22Z</time>
      </trkpt>
      <trkpt lat="42.789302" lon="13.260498">
        <ele>1539.045</ele>
        <time>2026-08-29T00:16:07Z</time>
      </trkpt>
      <trkpt lat="42.789245" lon="13.260520">
        <ele>1538.069</ele>
        <time>2026-08-29T00:17:17Z</time>
      </trkpt>
      <trkpt lat="42.789340" lon="13.260527">
        <ele>1537.033</ele>
        <time>2026-08-29T00:17:44Z</time>
      </trkpt>
      <trkpt lat="42.789435" lon="13.260598">
        <ele>1537.095</ele>
        <time>2026-08-29T00:17:56Z</time>
      </trkpt>
      <trkpt lat="42.789431" lon="13.260652">
        <ele>1537.020</ele>
        <time>2026-08-29T00:18:02Z</time>
      </trkpt>
      <trkpt lat="42.789434" lon="13.260586">
        <ele>1536.025</ele>
        <time>2026-08-29T00:18:21Z</time>
      </trkpt>
      <trkpt lat="42.789308" lon="13.260529">
        <ele>1535.521</ele>
        <time>2026-08-29T00:18:35Z</time>
      </trkpt>
      <trkpt lat="42.789436" lon="13.260564">
        <ele>1534.084</ele>
        <time>2026-08-29T00:20:29Z</time>
      </trkpt>
      <trkpt lat="42.789406" lon="13.260578">
        <ele>1534.045</ele>
        <time>2026-08-29T00:21:23Z</time>
      </trkpt>
      <trkpt lat="42.789444" lon="13.260630">
        <ele>1535.047</ele>
        <time>2026-08-29T00:23:22Z</time>
      </trkpt>
      <trkpt lat="42.789412" lon="13.260614">
        <ele>1535.011</ele>
        <time>2026-08-29T00:23:27Z</time>
      </trkpt>
      <trkpt lat="42.789474" lon="13.260589">
        <ele>1537.009</ele>
        <time>2026-08-29T00:24:10Z</time>
      </trkpt>
      <trkpt lat="42.789424" lon="13.260579">
        <ele>1536.066</ele>
        <time>2026-08-29T00:24:13Z</time>
      </trkpt>
      <trkpt lat="42.789509" lon="13.260609">
        <ele>1531.032</ele>
        <time>2026-08-29T00:25:39Z</time>
      </trkpt>
      <trkpt lat="42.789454" lon="13.260637">
        <ele>1531.056</ele>
        <time>2026-08-29T00:26:15Z</time>
      </trkpt>
      <trkpt lat="42.789552" lon="13.260617">
        <ele>1531.020</ele>
        <time>2026-08-29T00:26:26Z</time>
      </trkpt>
      <trkpt lat="42.789519" lon="13.260624">
        <ele>1531.082</ele>
        <time>2026-08-29T00:26:47Z</time>
      </trkpt>
      <trkpt lat="42.789617" lon="13.260654">
        <ele>1533.067</ele>
        <time>2026-08-29T00:27:02Z</time>
      </trkpt>
      <trkpt lat="42.789634" lon="13.260714">
        <ele>1533.592</ele>
        <time>2026-08-29T00:27:05Z</time>
      </trkpt>
      <trkpt lat="42.789849" lon="13.260752">
        <ele>1533.518</ele>
        <time>2026-08-29T00:27:25Z</time>
      </trkpt>
      <trkpt lat="42.790115" lon="13.260727">
        <ele>1529.061</ele>
        <time>2026-08-29T00:28:10Z</time>
      </trkpt>
      <trkpt lat="42.790183" lon="13.260644">
        <ele>1529.027</ele>
        <time>2026-08-29T00:28:27Z</time>
      </trkpt>
      <trkpt lat="42.790258" lon="13.260676">
        <ele>1529.568</ele>
        <time>2026-08-29T00:28:39Z</time>
      </trkpt>
      <trkpt lat="42.790308" lon="13.260639">
        <ele>1530.014</ele>
        <time>2026-08-29T00:28:46Z</time>
      </trkpt>
      <trkpt lat="42.790444" lon="13.260651">
        <ele>1533.509</ele>
        <time>2026-08-29T00:29:04Z</time>
      </trkpt>
      <trkpt lat="42.790591" lon="13.260425">
        <ele>1541.084</ele>
        <time>2026-08-29T00:29:37Z</time>
      </trkpt>
      <trkpt lat="42.790765" lon="13.260276">
        <ele>1542.030</ele>
        <time>2026-08-29T00:30:03Z</time>
      </trkpt>
      <trkpt lat="42.790818" lon="13.260072">
        <ele>1546.034</ele>
        <time>2026-08-29T00:30:29Z</time>
      </trkpt>
      <trkpt lat="42.791103" lon="13.259633">
        <ele>1553.028</ele>
        <time>2026-08-29T00:31:53Z</time>
      </trkpt>
      <trkpt lat="42.791626" lon="13.259235">
        <ele>1565.020</ele>
        <time>2026-08-29T00:33:39Z</time>
      </trkpt>
      <trkpt lat="42.791711" lon="13.259104">
        <ele>1566.055</ele>
        <time>2026-08-29T00:33:57Z</time>
      </trkpt>
      <trkpt lat="42.791875" lon="13.259044">
        <ele>1568.030</ele>
        <time>2026-08-29T00:34:18Z</time>
      </trkpt>
      <trkpt lat="42.791987" lon="13.258943">
        <ele>1570.076</ele>
        <time>2026-08-29T00:34:35Z</time>
      </trkpt>
      <trkpt lat="42.792110" lon="13.258968">
        <ele>1571.079</ele>
        <time>2026-08-29T00:34:57Z</time>
      </trkpt>
      <trkpt lat="42.792256" lon="13.259187">
        <ele>1576.094</ele>
        <time>2026-08-29T00:35:41Z</time>
      </trkpt>
      <trkpt lat="42.792416" lon="13.259298">
        <ele>1580.057</ele>
        <time>2026-08-29T00:36:13Z</time>
      </trkpt>
      <trkpt lat="42.793080" lon="13.258874">
        <ele>1597.522</ele>
        <time>2026-08-29T00:38:46Z</time>
      </trkpt>
      <trkpt lat="42.793348" lon="13.258775">
        <ele>1607.009</ele>
        <time>2026-08-29T00:39:46Z</time>
      </trkpt>
      <trkpt lat="42.793419" lon="13.258796">
        <ele>1609.041</ele>
        <time>2026-08-29T00:40:11Z</time>
      </trkpt>
      <trkpt lat="42.793520" lon="13.258686">
        <ele>1613.057</ele>
        <time>2026-08-29T00:40:36Z</time>
      </trkpt>
      <trkpt lat="42.793925" lon="13.258609">
        <ele>1625.091</ele>
        <time>2026-08-29T00:42:10Z</time>
      </trkpt>
      <trkpt lat="42.794286" lon="13.258438">
        <ele>1636.055</ele>
        <time>2026-08-29T00:43:34Z</time>
      </trkpt>
      <trkpt lat="42.794609" lon="13.258389">
        <ele>1645.047</ele>
        <time>2026-08-29T00:44:39Z</time>
      </trkpt>
      <trkpt lat="42.794864" lon="13.258261">
        <ele>1655.072</ele>
        <time>2026-08-29T00:45:53Z</time>
      </trkpt>
      <trkpt lat="42.795017" lon="13.258268">
        <ele>1657.057</ele>
        <time>2026-08-29T00:46:20Z</time>
      </trkpt>
      <trkpt lat="42.795077" lon="13.258226">
        <ele>1657.543</ele>
        <time>2026-08-29T00:46:30Z</time>
      </trkpt>
      <trkpt lat="42.795412" lon="13.258266">
        <ele>1662.556</ele>
        <time>2026-08-29T00:47:15Z</time>
      </trkpt>
      <trkpt lat="42.795584" lon="13.258350">
        <ele>1666.079</ele>
        <time>2026-08-29T00:47:38Z</time>
      </trkpt>
      <trkpt lat="42.795805" lon="13.258659">
        <ele>1669.005</ele>
        <time>2026-08-29T00:48:26Z</time>
      </trkpt>
      <trkpt lat="42.795813" lon="13.258717">
        <ele>1669.025</ele>
        <time>2026-08-29T00:48:31Z</time>
      </trkpt>
      <trkpt lat="42.795744" lon="13.258760">
        <ele>1670.009</ele>
        <time>2026-08-29T00:48:59Z</time>
      </trkpt>
      <trkpt lat="42.795780" lon="13.258792">
        <ele>1671.019</ele>
        <time>2026-08-29T00:49:16Z</time>
      </trkpt>
      <trkpt lat="42.796031" lon="13.258760">
        <ele>1687.085</ele>
        <time>2026-08-29T00:49:55Z</time>
      </trkpt>
      <trkpt lat="42.796360" lon="13.258834">
        <ele>1687.079</ele>
        <time>2026-08-29T00:50:41Z</time>
      </trkpt>
      <trkpt lat="42.796670" lon="13.258737">
        <ele>1691.083</ele>
        <time>2026-08-29T00:51:26Z</time>
      </trkpt>
      <trkpt lat="42.797055" lon="13.258875">
        <ele>1694.075</ele>
        <time>2026-08-29T00:52:17Z</time>
      </trkpt>
      <trkpt lat="42.797253" lon="13.258887">
        <ele>1694.060</ele>
        <time>2026-08-29T00:52:38Z</time>
      </trkpt>
      <trkpt lat="42.797448" lon="13.259045">
        <ele>1697.035</ele>
        <time>2026-08-29T00:53:10Z</time>
      </trkpt>
      <trkpt lat="42.797636" lon="13.259033">
        <ele>1697.081</ele>
        <time>2026-08-29T00:53:33Z</time>
      </trkpt>
      <trkpt lat="42.797780" lon="13.259091">
        <ele>1698.024</ele>
        <time>2026-08-29T00:53:53Z</time>
      </trkpt>
      <trkpt lat="42.798059" lon="13.259401">
        <ele>1705.083</ele>
        <time>2026-08-29T00:54:39Z</time>
      </trkpt>
      <trkpt lat="42.798186" lon="13.259471">
        <ele>1708.025</ele>
        <time>2026-08-29T00:55:00Z</time>
      </trkpt>
      <trkpt lat="42.798300" lon="13.259400">
        <ele>1709.517</ele>
        <time>2026-08-29T00:55:17Z</time>
      </trkpt>
      <trkpt lat="42.798535" lon="13.259057">
        <ele>1717.009</ele>
        <time>2026-08-29T00:56:04Z</time>
      </trkpt>
      <trkpt lat="42.798777" lon="13.258821">
        <ele>1720.010</ele>
        <time>2026-08-29T00:56:50Z</time>
      </trkpt>
      <trkpt lat="42.798844" lon="13.258811">
        <ele>1721.556</ele>
        <time>2026-08-29T00:56:59Z</time>
      </trkpt>
      <trkpt lat="42.798847" lon="13.258857">
        <ele>1722.030</ele>
        <time>2026-08-29T00:57:04Z</time>
      </trkpt>
      <trkpt lat="42.798785" lon="13.258888">
        <ele>1723.034</ele>
        <time>2026-08-29T00:57:20Z</time>
      </trkpt>
      <trkpt lat="42.798820" lon="13.258852">
        <ele>1723.036</ele>
        <time>2026-08-29T00:57:28Z</time>
      </trkpt>
      <trkpt lat="42.798849" lon="13.258912">
        <ele>1732.571</ele>
        <time>2026-08-29T00:57:33Z</time>
      </trkpt>
      <trkpt lat="42.798921" lon="13.258915">
        <ele>1737.036</ele>
        <time>2026-08-29T00:57:42Z</time>
      </trkpt>
      <trkpt lat="42.799018" lon="13.259003">
        <ele>1739.582</ele>
        <time>2026-08-29T00:57:58Z</time>
      </trkpt>
      <trkpt lat="42.799026" lon="13.259125">
        <ele>1740.065</ele>
        <time>2026-08-29T00:58:09Z</time>
      </trkpt>
      <trkpt lat="42.799151" lon="13.259406">
        <ele>1741.073</ele>
        <time>2026-08-29T00:58:43Z</time>
      </trkpt>
      <trkpt lat="42.799134" lon="13.259551">
        <ele>1742.085</ele>
        <time>2026-08-29T00:59:16Z</time>
      </trkpt>
      <trkpt lat="42.799253" lon="13.259755">
        <ele>1758.013</ele>
        <time>2026-08-29T00:59:43Z</time>
      </trkpt>
      <trkpt lat="42.799447" lon="13.259869">
        <ele>1756.009</ele>
        <time>2026-08-29T01:00:07Z</time>
      </trkpt>
      <trkpt lat="42.799698" lon="13.259844">
        <ele>1755.069</ele>
        <time>2026-08-29T01:00:33Z</time>
      </trkpt>
      <trkpt lat="42.799973" lon="13.259744">
        <ele>1755.025</ele>
        <time>2026-08-29T01:01:10Z</time>
      </trkpt>
      <trkpt lat="42.800199" lon="13.259526">
        <ele>1759.059</ele>
        <time>2026-08-29T01:01:51Z</time>
      </trkpt>
      <trkpt lat="42.800392" lon="13.259509">
        <ele>1761.013</ele>
        <time>2026-08-29T01:02:19Z</time>
      </trkpt>
      <trkpt lat="42.800540" lon="13.259366">
        <ele>1761.565</ele>
        <time>2026-08-29T01:02:47Z</time>
      </trkpt>
      <trkpt lat="42.800779" lon="13.259268">
        <ele>1764.020</ele>
        <time>2026-08-29T01:03:28Z</time>
      </trkpt>
      <trkpt lat="42.800915" lon="13.259111">
        <ele>1769.095</ele>
        <time>2026-08-29T01:04:01Z</time>
      </trkpt>
      <trkpt lat="42.800976" lon="13.258900">
        <ele>1774.541</ele>
        <time>2026-08-29T01:04:27Z</time>
      </trkpt>
      <trkpt lat="42.801105" lon="13.258767">
        <ele>1779.534</ele>
        <time>2026-08-29T01:04:54Z</time>
      </trkpt>
      <trkpt lat="42.801160" lon="13.258626">
        <ele>1783.065</ele>
        <time>2026-08-29T01:05:16Z</time>
      </trkpt>
      <trkpt lat="42.801518" lon="13.258177">
        <ele>1795.068</ele>
        <time>2026-08-29T01:06:44Z</time>
      </trkpt>
      <trkpt lat="42.801561" lon="13.258218">
        <ele>1798.514</ele>
        <time>2026-08-29T01:07:10Z</time>
      </trkpt>
      <trkpt lat="42.801632" lon="13.258197">
        <ele>1801.009</ele>
        <time>2026-08-29T01:07:43Z</time>
      </trkpt>
      <trkpt lat="42.801621" lon="13.258240">
        <ele>1808.068</ele>
        <time>2026-08-29T01:07:51Z</time>
      </trkpt>
      <trkpt lat="42.801660" lon="13.258182">
        <ele>1817.514</ele>
        <time>2026-08-29T01:07:56Z</time>
      </trkpt>
      <trkpt lat="42.801629" lon="13.258233">
        <ele>1821.058</ele>
        <time>2026-08-29T01:08:46Z</time>
      </trkpt>
      <trkpt lat="42.801963" lon="13.258113">
        <ele>1821.062</ele>
        <time>2026-08-29T01:09:33Z</time>
      </trkpt>
      <trkpt lat="42.802257" lon="13.258117">
        <ele>1823.064</ele>
        <time>2026-08-29T01:10:34Z</time>
      </trkpt>
      <trkpt lat="42.802187" lon="13.258421">
        <ele>1830.539</ele>
        <time>2026-08-29T01:11:15Z</time>
      </trkpt>
      <trkpt lat="42.802422" lon="13.258430">
        <ele>1839.044</ele>
        <time>2026-08-29T01:11:43Z</time>
      </trkpt>
      <trkpt lat="42.802452" lon="13.258498">
        <ele>1839.030</ele>
        <time>2026-08-29T01:11:52Z</time>
      </trkpt>
      <trkpt lat="42.802347" lon="13.258673">
        <ele>1840.093</ele>
        <time>2026-08-29T01:12:09Z</time>
      </trkpt>
      <trkpt lat="42.802384" lon="13.258993">
        <ele>1847.046</ele>
        <time>2026-08-29T01:12:45Z</time>
      </trkpt>
      <trkpt lat="42.802631" lon="13.259256">
        <ele>1852.588</ele>
        <time>2026-08-29T01:13:27Z</time>
      </trkpt>
      <trkpt lat="42.802803" lon="13.259549">
        <ele>1857.116</ele>
        <time>2026-08-29T01:14:06Z</time>
      </trkpt>
      <trkpt lat="42.802765" lon="13.259594">
        <ele>1858.109</ele>
        <time>2026-08-29T01:14:48Z</time>
      </trkpt>
      <trkpt lat="42.802838" lon="13.259568">
        <ele>1859.656</ele>
        <time>2026-08-29T01:15:33Z</time>
      </trkpt>
      <trkpt lat="42.803104" lon="13.259807">
        <ele>1862.152</ele>
        <time>2026-08-29T01:16:15Z</time>
      </trkpt>
      <trkpt lat="42.803352" lon="13.260371">
        <ele>1869.176</ele>
        <time>2026-08-29T01:17:17Z</time>
      </trkpt>
      <trkpt lat="42.803555" lon="13.260638">
        <ele>1873.120</ele>
        <time>2026-08-29T01:18:07Z</time>
      </trkpt>
      <trkpt lat="42.804052" lon="13.261030">
        <ele>1883.162</ele>
        <time>2026-08-29T01:19:28Z</time>
      </trkpt>
      <trkpt lat="42.805060" lon="13.261452">
        <ele>1889.117</ele>
        <time>2026-08-29T01:21:32Z</time>
      </trkpt>
      <trkpt lat="42.805755" lon="13.262047">
        <ele>1898.182</ele>
        <time>2026-08-29T01:23:17Z</time>
      </trkpt>
      <trkpt lat="42.805890" lon="13.262249">
        <ele>1899.128</ele>
        <time>2026-08-29T01:23:43Z</time>
      </trkpt>
      <trkpt lat="42.806293" lon="13.262438">
        <ele>1904.111</ele>
        <time>2026-08-29T01:24:40Z</time>
      </trkpt>
      <trkpt lat="42.806371" lon="13.262431">
        <ele>1904.171</ele>
        <time>2026-08-29T01:24:52Z</time>
      </trkpt>
      <trkpt lat="42.806527" lon="13.262557">
        <ele>1907.141</ele>
        <time>2026-08-29T01:25:20Z</time>
      </trkpt>
      <trkpt lat="42.806962" lon="13.262709">
        <ele>1913.115</ele>
        <time>2026-08-29T01:26:14Z</time>
      </trkpt>
      <trkpt lat="42.807096" lon="13.262809">
        <ele>1914.109</ele>
        <time>2026-08-29T01:26:33Z</time>
      </trkpt>
      <trkpt lat="42.807143" lon="13.263017">
        <ele>1917.179</ele>
        <time>2026-08-29T01:26:58Z</time>
      </trkpt>
      <trkpt lat="42.807229" lon="13.263081">
        <ele>1920.115</ele>
        <time>2026-08-29T01:27:14Z</time>
      </trkpt>
      <trkpt lat="42.807497" lon="13.263128">
        <ele>1926.149</ele>
        <time>2026-08-29T01:28:05Z</time>
      </trkpt>
      <trkpt lat="42.807806" lon="13.263113">
        <ele>1936.683</ele>
        <time>2026-08-29T01:29:13Z</time>
      </trkpt>
      <trkpt lat="42.808006" lon="13.263018">
        <ele>1948.135</ele>
        <time>2026-08-29T01:29:49Z</time>
      </trkpt>
      <trkpt lat="42.808288" lon="13.263024">
        <ele>1954.680</ele>
        <time>2026-08-29T01:30:53Z</time>
      </trkpt>
      <trkpt lat="42.808495" lon="13.262951">
        <ele>1963.135</ele>
        <time>2026-08-29T01:31:29Z</time>
      </trkpt>
      <trkpt lat="42.808556" lon="13.262954">
        <ele>1963.631</ele>
        <time>2026-08-29T01:31:40Z</time>
      </trkpt>
      <trkpt lat="42.808517" lon="13.262970">
        <ele>1965.144</ele>
        <time>2026-08-29T01:31:47Z</time>
      </trkpt>
      <trkpt lat="42.808567" lon="13.263036">
        <ele>1965.628</ele>
        <time>2026-08-29T01:32:00Z</time>
      </trkpt>
      <trkpt lat="42.808750" lon="13.263072">
        <ele>1972.189</ele>
        <time>2026-08-29T01:32:38Z</time>
      </trkpt>
      <trkpt lat="42.808869" lon="13.262979">
        <ele>1978.617</ele>
        <time>2026-08-29T01:33:07Z</time>
      </trkpt>
      <trkpt lat="42.809138" lon="13.262988">
        <ele>1986.109</ele>
        <time>2026-08-29T01:33:55Z</time>
      </trkpt>
      <trkpt lat="42.809132" lon="13.263053">
        <ele>1987.194</ele>
        <time>2026-08-29T01:34:04Z</time>
      </trkpt>
      <trkpt lat="42.809457" lon="13.263147">
        <ele>1994.180</ele>
        <time>2026-08-29T01:35:10Z</time>
      </trkpt>
      <trkpt lat="42.809535" lon="13.263249">
        <ele>1999.124</ele>
        <time>2026-08-29T01:35:40Z</time>
      </trkpt>
      <trkpt lat="42.809603" lon="13.263258">
        <ele>2000.168</ele>
        <time>2026-08-29T01:35:49Z</time>
      </trkpt>
      <trkpt lat="42.810187" lon="13.263885">
        <ele>2019.120</ele>
        <time>2026-08-29T01:37:52Z</time>
      </trkpt>
      <trkpt lat="42.810555" lon="13.264123">
        <ele>2028.185</ele>
        <time>2026-08-29T01:38:53Z</time>
      </trkpt>
      <trkpt lat="42.810647" lon="13.264285">
        <ele>2029.120</ele>
        <time>2026-08-29T01:39:17Z</time>
      </trkpt>
      <trkpt lat="42.810587" lon="13.264437">
        <ele>2032.186</ele>
        <time>2026-08-29T01:40:15Z</time>
      </trkpt>
      <trkpt lat="42.810618" lon="13.264405">
        <ele>2041.699</ele>
        <time>2026-08-29T01:42:34Z</time>
      </trkpt>
      <trkpt lat="42.810742" lon="13.264507">
        <ele>2044.152</ele>
        <time>2026-08-29T01:44:49Z</time>
      </trkpt>
      <trkpt lat="42.810775" lon="13.264633">
        <ele>2044.153</ele>
        <time>2026-08-29T01:45:09Z</time>
      </trkpt>
      <trkpt lat="42.810923" lon="13.264632">
        <ele>2045.108</ele>
        <time>2026-08-29T01:45:30Z</time>
      </trkpt>
      <trkpt lat="42.811017" lon="13.264774">
        <ele>2046.109</ele>
        <time>2026-08-29T01:46:04Z</time>
      </trkpt>
      <trkpt lat="42.811231" lon="13.264864">
        <ele>2048.197</ele>
        <time>2026-08-29T01:46:38Z</time>
      </trkpt>
      <trkpt lat="42.811409" lon="13.264846">
        <ele>2050.153</ele>
        <time>2026-08-29T01:47:07Z</time>
      </trkpt>
      <trkpt lat="42.811753" lon="13.264930">
        <ele>2058.137</ele>
        <time>2026-08-29T01:47:55Z</time>
      </trkpt>
      <trkpt lat="42.812258" lon="13.265280">
        <ele>2067.161</ele>
        <time>2026-08-29T01:49:26Z</time>
      </trkpt>
      <trkpt lat="42.812458" lon="13.265345">
        <ele>2072.143</ele>
        <time>2026-08-29T01:50:05Z</time>
      </trkpt>
      <trkpt lat="42.812539" lon="13.265443">
        <ele>2073.138</ele>
        <time>2026-08-29T01:50:22Z</time>
      </trkpt>
      <trkpt lat="42.812686" lon="13.265482">
        <ele>2075.633</ele>
        <time>2026-08-29T01:50:47Z</time>
      </trkpt>
      <trkpt lat="42.812980" lon="13.265684">
        <ele>2080.139</ele>
        <time>2026-08-29T01:51:41Z</time>
      </trkpt>
      <trkpt lat="42.813048" lon="13.265676">
        <ele>2081.152</ele>
        <time>2026-08-29T01:51:53Z</time>
      </trkpt>
      <trkpt lat="42.813041" lon="13.265744">
        <ele>2082.694</ele>
        <time>2026-08-29T01:52:30Z</time>
      </trkpt>
      <trkpt lat="42.813241" lon="13.265844">
        <ele>2087.157</ele>
        <time>2026-08-29T01:53:11Z</time>
      </trkpt>
      <trkpt lat="42.813630" lon="13.265923">
        <ele>2093.122</ele>
        <time>2026-08-29T01:54:21Z</time>
      </trkpt>
      <trkpt lat="42.813832" lon="13.266030">
        <ele>2095.109</ele>
        <time>2026-08-29T01:55:01Z</time>
      </trkpt>
      <trkpt lat="42.814105" lon="13.266060">
        <ele>2101.631</ele>
        <time>2026-08-29T01:55:47Z</time>
      </trkpt>
      <trkpt lat="42.814249" lon="13.266144">
        <ele>2104.187</ele>
        <time>2026-08-29T01:56:17Z</time>
      </trkpt>
      <trkpt lat="42.814271" lon="13.266225">
        <ele>2105.151</ele>
        <time>2026-08-29T01:56:28Z</time>
      </trkpt>
      <trkpt lat="42.814426" lon="13.266207">
        <ele>2114.685</ele>
        <time>2026-08-29T01:56:58Z</time>
      </trkpt>
      <trkpt lat="42.814562" lon="13.266330">
        <ele>2117.137</ele>
        <time>2026-08-29T01:57:33Z</time>
      </trkpt>
      <trkpt lat="42.814900" lon="13.266453">
        <ele>2122.692</ele>
        <time>2026-08-29T01:58:38Z</time>
      </trkpt>
      <trkpt lat="42.815027" lon="13.266620">
        <ele>2126.637</ele>
        <time>2026-08-29T01:59:11Z</time>
      </trkpt>
      <trkpt lat="42.815059" lon="13.266802">
        <ele>2136.113</ele>
        <time>2026-08-29T01:59:46Z</time>
      </trkpt>
      <trkpt lat="42.815175" lon="13.266797">
        <ele>2145.126</ele>
        <time>2026-08-29T02:00:07Z</time>
      </trkpt>
      <trkpt lat="42.815333" lon="13.266932">
        <ele>2145.173</ele>
        <time>2026-08-29T02:00:52Z</time>
      </trkpt>
      <trkpt lat="42.815498" lon="13.266967">
        <ele>2148.185</ele>
        <time>2026-08-29T02:01:31Z</time>
      </trkpt>
      <trkpt lat="42.815449" lon="13.267115">
        <ele>2149.613</ele>
        <time>2026-08-29T02:02:21Z</time>
      </trkpt>
      <trkpt lat="42.815518" lon="13.267068">
        <ele>2153.109</ele>
        <time>2026-08-29T02:02:32Z</time>
      </trkpt>
      <trkpt lat="42.815620" lon="13.267119">
        <ele>2164.129</ele>
        <time>2026-08-29T02:03:09Z</time>
      </trkpt>
      <trkpt lat="42.815584" lon="13.267186">
        <ele>2165.165</ele>
        <time>2026-08-29T02:03:52Z</time>
      </trkpt>
      <trkpt lat="42.815613" lon="13.267154">
        <ele>2167.159</ele>
        <time>2026-08-29T02:03:57Z</time>
      </trkpt>
      <trkpt lat="42.815717" lon="13.267196">
        <ele>2175.113</ele>
        <time>2026-08-29T02:04:18Z</time>
      </trkpt>
      <trkpt lat="42.815899" lon="13.267184">
        <ele>2176.165</ele>
        <time>2026-08-29T02:05:02Z</time>
      </trkpt>
      <trkpt lat="42.815913" lon="13.267220">
        <ele>2177.190</ele>
        <time>2026-08-29T02:07:07Z</time>
      </trkpt>
      <trkpt lat="42.816116" lon="13.267248">
        <ele>2180.175</ele>
        <time>2026-08-29T02:07:57Z</time>
      </trkpt>
      <trkpt lat="42.816269" lon="13.267413">
        <ele>2182.141</ele>
        <time>2026-08-29T02:08:32Z</time>
      </trkpt>
      <trkpt lat="42.816281" lon="13.267611">
        <ele>2185.184</ele>
        <time>2026-08-29T02:09:44Z</time>
      </trkpt>
      <trkpt lat="42.816503" lon="13.267776">
        <ele>2201.124</ele>
        <time>2026-08-29T02:10:24Z</time>
      </trkpt>
      <trkpt lat="42.816605" lon="13.267943">
        <ele>2202.104</ele>
        <time>2026-08-29T02:10:53Z</time>
      </trkpt>
      <trkpt lat="42.816736" lon="13.268049">
        <ele>2203.114</ele>
        <time>2026-08-29T02:11:23Z</time>
      </trkpt>
      <trkpt lat="42.816819" lon="13.268221">
        <ele>2205.109</ele>
        <time>2026-08-29T02:12:04Z</time>
      </trkpt>
      <trkpt lat="42.817104" lon="13.268314">
        <ele>2216.134</ele>
        <time>2026-08-29T02:13:07Z</time>
      </trkpt>
      <trkpt lat="42.817404" lon="13.268702">
        <ele>2223.130</ele>
        <time>2026-08-29T02:14:37Z</time>
      </trkpt>
      <trkpt lat="42.817420" lon="13.268550">
        <ele>2226.624</ele>
        <time>2026-08-29T02:15:05Z</time>
      </trkpt>
      <trkpt lat="42.817504" lon="13.268558">
        <ele>2244.118</ele>
        <time>2026-08-29T02:17:51Z</time>
      </trkpt>
      <trkpt lat="42.817497" lon="13.268503">
        <ele>2245.640</ele>
        <time>2026-08-29T02:20:47Z</time>
      </trkpt>
      <trkpt lat="42.817446" lon="13.268546">
        <ele>2248.135</ele>
        <time>2026-08-29T02:23:29Z</time>
      </trkpt>
      <trkpt lat="42.817453" lon="13.268611">
        <ele>2248.680</ele>
        <time>2026-08-29T02:29:26Z</time>
      </trkpt>
      <trkpt lat="42.817488" lon="13.268577">
        <ele>2247.176</ele>
        <time>2026-08-29T02:30:07Z</time>
      </trkpt>
      <trkpt lat="42.817494" lon="13.268617">
        <ele>2248.149</ele>
        <time>2026-08-29T02:30:22Z</time>
      </trkpt>
      <trkpt lat="42.817430" lon="13.268567">
        <ele>2249.178</ele>
        <time>2026-08-29T02:30:40Z</time>
      </trkpt>
      <trkpt lat="42.817461" lon="13.268543">
        <ele>2249.133</ele>
        <time>2026-08-29T02:31:09Z</time>
      </trkpt>
      <trkpt lat="42.817423" lon="13.268543">
        <ele>2248.126</ele>
        <time>2026-08-29T02:32:42Z</time>
      </trkpt>
      <trkpt lat="42.817498" lon="13.268655">
        <ele>2247.109</ele>
        <time>2026-08-29T02:34:03Z</time>
      </trkpt>
      <trkpt lat="42.817517" lon="13.268590">
        <ele>2246.199</ele>
        <time>2026-08-29T02:34:23Z</time>
      </trkpt>
      <trkpt lat="42.817468" lon="13.268533">
        <ele>2245.115</ele>
        <time>2026-08-29T02:34:38Z</time>
      </trkpt>
      <trkpt lat="42.817501" lon="13.268635">
        <ele>2246.149</ele>
        <time>2026-08-29T02:37:34Z</time>
      </trkpt>
      <trkpt lat="42.817497" lon="13.268596">
        <ele>2243.183</ele>
        <time>2026-08-29T02:40:32Z</time>
      </trkpt>
      <trkpt lat="42.817463" lon="13.268611">
        <ele>2242.135</ele>
        <time>2026-08-29T02:41:32Z</time>
      </trkpt>
      <trkpt lat="42.817495" lon="13.268560">
        <ele>2241.680</ele>
        <time>2026-08-29T02:42:41Z</time>
      </trkpt>
      <trkpt lat="42.817549" lon="13.268663">
        <ele>2239.155</ele>
        <time>2026-08-29T02:44:43Z</time>
      </trkpt>
      <trkpt lat="42.817476" lon="13.268578">
        <ele>2242.691</ele>
        <time>2026-08-29T02:53:04Z</time>
      </trkpt>
      <trkpt lat="42.817473" lon="13.268646">
        <ele>2243.184</ele>
        <time>2026-08-29T02:54:11Z</time>
      </trkpt>
      <trkpt lat="42.817472" lon="13.268569">
        <ele>2243.153</ele>
        <time>2026-08-29T02:55:23Z</time>
      </trkpt>
      <trkpt lat="42.817431" lon="13.268575">
        <ele>2242.104</ele>
        <time>2026-08-29T02:56:23Z</time>
      </trkpt>
      <trkpt lat="42.817460" lon="13.268478">
        <ele>2242.114</ele>
        <time>2026-08-29T02:56:59Z</time>
      </trkpt>
      <trkpt lat="42.817385" lon="13.268416">
        <ele>2241.609</ele>
        <time>2026-08-29T02:58:49Z</time>
      </trkpt>
      <trkpt lat="42.817387" lon="13.268466">
        <ele>2242.127</ele>
        <time>2026-08-29T03:00:47Z</time>
      </trkpt>
      <trkpt lat="42.817451" lon="13.268478">
        <ele>2238.183</ele>
        <time>2026-08-29T03:02:29Z</time>
      </trkpt>
      <trkpt lat="42.817427" lon="13.268596">
        <ele>2238.187</ele>
        <time>2026-08-29T03:03:18Z</time>
      </trkpt>
      <trkpt lat="42.817426" lon="13.268525">
        <ele>2238.171</ele>
        <time>2026-08-29T03:04:22Z</time>
      </trkpt>
      <trkpt lat="42.817461" lon="13.268529">
        <ele>2238.153</ele>
        <time>2026-08-29T03:05:10Z</time>
      </trkpt>
      <trkpt lat="42.817411" lon="13.268536">
        <ele>2238.138</ele>
        <time>2026-08-29T03:05:37Z</time>
      </trkpt>
      <trkpt lat="42.817464" lon="13.268649">
        <ele>2237.683</ele>
        <time>2026-08-29T03:06:42Z</time>
      </trkpt>
      <trkpt lat="42.817467" lon="13.268568">
        <ele>2238.179</ele>
        <time>2026-08-29T03:07:46Z</time>
      </trkpt>
      <trkpt lat="42.817441" lon="13.268539">
        <ele>2238.112</ele>
        <time>2026-08-29T03:08:22Z</time>
      </trkpt>
      <trkpt lat="42.817476" lon="13.268723">
        <ele>2240.167</ele>
        <time>2026-08-29T03:08:53Z</time>
      </trkpt>
      <trkpt lat="42.817629" lon="13.268848">
        <ele>2241.181</ele>
        <time>2026-08-29T03:09:19Z</time>
      </trkpt>
      <trkpt lat="42.817759" lon="13.269137">
        <ele>2240.119</ele>
        <time>2026-08-29T03:09:57Z</time>
      </trkpt>
      <trkpt lat="42.817865" lon="13.269173">
        <ele>2240.109</ele>
        <time>2026-08-29T03:10:12Z</time>
      </trkpt>
      <trkpt lat="42.817915" lon="13.269721">
        <ele>2242.178</ele>
        <time>2026-08-29T03:11:38Z</time>
      </trkpt>
      <trkpt lat="42.818051" lon="13.270340">
        <ele>2245.194</ele>
        <time>2026-08-29T03:12:38Z</time>
      </trkpt>
      <trkpt lat="42.818210" lon="13.270806">
        <ele>2248.118</ele>
        <time>2026-08-29T03:13:32Z</time>
      </trkpt>
      <trkpt lat="42.818265" lon="13.270834">
        <ele>2248.122</ele>
        <time>2026-08-29T03:14:03Z</time>
      </trkpt>
      <trkpt lat="42.818219" lon="13.270979">
        <ele>2251.194</ele>
        <time>2026-08-29T03:14:32Z</time>
      </trkpt>
      <trkpt lat="42.818316" lon="13.271185">
        <ele>2253.169</ele>
        <time>2026-08-29T03:14:52Z</time>
      </trkpt>
      <trkpt lat="42.818556" lon="13.272444">
        <ele>2259.674</ele>
        <time>2026-08-29T03:17:23Z</time>
      </trkpt>
      <trkpt lat="42.818808" lon="13.272897">
        <ele>2258.170</ele>
        <time>2026-08-29T03:18:20Z</time>
      </trkpt>
      <trkpt lat="42.818897" lon="13.273012">
        <ele>2260.673</ele>
        <time>2026-08-29T03:18:40Z</time>
      </trkpt>
      <trkpt lat="42.819115" lon="13.273023">
        <ele>2266.177</ele>
        <time>2026-08-29T03:19:24Z</time>
      </trkpt>
      <trkpt lat="42.819299" lon="13.273117">
        <ele>2266.161</ele>
        <time>2026-08-29T03:20:17Z</time>
      </trkpt>
      <trkpt lat="42.819361" lon="13.273210">
        <ele>2268.627</ele>
        <time>2026-08-29T03:20:38Z</time>
      </trkpt>
      <trkpt lat="42.819447" lon="13.273182">
        <ele>2281.109</ele>
        <time>2026-08-29T03:22:15Z</time>
      </trkpt>
      <trkpt lat="42.819587" lon="13.273294">
        <ele>2280.169</ele>
        <time>2026-08-29T03:22:41Z</time>
      </trkpt>
      <trkpt lat="42.819670" lon="13.273287">
        <ele>2280.145</ele>
        <time>2026-08-29T03:23:00Z</time>
      </trkpt>
      <trkpt lat="42.819978" lon="13.273452">
        <ele>2290.149</ele>
        <time>2026-08-29T03:24:21Z</time>
      </trkpt>
      <trkpt lat="42.820220" lon="13.273500">
        <ele>2296.653</ele>
        <time>2026-08-29T03:25:15Z</time>
      </trkpt>
      <trkpt lat="42.820597" lon="13.273760">
        <ele>2313.125</ele>
        <time>2026-08-29T03:27:47Z</time>
      </trkpt>
      <trkpt lat="42.820818" lon="13.273834">
        <ele>2315.110</ele>
        <time>2026-08-29T03:28:57Z</time>
      </trkpt>
      <trkpt lat="42.820942" lon="13.273938">
        <ele>2326.135</ele>
        <time>2026-08-29T03:32:27Z</time>
      </trkpt>
      <trkpt lat="42.821046" lon="13.273938">
        <ele>2328.621</ele>
        <time>2026-08-29T03:32:48Z</time>
      </trkpt>
      <trkpt lat="42.821311" lon="13.274151">
        <ele>2342.194</ele>
        <time>2026-08-29T03:34:00Z</time>
      </trkpt>
      <trkpt lat="42.821705" lon="13.274283">
        <ele>2348.138</ele>
        <time>2026-08-29T03:34:55Z</time>
      </trkpt>
      <trkpt lat="42.821722" lon="13.274335">
        <ele>2348.170</ele>
        <time>2026-08-29T03:35:09Z</time>
      </trkpt>
      <trkpt lat="42.821673" lon="13.274317">
        <ele>2348.117</ele>
        <time>2026-08-29T03:35:27Z</time>
      </trkpt>
      <trkpt lat="42.821512" lon="13.274485">
        <ele>2352.109</ele>
        <time>2026-08-29T03:36:02Z</time>
      </trkpt>
      <trkpt lat="42.821537" lon="13.274591">
        <ele>2352.155</ele>
        <time>2026-08-29T03:36:17Z</time>
      </trkpt>
      <trkpt lat="42.821661" lon="13.274572">
        <ele>2353.171</ele>
        <time>2026-08-29T03:36:42Z</time>
      </trkpt>
      <trkpt lat="42.821799" lon="13.274755">
        <ele>2356.145</ele>
        <time>2026-08-29T03:37:29Z</time>
      </trkpt>
      <trkpt lat="42.822088" lon="13.274904">
        <ele>2364.629</ele>
        <time>2026-08-29T03:38:22Z</time>
      </trkpt>
      <trkpt lat="42.821958" lon="13.274884">
        <ele>2366.191</ele>
        <time>2026-08-29T03:39:02Z</time>
      </trkpt>
      <trkpt lat="42.821830" lon="13.274940">
        <ele>2377.126</ele>
        <time>2026-08-29T03:39:16Z</time>
      </trkpt>
      <trkpt lat="42.821774" lon="13.275034">
        <ele>2377.131</ele>
        <time>2026-08-29T03:39:39Z</time>
      </trkpt>
      <trkpt lat="42.822235" lon="13.275250">
        <ele>2384.657</ele>
        <time>2026-08-29T03:41:44Z</time>
      </trkpt>
      <trkpt lat="42.822388" lon="13.275158">
        <ele>2387.130</ele>
        <time>2026-08-29T03:42:06Z</time>
      </trkpt>
      <trkpt lat="42.822486" lon="13.274976">
        <ele>2388.184</ele>
        <time>2026-08-29T03:42:46Z</time>
      </trkpt>
      <trkpt lat="42.822497" lon="13.275531">
        <ele>2397.107</ele>
        <time>2026-08-29T03:43:49Z</time>
      </trkpt>
      <trkpt lat="42.822384" lon="13.275802">
        <ele>2400.117</ele>
        <time>2026-08-29T03:44:21Z</time>
      </trkpt>
      <trkpt lat="42.822398" lon="13.275870">
        <ele>2400.109</ele>
        <time>2026-08-29T03:45:02Z</time>
      </trkpt>
      <trkpt lat="42.822500" lon="13.275824">
        <ele>2401.670</ele>
        <time>2026-08-29T03:45:22Z</time>
      </trkpt>
      <trkpt lat="42.822615" lon="13.275677">
        <ele>2408.236</ele>
        <time>2026-08-29T03:46:13Z</time>
      </trkpt>
      <trkpt lat="42.822733" lon="13.275639">
        <ele>2409.240</ele>
        <time>2026-08-29T03:46:55Z</time>
      </trkpt>
      <trkpt lat="42.822855" lon="13.275466">
        <ele>2409.774</ele>
        <time>2026-08-29T03:47:29Z</time>
      </trkpt>
      <trkpt lat="42.822949" lon="13.275437">
        <ele>2412.226</ele>
        <time>2026-08-29T03:48:04Z</time>
      </trkpt>
      <trkpt lat="42.823137" lon="13.275060">
        <ele>2425.211</ele>
        <time>2026-08-29T03:49:00Z</time>
      </trkpt>
      <trkpt lat="42.823470" lon="13.275685">
        <ele>2436.246</ele>
        <time>2026-08-29T03:50:59Z</time>
      </trkpt>
      <trkpt lat="42.823704" lon="13.275508">
        <ele>2442.232</ele>
        <time>2026-08-29T03:51:47Z</time>
      </trkpt>
      <trkpt lat="42.823867" lon="13.275471">
        <ele>2446.275</ele>
        <time>2026-08-29T03:52:12Z</time>
      </trkpt>
      <trkpt lat="42.824091" lon="13.275213">
        <ele>2452.223</ele>
        <time>2026-08-29T03:53:06Z</time>
      </trkpt>
      <trkpt lat="42.824387" lon="13.275287">
        <ele>2458.283</ele>
        <time>2026-08-29T03:53:58Z</time>
      </trkpt>
      <trkpt lat="42.824603" lon="13.275007">
        <ele>2467.211</ele>
        <time>2026-08-29T03:56:19Z</time>
      </trkpt>
      <trkpt lat="42.824498" lon="13.275027">
        <ele>2469.709</ele>
        <time>2026-08-29T03:58:38Z</time>
      </trkpt>
      <trkpt lat="42.824541" lon="13.275055">
        <ele>2471.244</ele>
        <time>2026-08-29T03:58:57Z</time>
      </trkpt>
      <trkpt lat="42.824567" lon="13.275010">
        <ele>2471.250</ele>
        <time>2026-08-29T03:59:16Z</time>
      </trkpt>
      <trkpt lat="42.824563" lon="13.275048">
        <ele>2471.224</ele>
        <time>2026-08-29T03:59:26Z</time>
      </trkpt>
      <trkpt lat="42.824573" lon="13.274991">
        <ele>2463.278</ele>
        <time>2026-08-29T04:01:45Z</time>
      </trkpt>
      <trkpt lat="42.824595" lon="13.275025">
        <ele>2467.270</ele>
        <time>2026-08-29T04:04:46Z</time>
      </trkpt>
      <trkpt lat="42.824548" lon="13.275027">
        <ele>2466.235</ele>
        <time>2026-08-29T04:06:38Z</time>
      </trkpt>
      <trkpt lat="42.824563" lon="13.274998">
        <ele>2466.230</ele>
        <time>2026-08-29T04:06:44Z</time>
      </trkpt>
      <trkpt lat="42.824552" lon="13.275059">
        <ele>2471.236</ele>
        <time>2026-08-29T04:13:20Z</time>
      </trkpt>
      <trkpt lat="42.824506" lon="13.274915">
        <ele>2473.299</ele>
        <time>2026-08-29T04:19:55Z</time>
      </trkpt>
      <trkpt lat="42.824575" lon="13.274943">
        <ele>2473.255</ele>
        <time>2026-08-29T04:20:29Z</time>
      </trkpt>
      <trkpt lat="42.824600" lon="13.275037">
        <ele>2474.207</ele>
        <time>2026-08-29T04:21:26Z</time>
      </trkpt>
      <trkpt lat="42.824573" lon="13.275078">
        <ele>2474.217</ele>
        <time>2026-08-29T04:21:36Z</time>
      </trkpt>
      <trkpt lat="42.824542" lon="13.275004">
        <ele>2474.209</ele>
        <time>2026-08-29T04:22:01Z</time>
      </trkpt>
      <trkpt lat="42.824537" lon="13.275047">
        <ele>2476.227</ele>
        <time>2026-08-29T04:26:06Z</time>
      </trkpt>
      <trkpt lat="42.824580" lon="13.275033">
        <ele>2474.213</ele>
        <time>2026-08-29T04:31:37Z</time>
      </trkpt>
      <trkpt lat="42.824532" lon="13.274956">
        <ele>2473.237</ele>
        <time>2026-08-29T04:36:12Z</time>
      </trkpt>
      <trkpt lat="42.824533" lon="13.275024">
        <ele>2473.211</ele>
        <time>2026-08-29T04:36:33Z</time>
      </trkpt>
      <trkpt lat="42.824372" lon="13.274994">
        <ele>2471.293</ele>
        <time>2026-08-29T04:37:20Z</time>
      </trkpt>
      <trkpt lat="42.824275" lon="13.275047">
        <ele>2470.278</ele>
        <time>2026-08-29T04:37:34Z</time>
      </trkpt>
      <trkpt lat="42.823919" lon="13.275487">
        <ele>2461.263</ele>
        <time>2026-08-29T04:38:43Z</time>
      </trkpt>
      <trkpt lat="42.823806" lon="13.275508">
        <ele>2459.279</ele>
        <time>2026-08-29T04:38:53Z</time>
      </trkpt>
      <trkpt lat="42.823498" lon="13.275692">
        <ele>2452.762</ele>
        <time>2026-08-29T04:39:30Z</time>
      </trkpt>
      <trkpt lat="42.823394" lon="13.275551">
        <ele>2450.244</ele>
        <time>2026-08-29T04:39:46Z</time>
      </trkpt>
      <trkpt lat="42.823189" lon="13.275042">
        <ele>2444.205</ele>
        <time>2026-08-29T04:40:29Z</time>
      </trkpt>
      <trkpt lat="42.823020" lon="13.275345">
        <ele>2438.615</ele>
        <time>2026-08-29T04:41:01Z</time>
      </trkpt>
      <trkpt lat="42.822735" lon="13.275643">
        <ele>2430.709</ele>
        <time>2026-08-29T04:41:41Z</time>
      </trkpt>
      <trkpt lat="42.822590" lon="13.275772">
        <ele>2427.236</ele>
        <time>2026-08-29T04:42:02Z</time>
      </trkpt>
      <trkpt lat="42.822376" lon="13.275841">
        <ele>2420.282</ele>
        <time>2026-08-29T04:42:35Z</time>
      </trkpt>
      <trkpt lat="42.822503" lon="13.275610">
        <ele>2415.156</ele>
        <time>2026-08-29T04:43:27Z</time>
      </trkpt>
      <trkpt lat="42.822580" lon="13.275089">
        <ele>2411.140</ele>
        <time>2026-08-29T04:44:19Z</time>
      </trkpt>
      <trkpt lat="42.822547" lon="13.274954">
        <ele>2411.182</ele>
        <time>2026-08-29T04:44:30Z</time>
      </trkpt>
      <trkpt lat="42.822398" lon="13.275158">
        <ele>2408.127</ele>
        <time>2026-08-29T04:44:50Z</time>
      </trkpt>
      <trkpt lat="42.822283" lon="13.275217">
        <ele>2404.652</ele>
        <time>2026-08-29T04:44:59Z</time>
      </trkpt>
      <trkpt lat="42.822149" lon="13.275216">
        <ele>2401.638</ele>
        <time>2026-08-29T04:45:11Z</time>
      </trkpt>
      <trkpt lat="42.821976" lon="13.275138">
        <ele>2399.121</ele>
        <time>2026-08-29T04:45:27Z</time>
      </trkpt>
      <trkpt lat="42.821830" lon="13.275015">
        <ele>2395.644</ele>
        <time>2026-08-29T04:45:47Z</time>
      </trkpt>
      <trkpt lat="42.821826" lon="13.274964">
        <ele>2394.105</ele>
        <time>2026-08-29T04:45:56Z</time>
      </trkpt>
      <trkpt lat="42.821953" lon="13.274892">
        <ele>2391.615</ele>
        <time>2026-08-29T04:46:10Z</time>
      </trkpt>
      <trkpt lat="42.822103" lon="13.274932">
        <ele>2388.109</ele>
        <time>2026-08-29T04:46:31Z</time>
      </trkpt>
      <trkpt lat="42.822114" lon="13.274870">
        <ele>2385.146</ele>
        <time>2026-08-29T04:46:38Z</time>
      </trkpt>
      <trkpt lat="42.821791" lon="13.274614">
        <ele>2378.192</ele>
        <time>2026-08-29T04:47:35Z</time>
      </trkpt>
      <trkpt lat="42.821697" lon="13.274644">
        <ele>2375.646</ele>
        <time>2026-08-29T04:47:49Z</time>
      </trkpt>
      <trkpt lat="42.821582" lon="13.274600">
        <ele>2373.130</ele>
        <time>2026-08-29T04:48:02Z</time>
      </trkpt>
      <trkpt lat="42.821529" lon="13.274420">
        <ele>2369.632</ele>
        <time>2026-08-29T04:48:28Z</time>
      </trkpt>
      <trkpt lat="42.821436" lon="13.274303">
        <ele>2366.177</ele>
        <time>2026-08-29T04:48:50Z</time>
      </trkpt>
      <trkpt lat="42.821341" lon="13.274300">
        <ele>2365.192</ele>
        <time>2026-08-29T04:48:59Z</time>
      </trkpt>
      <trkpt lat="42.821316" lon="13.274149">
        <ele>2360.128</ele>
        <time>2026-08-29T04:49:12Z</time>
      </trkpt>
      <trkpt lat="42.821250" lon="13.274134">
        <ele>2358.131</ele>
        <time>2026-08-29T04:49:22Z</time>
      </trkpt>
      <trkpt lat="42.821102" lon="13.273972">
        <ele>2352.664</ele>
        <time>2026-08-29T04:49:47Z</time>
      </trkpt>
      <trkpt lat="42.820881" lon="13.273907">
        <ele>2344.106</ele>
        <time>2026-08-29T04:50:22Z</time>
      </trkpt>
      <trkpt lat="42.820862" lon="13.273858">
        <ele>2342.616</ele>
        <time>2026-08-29T04:50:29Z</time>
      </trkpt>
      <trkpt lat="42.820788" lon="13.273875">
        <ele>2334.109</ele>
        <time>2026-08-29T04:51:27Z</time>
      </trkpt>
      <trkpt lat="42.820412" lon="13.273634">
        <ele>2325.158</ele>
        <time>2026-08-29T04:52:30Z</time>
      </trkpt>
      <trkpt lat="42.820357" lon="13.273653">
        <ele>2323.184</ele>
        <time>2026-08-29T04:52:38Z</time>
      </trkpt>
      <trkpt lat="42.820189" lon="13.273501">
        <ele>2320.118</ele>
        <time>2026-08-29T04:53:44Z</time>
      </trkpt>
      <trkpt lat="42.820085" lon="13.273519">
        <ele>2314.122</ele>
        <time>2026-08-29T04:54:53Z</time>
      </trkpt>
      <trkpt lat="42.819969" lon="13.273408">
        <ele>2313.174</ele>
        <time>2026-08-29T04:55:35Z</time>
      </trkpt>
      <trkpt lat="42.819772" lon="13.273381">
        <ele>2308.179</ele>
        <time>2026-08-29T04:56:13Z</time>
      </trkpt>
      <trkpt lat="42.819731" lon="13.273297">
        <ele>2303.164</ele>
        <time>2026-08-29T04:56:27Z</time>
      </trkpt>
      <trkpt lat="42.819634" lon="13.273317">
        <ele>2301.630</ele>
        <time>2026-08-29T04:56:42Z</time>
      </trkpt>
      <trkpt lat="42.819487" lon="13.273215">
        <ele>2296.143</ele>
        <time>2026-08-29T04:57:14Z</time>
      </trkpt>
      <trkpt lat="42.819438" lon="13.273227">
        <ele>2293.663</ele>
        <time>2026-08-29T04:57:27Z</time>
      </trkpt>
      <trkpt lat="42.819297" lon="13.273090">
        <ele>2288.144</ele>
        <time>2026-08-29T04:58:00Z</time>
      </trkpt>
      <trkpt lat="42.819270" lon="13.273116">
        <ele>2286.118</ele>
        <time>2026-08-29T04:58:08Z</time>
      </trkpt>
      <trkpt lat="42.819036" lon="13.273025">
        <ele>2280.109</ele>
        <time>2026-08-29T04:59:02Z</time>
      </trkpt>
      <trkpt lat="42.818813" lon="13.272802">
        <ele>2270.168</ele>
        <time>2026-08-29T04:59:39Z</time>
      </trkpt>
      <trkpt lat="42.818587" lon="13.272357">
        <ele>2264.194</ele>
        <time>2026-08-29T05:00:20Z</time>
      </trkpt>
      <trkpt lat="42.818493" lon="13.271979">
        <ele>2265.138</ele>
        <time>2026-08-29T05:00:51Z</time>
      </trkpt>
      <trkpt lat="42.818439" lon="13.271341">
        <ele>2266.152</ele>
        <time>2026-08-29T05:01:41Z</time>
      </trkpt>
      <trkpt lat="42.818229" lon="13.270779">
        <ele>2262.154</ele>
        <time>2026-08-29T05:02:32Z</time>
      </trkpt>
      <trkpt lat="42.817872" lon="13.269420">
        <ele>2253.169</ele>
        <time>2026-08-29T05:04:34Z</time>
      </trkpt>
      <trkpt lat="42.817690" lon="13.268945">
        <ele>2253.134</ele>
        <time>2026-08-29T05:05:16Z</time>
      </trkpt>
      <trkpt lat="42.817441" lon="13.268631">
        <ele>2247.170</ele>
        <time>2026-08-29T05:06:11Z</time>
      </trkpt>
      <trkpt lat="42.817398" lon="13.268619">
        <ele>2245.653</ele>
        <time>2026-08-29T05:06:32Z</time>
      </trkpt>
      <trkpt lat="42.817369" lon="13.268714">
        <ele>2245.152</ele>
        <time>2026-08-29T05:07:01Z</time>
      </trkpt>
      <trkpt lat="42.817385" lon="13.268666">
        <ele>2244.653</ele>
        <time>2026-08-29T05:07:09Z</time>
      </trkpt>
      <trkpt lat="42.817329" lon="13.268660">
        <ele>2244.108</ele>
        <time>2026-08-29T05:07:14Z</time>
      </trkpt>
      <trkpt lat="42.817134" lon="13.268392">
        <ele>2235.109</ele>
        <time>2026-08-29T05:07:54Z</time>
      </trkpt>
      <trkpt lat="42.816724" lon="13.268088">
        <ele>2222.157</ele>
        <time>2026-08-29T05:09:18Z</time>
      </trkpt>
      <trkpt lat="42.816051" lon="13.267324">
        <ele>2202.193</ele>
        <time>2026-08-29T05:11:25Z</time>
      </trkpt>
      <trkpt lat="42.815786" lon="13.267272">
        <ele>2194.687</ele>
        <time>2026-08-29T05:12:09Z</time>
      </trkpt>
      <trkpt lat="42.815648" lon="13.267174">
        <ele>2187.181</ele>
        <time>2026-08-29T05:12:38Z</time>
      </trkpt>
      <trkpt lat="42.815596" lon="13.267210">
        <ele>2184.123</ele>
        <time>2026-08-29T05:13:00Z</time>
      </trkpt>
      <trkpt lat="42.815516" lon="13.267186">
        <ele>2183.158</ele>
        <time>2026-08-29T05:13:28Z</time>
      </trkpt>
      <trkpt lat="42.815528" lon="13.267145">
        <ele>2182.693</ele>
        <time>2026-08-29T05:13:38Z</time>
      </trkpt>
      <trkpt lat="42.815492" lon="13.267161">
        <ele>2179.649</ele>
        <time>2026-08-29T05:13:50Z</time>
      </trkpt>
      <trkpt lat="42.815374" lon="13.267040">
        <ele>2173.192</ele>
        <time>2026-08-29T05:14:18Z</time>
      </trkpt>
      <trkpt lat="42.815229" lon="13.267004">
        <ele>2167.142</ele>
        <time>2026-08-29T05:14:53Z</time>
      </trkpt>
      <trkpt lat="42.815063" lon="13.266749">
        <ele>2153.122</ele>
        <time>2026-08-29T05:15:40Z</time>
      </trkpt>
      <trkpt lat="42.814947" lon="13.266679">
        <ele>2150.114</ele>
        <time>2026-08-29T05:16:03Z</time>
      </trkpt>
      <trkpt lat="42.814827" lon="13.266521">
        <ele>2144.109</ele>
        <time>2026-08-29T05:16:42Z</time>
      </trkpt>
      <trkpt lat="42.814797" lon="13.266545">
        <ele>2144.156</ele>
        <time>2026-08-29T05:16:53Z</time>
      </trkpt>
      <trkpt lat="42.814662" lon="13.266439">
        <ele>2142.682</ele>
        <time>2026-08-29T05:17:24Z</time>
      </trkpt>
      <trkpt lat="42.814611" lon="13.266463">
        <ele>2140.636</ele>
        <time>2026-08-29T05:17:35Z</time>
      </trkpt>
      <trkpt lat="42.814517" lon="13.266391">
        <ele>2134.670</ele>
        <time>2026-08-29T05:17:52Z</time>
      </trkpt>
      <trkpt lat="42.814429" lon="13.266389">
        <ele>2132.122</ele>
        <time>2026-08-29T05:18:06Z</time>
      </trkpt>
      <trkpt lat="42.814368" lon="13.266316">
        <ele>2129.657</ele>
        <time>2026-08-29T05:18:20Z</time>
      </trkpt>
      <trkpt lat="42.814065" lon="13.266185">
        <ele>2122.152</ele>
        <time>2026-08-29T05:19:10Z</time>
      </trkpt>
      <trkpt lat="42.813831" lon="13.266146">
        <ele>2117.198</ele>
        <time>2026-08-29T05:19:36Z</time>
      </trkpt>
      <trkpt lat="42.813683" lon="13.266033">
        <ele>2115.141</ele>
        <time>2026-08-29T05:19:58Z</time>
      </trkpt>
      <trkpt lat="42.813553" lon="13.266052">
        <ele>2111.151</ele>
        <time>2026-08-29T05:20:22Z</time>
      </trkpt>
      <trkpt lat="42.813400" lon="13.265951">
        <ele>2108.101</ele>
        <time>2026-08-29T05:20:44Z</time>
      </trkpt>
      <trkpt lat="42.813280" lon="13.265967">
        <ele>2107.111</ele>
        <time>2026-08-29T05:20:57Z</time>
      </trkpt>
      <trkpt lat="42.813141" lon="13.265846">
        <ele>2101.109</ele>
        <time>2026-08-29T05:21:16Z</time>
      </trkpt>
      <trkpt lat="42.812950" lon="13.265807">
        <ele>2097.637</ele>
        <time>2026-08-29T05:21:40Z</time>
      </trkpt>
      <trkpt lat="42.812481" lon="13.265482">
        <ele>2090.183</ele>
        <time>2026-08-29T05:22:38Z</time>
      </trkpt>
      <trkpt lat="42.811894" lon="13.265165">
        <ele>2083.167</ele>
        <time>2026-08-29T05:23:49Z</time>
      </trkpt>
      <trkpt lat="42.811704" lon="13.264994">
        <ele>2077.161</ele>
        <time>2026-08-29T05:24:16Z</time>
      </trkpt>
      <trkpt lat="42.811674" lon="13.265020">
        <ele>2075.633</ele>
        <time>2026-08-29T05:24:30Z</time>
      </trkpt>
      <trkpt lat="42.811368" lon="13.264921">
        <ele>2068.118</ele>
        <time>2026-08-29T05:25:26Z</time>
      </trkpt>
      <trkpt lat="42.811225" lon="13.264954">
        <ele>2068.123</ele>
        <time>2026-08-29T05:25:44Z</time>
      </trkpt>
      <trkpt lat="42.810760" lon="13.264659">
        <ele>2061.139</ele>
        <time>2026-08-29T05:26:48Z</time>
      </trkpt>
      <trkpt lat="42.810539" lon="13.264731">
        <ele>2055.142</ele>
        <time>2026-08-29T05:27:08Z</time>
      </trkpt>
      <trkpt lat="42.810320" lon="13.264698">
        <ele>2053.132</ele>
        <time>2026-08-29T05:27:27Z</time>
      </trkpt>
      <trkpt lat="42.810329" lon="13.264728">
        <ele>2053.192</ele>
        <time>2026-08-29T05:27:33Z</time>
      </trkpt>
      <trkpt lat="42.810249" lon="13.264600">
        <ele>2053.111</ele>
        <time>2026-08-29T05:27:57Z</time>
      </trkpt>
      <trkpt lat="42.810154" lon="13.264579">
        <ele>2053.109</ele>
        <time>2026-08-29T05:28:15Z</time>
      </trkpt>
      <trkpt lat="42.810273" lon="13.264620">
        <ele>2051.165</ele>
        <time>2026-08-29T05:29:22Z</time>
      </trkpt>
      <trkpt lat="42.810372" lon="13.264513">
        <ele>2048.131</ele>
        <time>2026-08-29T05:29:40Z</time>
      </trkpt>
      <trkpt lat="42.810435" lon="13.264368">
        <ele>2047.185</ele>
        <time>2026-08-29T05:29:56Z</time>
      </trkpt>
      <trkpt lat="42.810420" lon="13.264145">
        <ele>2047.159</ele>
        <time>2026-08-29T05:30:22Z</time>
      </trkpt>
      <trkpt lat="42.810151" lon="13.263914">
        <ele>2040.111</ele>
        <time>2026-08-29T05:30:53Z</time>
      </trkpt>
      <trkpt lat="42.809953" lon="13.263626">
        <ele>2035.126</ele>
        <time>2026-08-29T05:31:20Z</time>
      </trkpt>
      <trkpt lat="42.809740" lon="13.263454">
        <ele>2031.141</ele>
        <time>2026-08-29T05:31:43Z</time>
      </trkpt>
      <trkpt lat="42.809651" lon="13.263321">
        <ele>2028.147</ele>
        <time>2026-08-29T05:31:59Z</time>
      </trkpt>
      <trkpt lat="42.809436" lon="13.263171">
        <ele>2020.630</ele>
        <time>2026-08-29T05:32:24Z</time>
      </trkpt>
      <trkpt lat="42.809273" lon="13.263136">
        <ele>2017.119</ele>
        <time>2026-08-29T05:32:42Z</time>
      </trkpt>
      <trkpt lat="42.809075" lon="13.263009">
        <ele>2010.109</ele>
        <time>2026-08-29T05:33:21Z</time>
      </trkpt>
      <trkpt lat="42.808917" lon="13.262987">
        <ele>2004.619</ele>
        <time>2026-08-29T05:33:48Z</time>
      </trkpt>
      <trkpt lat="42.808662" lon="13.263049">
        <ele>1998.109</ele>
        <time>2026-08-29T05:34:16Z</time>
      </trkpt>
      <trkpt lat="42.808605" lon="13.263005">
        <ele>1995.193</ele>
        <time>2026-08-29T05:34:35Z</time>
      </trkpt>
      <trkpt lat="42.808615" lon="13.263057">
        <ele>1993.629</ele>
        <time>2026-08-29T05:34:50Z</time>
      </trkpt>
      <trkpt lat="42.808620" lon="13.263025">
        <ele>1990.193</ele>
        <time>2026-08-29T05:35:21Z</time>
      </trkpt>
      <trkpt lat="42.808351" lon="13.263047">
        <ele>1977.117</ele>
        <time>2026-08-29T05:35:53Z</time>
      </trkpt>
      <trkpt lat="42.808209" lon="13.263116">
        <ele>1973.179</ele>
        <time>2026-08-29T05:36:14Z</time>
      </trkpt>
      <trkpt lat="42.807975" lon="13.263112">
        <ele>1965.154</ele>
        <time>2026-08-29T05:36:45Z</time>
      </trkpt>
      <trkpt lat="42.807730" lon="13.263203">
        <ele>1960.179</ele>
        <time>2026-08-29T05:37:10Z</time>
      </trkpt>
      <trkpt lat="42.807408" lon="13.263202">
        <ele>1951.165</ele>
        <time>2026-08-29T05:38:02Z</time>
      </trkpt>
      <trkpt lat="42.807312" lon="13.263113">
        <ele>1946.638</ele>
        <time>2026-08-29T05:38:19Z</time>
      </trkpt>
      <trkpt lat="42.807104" lon="13.263122">
        <ele>1939.141</ele>
        <time>2026-08-29T05:38:53Z</time>
      </trkpt>
      <trkpt lat="42.806981" lon="13.262771">
        <ele>1930.181</ele>
        <time>2026-08-29T05:39:33Z</time>
      </trkpt>
      <trkpt lat="42.806534" lon="13.262526">
        <ele>1924.109</ele>
        <time>2026-08-29T05:40:15Z</time>
      </trkpt>
      <trkpt lat="42.806488" lon="13.262476">
        <ele>1923.109</ele>
        <time>2026-08-29T05:40:20Z</time>
      </trkpt>
      <trkpt lat="42.806521" lon="13.262442">
        <ele>1922.126</ele>
        <time>2026-08-29T05:40:43Z</time>
      </trkpt>
      <trkpt lat="42.806230" lon="13.262507">
        <ele>1920.652</ele>
        <time>2026-08-29T05:41:52Z</time>
      </trkpt>
      <trkpt lat="42.806113" lon="13.262484">
        <ele>1918.146</ele>
        <time>2026-08-29T05:42:16Z</time>
      </trkpt>
      <trkpt lat="42.806111" lon="13.262417">
        <ele>1911.170</ele>
        <time>2026-08-29T05:45:17Z</time>
      </trkpt>
      <trkpt lat="42.806046" lon="13.262440">
        <ele>1915.162</ele>
        <time>2026-08-29T05:47:42Z</time>
      </trkpt>
      <trkpt lat="42.805882" lon="13.262366">
        <ele>1914.117</ele>
        <time>2026-08-29T05:48:01Z</time>
      </trkpt>
      <trkpt lat="42.805691" lon="13.262112">
        <ele>1910.192</ele>
        <time>2026-08-29T05:48:27Z</time>
      </trkpt>
      <trkpt lat="42.805429" lon="13.261925">
        <ele>1906.168</ele>
        <time>2026-08-29T05:48:56Z</time>
      </trkpt>
      <trkpt lat="42.805120" lon="13.261607">
        <ele>1901.111</ele>
        <time>2026-08-29T05:49:31Z</time>
      </trkpt>
      <trkpt lat="42.803985" lon="13.261093">
        <ele>1891.199</ele>
        <time>2026-08-29T05:51:19Z</time>
      </trkpt>
      <trkpt lat="42.803523" lon="13.260713">
        <ele>1885.107</ele>
        <time>2026-08-29T05:52:11Z</time>
      </trkpt>
      <trkpt lat="42.803109" lon="13.259956">
        <ele>1873.127</ele>
        <time>2026-08-29T05:53:12Z</time>
      </trkpt>
      <trkpt lat="42.802882" lon="13.259735">
        <ele>1871.109</ele>
        <time>2026-08-29T05:53:37Z</time>
      </trkpt>
      <trkpt lat="42.802586" lon="13.259281">
        <ele>1864.111</ele>
        <time>2026-08-29T05:54:21Z</time>
      </trkpt>
      <trkpt lat="42.802462" lon="13.259208">
        <ele>1863.177</ele>
        <time>2026-08-29T05:54:33Z</time>
      </trkpt>
      <trkpt lat="42.802311" lon="13.258806">
        <ele>1856.581</ele>
        <time>2026-08-29T05:55:08Z</time>
      </trkpt>
      <trkpt lat="42.802409" lon="13.258527">
        <ele>1851.035</ele>
        <time>2026-08-29T05:55:36Z</time>
      </trkpt>
      <trkpt lat="42.802215" lon="13.258436">
        <ele>1847.087</ele>
        <time>2026-08-29T05:56:04Z</time>
      </trkpt>
      <trkpt lat="42.802281" lon="13.258247">
        <ele>1844.062</ele>
        <time>2026-08-29T05:56:22Z</time>
      </trkpt>
      <trkpt lat="42.802243" lon="13.258180">
        <ele>1842.017</ele>
        <time>2026-08-29T05:56:29Z</time>
      </trkpt>
      <trkpt lat="42.801738" lon="13.258174">
        <ele>1831.023</ele>
        <time>2026-08-29T05:57:25Z</time>
      </trkpt>
      <trkpt lat="42.801428" lon="13.258297">
        <ele>1826.026</ele>
        <time>2026-08-29T05:58:06Z</time>
      </trkpt>
      <trkpt lat="42.800943" lon="13.258988">
        <ele>1809.098</ele>
        <time>2026-08-29T05:59:36Z</time>
      </trkpt>
      <trkpt lat="42.800739" lon="13.259442">
        <ele>1797.015</ele>
        <time>2026-08-29T06:00:33Z</time>
      </trkpt>
      <trkpt lat="42.800559" lon="13.259506">
        <ele>1792.026</ele>
        <time>2026-08-29T06:00:59Z</time>
      </trkpt>
      <trkpt lat="42.800405" lon="13.259656">
        <ele>1788.509</ele>
        <time>2026-08-29T06:01:25Z</time>
      </trkpt>
      <trkpt lat="42.800149" lon="13.259754">
        <ele>1778.011</ele>
        <time>2026-08-29T06:02:00Z</time>
      </trkpt>
      <trkpt lat="42.800108" lon="13.259849">
        <ele>1775.527</ele>
        <time>2026-08-29T06:02:25Z</time>
      </trkpt>
      <trkpt lat="42.799938" lon="13.259823">
        <ele>1768.531</ele>
        <time>2026-08-29T06:03:30Z</time>
      </trkpt>
      <trkpt lat="42.799687" lon="13.259917">
        <ele>1765.015</ele>
        <time>2026-08-29T06:04:05Z</time>
      </trkpt>
      <trkpt lat="42.799370" lon="13.259908">
        <ele>1760.567</ele>
        <time>2026-08-29T06:04:46Z</time>
      </trkpt>
      <trkpt lat="42.799254" lon="13.259759">
        <ele>1758.072</ele>
        <time>2026-08-29T06:05:11Z</time>
      </trkpt>
      <trkpt lat="42.798949" lon="13.259120">
        <ele>1750.037</ele>
        <time>2026-08-29T06:06:09Z</time>
      </trkpt>
      <trkpt lat="42.798830" lon="13.258713">
        <ele>1747.093</ele>
        <time>2026-08-29T06:06:43Z</time>
      </trkpt>
      <trkpt lat="42.798446" lon="13.259083">
        <ele>1738.566</ele>
        <time>2026-08-29T06:07:37Z</time>
      </trkpt>
      <trkpt lat="42.798263" lon="13.259470">
        <ele>1735.091</ele>
        <time>2026-08-29T06:08:11Z</time>
      </trkpt>
      <trkpt lat="42.798118" lon="13.259511">
        <ele>1731.081</ele>
        <time>2026-08-29T06:08:23Z</time>
      </trkpt>
      <trkpt lat="42.797714" lon="13.259116">
        <ele>1719.019</ele>
        <time>2026-08-29T06:09:07Z</time>
      </trkpt>
      <trkpt lat="42.797375" lon="13.259069">
        <ele>1716.009</ele>
        <time>2026-08-29T06:09:42Z</time>
      </trkpt>
      <trkpt lat="42.796768" lon="13.258763">
        <ele>1708.061</ele>
        <time>2026-08-29T06:10:45Z</time>
      </trkpt>
      <trkpt lat="42.796429" lon="13.258853">
        <ele>1703.537</ele>
        <time>2026-08-29T06:11:15Z</time>
      </trkpt>
      <trkpt lat="42.796224" lon="13.258841">
        <ele>1699.561</ele>
        <time>2026-08-29T06:11:37Z</time>
      </trkpt>
      <trkpt lat="42.795886" lon="13.258736">
        <ele>1697.015</ele>
        <time>2026-08-29T06:12:13Z</time>
      </trkpt>
      <trkpt lat="42.795740" lon="13.258777">
        <ele>1694.017</ele>
        <time>2026-08-29T06:12:27Z</time>
      </trkpt>
      <trkpt lat="42.795627" lon="13.258735">
        <ele>1692.042</ele>
        <time>2026-08-29T06:12:50Z</time>
      </trkpt>
      <trkpt lat="42.795443" lon="13.258511">
        <ele>1685.087</ele>
        <time>2026-08-29T06:13:10Z</time>
      </trkpt>
      <trkpt lat="42.795098" lon="13.258425">
        <ele>1680.513</ele>
        <time>2026-08-29T06:13:41Z</time>
      </trkpt>
      <trkpt lat="42.794954" lon="13.258435">
        <ele>1679.056</ele>
        <time>2026-08-29T06:13:53Z</time>
      </trkpt>
      <trkpt lat="42.794656" lon="13.258569">
        <ele>1676.078</ele>
        <time>2026-08-29T06:14:20Z</time>
      </trkpt>
      <trkpt lat="42.794454" lon="13.258728">
        <ele>1675.033</ele>
        <time>2026-08-29T06:14:55Z</time>
      </trkpt>
      <trkpt lat="42.794081" lon="13.258688">
        <ele>1664.026</ele>
        <time>2026-08-29T06:15:56Z</time>
      </trkpt>
      <trkpt lat="42.793966" lon="13.258751">
        <ele>1661.509</ele>
        <time>2026-08-29T06:16:14Z</time>
      </trkpt>
      <trkpt lat="42.793935" lon="13.258716">
        <ele>1659.049</ele>
        <time>2026-08-29T06:16:26Z</time>
      </trkpt>
      <trkpt lat="42.793435" lon="13.258934">
        <ele>1632.045</ele>
        <time>2026-08-29T06:17:39Z</time>
      </trkpt>
      <trkpt lat="42.793447" lon="13.258729">
        <ele>1627.039</ele>
        <time>2026-08-29T06:18:06Z</time>
      </trkpt>
      <trkpt lat="42.793344" lon="13.258822">
        <ele>1626.043</ele>
        <time>2026-08-29T06:18:23Z</time>
      </trkpt>
      <trkpt lat="42.793326" lon="13.258775">
        <ele>1626.035</ele>
        <time>2026-08-29T06:18:28Z</time>
      </trkpt>
      <trkpt lat="42.793189" lon="13.258799">
        <ele>1623.560</ele>
        <time>2026-08-29T06:19:20Z</time>
      </trkpt>
      <trkpt lat="42.792614" lon="13.259245">
        <ele>1607.055</ele>
        <time>2026-08-29T06:21:05Z</time>
      </trkpt>
      <trkpt lat="42.792376" lon="13.259355">
        <ele>1601.031</ele>
        <time>2026-08-29T06:21:54Z</time>
      </trkpt>
      <trkpt lat="42.792249" lon="13.259298">
        <ele>1598.074</ele>
        <time>2026-08-29T06:22:07Z</time>
      </trkpt>
      <trkpt lat="42.792210" lon="13.259211">
        <ele>1596.045</ele>
        <time>2026-08-29T06:22:19Z</time>
      </trkpt>
      <trkpt lat="42.792005" lon="13.259139">
        <ele>1592.047</ele>
        <time>2026-08-29T06:22:38Z</time>
      </trkpt>
      <trkpt lat="42.791811" lon="13.259171">
        <ele>1588.011</ele>
        <time>2026-08-29T06:22:56Z</time>
      </trkpt>
      <trkpt lat="42.791699" lon="13.259281">
        <ele>1587.009</ele>
        <time>2026-08-29T06:23:19Z</time>
      </trkpt>
      <trkpt lat="42.791643" lon="13.259239">
        <ele>1585.546</ele>
        <time>2026-08-29T06:23:38Z</time>
      </trkpt>
      <trkpt lat="42.791487" lon="13.259294">
        <ele>1579.052</ele>
        <time>2026-08-29T06:24:00Z</time>
      </trkpt>
      <trkpt lat="42.791275" lon="13.259406">
        <ele>1576.026</ele>
        <time>2026-08-29T06:24:26Z</time>
      </trkpt>
      <trkpt lat="42.791262" lon="13.259471">
        <ele>1575.520</ele>
        <time>2026-08-29T06:24:43Z</time>
      </trkpt>
      <trkpt lat="42.791094" lon="13.259593">
        <ele>1569.542</ele>
        <time>2026-08-29T06:25:08Z</time>
      </trkpt>
      <trkpt lat="42.790692" lon="13.260306">
        <ele>1560.017</ele>
        <time>2026-08-29T06:26:30Z</time>
      </trkpt>
      <trkpt lat="42.790380" lon="13.260657">
        <ele>1553.052</ele>
        <time>2026-08-29T06:27:21Z</time>
      </trkpt>
      <trkpt lat="42.790181" lon="13.260612">
        <ele>1548.078</ele>
        <time>2026-08-29T06:27:51Z</time>
      </trkpt>
      <trkpt lat="42.790132" lon="13.260690">
        <ele>1547.091</ele>
        <time>2026-08-29T06:28:00Z</time>
      </trkpt>
      <trkpt lat="42.790021" lon="13.260719">
        <ele>1544.099</ele>
        <time>2026-08-29T06:28:13Z</time>
      </trkpt>
      <trkpt lat="42.789926" lon="13.260677">
        <ele>1541.007</ele>
        <time>2026-08-29T06:28:23Z</time>
      </trkpt>
      <trkpt lat="42.789783" lon="13.260692">
        <ele>1539.027</ele>
        <time>2026-08-29T06:28:38Z</time>
      </trkpt>
    </trkseg>
  </trk></gpx>