<?xml version="1.0" encoding="UTF-8"?>
<gpx creator="Wikiloc - https://www.wikiloc.com" version="1.1" xmlns="http://www.topografix.com/GPX/1/1" xmlns:xsi="http://www.w3.org/2001/XMLSchema-instance" xsi:schemaLocation="http://www.topografix.com/GPX/1/1 http://www.topografix.com/GPX/1/1/gpx.xsd">
  <metadata>
    <name>Wikiloc - Pizzo Pellecchia, Cima Fidene e Monte Pellecchia da Montefla...</name>
    <link href="https://www.wikiloc.com/hiking-trails/pizzo-pellecchia-cima-fidene-e-monte-pellecchia-da-monteflavio-284307802">
      <text>Pizzo Pellecchia, Cima Fidene e Monte Pellecchia da Montefla... on Wikiloc</text>
    </link>
    <time>2026-09-06T13:29:09.497Z</time>
  </metadata>
  <trk>
    <name>Pizzo Pellecchia, Cima Fidene e Monte Pellecchia da Montefla... - Wikiloc</name>
    <cmt></cmt>
    <desc></desc>
    <trkseg>
      <trkpt lat="42.107890" lon="12.835210">
        <ele>811.211</ele>
        <time>2026-09-06T07:03:47Z</time>
      </trkpt>
      <trkpt lat="42.107694" lon="12.836265">
        <ele>807.521</ele>
        <time>2026-09-06T07:05:13Z</time>
      </trkpt>
      <trkpt lat="42.106816" lon="12.837480">
        <ele>818.903</ele>
        <time>2026-09-06T07:07:22Z</time>
      </trkpt>
      <trkpt lat="42.106398" lon="12.837882">
        <ele>822.109</ele>
        <time>2026-09-06T07:08:10.002Z</time>
      </trkpt>
      <trkpt lat="42.105301" lon="12.838456">
        <ele>831.233</ele>
        <time>2026-09-06T07:10:08.004Z</time>
      </trkpt>
      <trkpt lat="42.104972" lon="12.838320">
        <ele>833.379</ele>
        <time>2026-09-06T07:10:43.004Z</time>
      </trkpt>
      <trkpt lat="42.104589" lon="12.838418">
        <ele>835.835</ele>
        <time>2026-09-06T07:11:21.004Z</time>
      </trkpt>
      <trkpt lat="42.102477" lon="12.839187">
        <ele>856.464</ele>
        <time>2026-09-06T07:15:16.007Z</time>
      </trkpt>
      <trkpt lat="42.101716" lon="12.839699">
        <ele>870.821</ele>
        <time>2026-09-06T07:17:10.008Z</time>
      </trkpt>
      <trkpt lat="42.101570" lon="12.839958">
        <ele>875.658</ele>
        <time>2026-09-06T07:17:40.008Z</time>
      </trkpt>
      <trkpt lat="42.101513" lon="12.841601">
        <ele>895.259</ele>
        <time>2026-09-06T07:20:34.012Z</time>
      </trkpt>
      <trkpt lat="42.101663" lon="12.842575">
        <ele>907.891</ele>
        <time>2026-09-06T07:22:43.014Z</time>
      </trkpt>
      <trkpt lat="42.101601" lon="12.843097">
        <ele>912.583</ele>
        <time>2026-09-06T07:23:31.014Z</time>
      </trkpt>
      <trkpt lat="42.101708" lon="12.843382">
        <ele>916.711</ele>
        <time>2026-09-06T07:24:08.014Z</time>
      </trkpt>
      <trkpt lat="42.101820" lon="12.843338">
        <ele>920.021</ele>
        <time>2026-09-06T07:24:29.014Z</time>
      </trkpt>
      <trkpt lat="42.101869" lon="12.843835">
        <ele>927.203</ele>
        <time>2026-09-06T07:25:16.016Z</time>
      </trkpt>
      <trkpt lat="42.101718" lon="12.844147">
        <ele>932.509</ele>
        <time>2026-09-06T07:25:57.016Z</time>
      </trkpt>
      <trkpt lat="42.101249" lon="12.844277">
        <ele>942.413</ele>
        <time>2026-09-06T07:27:06.018Z</time>
      </trkpt>
      <trkpt lat="42.101190" lon="12.844645">
        <ele>946.229</ele>
        <time>2026-09-06T07:27:50.018Z</time>
      </trkpt>
      <trkpt lat="42.101698" lon="12.848059">
        <ele>980.825</ele>
        <time>2026-09-06T07:33:22.024Z</time>
      </trkpt>
      <trkpt lat="42.101621" lon="12.849352">
        <ele>996.334</ele>
        <time>2026-09-06T07:35:32.026Z</time>
      </trkpt>
      <trkpt lat="42.101784" lon="12.849257">
        <ele>1000.561</ele>
        <time>2026-09-06T07:35:56.026Z</time>
      </trkpt>
      <trkpt lat="42.101621" lon="12.850010">
        <ele>1009.338</ele>
        <time>2026-09-06T07:37:08.028Z</time>
      </trkpt>
      <trkpt lat="42.101859" lon="12.850533">
        <ele>1016.559</ele>
        <time>2026-09-06T07:38:37.028Z</time>
      </trkpt>
      <trkpt lat="42.101616" lon="12.850561">
        <ele>1017.131</ele>
        <time>2026-09-06T07:42:31.029Z</time>
      </trkpt>
      <trkpt lat="42.101710" lon="12.850646">
        <ele>1016.453</ele>
        <time>2026-09-06T07:50:06.030Z</time>
      </trkpt>
      <trkpt lat="42.101374" lon="12.851637">
        <ele>1010.369</ele>
        <time>2026-09-06T07:51:30.030Z</time>
      </trkpt>
      <trkpt lat="42.101406" lon="12.852097">
        <ele>1009.504</ele>
        <time>2026-09-06T07:53:22.031Z</time>
      </trkpt>
      <trkpt lat="42.101609" lon="12.852572">
        <ele>1010.724</ele>
        <time>2026-09-06T07:54:13.032Z</time>
      </trkpt>
      <trkpt lat="42.101475" lon="12.853101">
        <ele>1005.309</ele>
        <time>2026-09-06T07:55:11.032Z</time>
      </trkpt>
      <trkpt lat="42.101207" lon="12.853279">
        <ele>1001.668</ele>
        <time>2026-09-06T07:55:46.032Z</time>
      </trkpt>
      <trkpt lat="42.100769" lon="12.853378">
        <ele>997.774</ele>
        <time>2026-09-06T07:56:33.033Z</time>
      </trkpt>
      <trkpt lat="42.100654" lon="12.854022">
        <ele>994.860</ele>
        <time>2026-09-06T07:57:19.033Z</time>
      </trkpt>
      <trkpt lat="42.100186" lon="12.854461">
        <ele>989.599</ele>
        <time>2026-09-06T07:58:31.034Z</time>
      </trkpt>
      <trkpt lat="42.099811" lon="12.854529">
        <ele>984.156</ele>
        <time>2026-09-06T07:59:20.034Z</time>
      </trkpt>
      <trkpt lat="42.099462" lon="12.854268">
        <ele>979.453</ele>
        <time>2026-09-06T08:00:08.034Z</time>
      </trkpt>
      <trkpt lat="42.099359" lon="12.854297">
        <ele>978.444</ele>
        <time>2026-09-06T08:00:17.035Z</time>
      </trkpt>
      <trkpt lat="42.099099" lon="12.854888">
        <ele>975.186</ele>
        <time>2026-09-06T08:01:03.035Z</time>
      </trkpt>
      <trkpt lat="42.098839" lon="12.855196">
        <ele>973.258</ele>
        <time>2026-09-06T08:01:39.035Z</time>
      </trkpt>
      <trkpt lat="42.098827" lon="12.855778">
        <ele>969.333</ele>
        <time>2026-09-06T08:03:50.035Z</time>
      </trkpt>
      <trkpt lat="42.098541" lon="12.856411">
        <ele>974.823</ele>
        <time>2026-09-06T08:04:55.035Z</time>
      </trkpt>
      <trkpt lat="42.098318" lon="12.856650">
        <ele>975.115</ele>
        <time>2026-09-06T08:05:28.035Z</time>
      </trkpt>
      <trkpt lat="42.097930" lon="12.856616">
        <ele>979.409</ele>
        <time>2026-09-06T08:06:11.035Z</time>
      </trkpt>
      <trkpt lat="42.097653" lon="12.856769">
        <ele>982.585</ele>
        <time>2026-09-06T08:07:04.036Z</time>
      </trkpt>
      <trkpt lat="42.097628" lon="12.856958">
        <ele>984.881</ele>
        <time>2026-09-06T08:07:36.036Z</time>
      </trkpt>
      <trkpt lat="42.097789" lon="12.857065">
        <ele>991.387</ele>
        <time>2026-09-06T08:08:13.036Z</time>
      </trkpt>
      <trkpt lat="42.097809" lon="12.857226">
        <ele>995.526</ele>
        <time>2026-09-06T08:08:45.037Z</time>
      </trkpt>
      <trkpt lat="42.097753" lon="12.857658">
        <ele>1004.583</ele>
        <time>2026-09-06T08:09:44.037Z</time>
      </trkpt>
      <trkpt lat="42.098001" lon="12.857809">
        <ele>1015.140</ele>
        <time>2026-09-06T08:10:47.038Z</time>
      </trkpt>
      <trkpt lat="42.097767" lon="12.857647">
        <ele>1013.551</ele>
        <time>2026-09-06T08:16:24.036Z</time>
      </trkpt>
      <trkpt lat="42.097817" lon="12.857185">
        <ele>1003.683</ele>
        <time>2026-09-06T08:17:34.037Z</time>
      </trkpt>
      <trkpt lat="42.097763" lon="12.857010">
        <ele>999.455</ele>
        <time>2026-09-06T08:18:12.037Z</time>
      </trkpt>
      <trkpt lat="42.097672" lon="12.857010">
        <ele>995.779</ele>
        <time>2026-09-06T08:18:32.037Z</time>
      </trkpt>
      <trkpt lat="42.097692" lon="12.856787">
        <ele>989.705</ele>
        <time>2026-09-06T08:19:39.038Z</time>
      </trkpt>
      <trkpt lat="42.097527" lon="12.856926">
        <ele>983.825</ele>
        <time>2026-09-06T08:20:50.038Z</time>
      </trkpt>
      <trkpt lat="42.097436" lon="12.857196">
        <ele>982.809</ele>
        <time>2026-09-06T08:39:44.038Z</time>
      </trkpt>
      <trkpt lat="42.096946" lon="12.856908">
        <ele>984.929</ele>
        <time>2026-09-06T08:41:00.040Z</time>
      </trkpt>
      <trkpt lat="42.096610" lon="12.856944">
        <ele>989.455</ele>
        <time>2026-09-06T08:41:45.040Z</time>
      </trkpt>
      <trkpt lat="42.096120" lon="12.857855">
        <ele>988.341</ele>
        <time>2026-09-06T08:43:42.042Z</time>
      </trkpt>
      <trkpt lat="42.095943" lon="12.857547">
        <ele>985.720</ele>
        <time>2026-09-06T08:44:38.043Z</time>
      </trkpt>
      <trkpt lat="42.095515" lon="12.857164">
        <ele>986.227</ele>
        <time>2026-09-06T08:45:36.043Z</time>
      </trkpt>
      <trkpt lat="42.095342" lon="12.857147">
        <ele>986.944</ele>
        <time>2026-09-06T08:45:57.043Z</time>
      </trkpt>
      <trkpt lat="42.094990" lon="12.857388">
        <ele>992.425</ele>
        <time>2026-09-06T08:46:44.044Z</time>
      </trkpt>
      <trkpt lat="42.094898" lon="12.857559">
        <ele>993.917</ele>
        <time>2026-09-06T08:47:03.044Z</time>
      </trkpt>
      <trkpt lat="42.094605" lon="12.858550">
        <ele>996.779</ele>
        <time>2026-09-06T08:49:03.045Z</time>
      </trkpt>
      <trkpt lat="42.094019" lon="12.858554">
        <ele>995.394</ele>
        <time>2026-09-06T08:50:08.045Z</time>
      </trkpt>
      <trkpt lat="42.093374" lon="12.858832">
        <ele>998.357</ele>
        <time>2026-09-06T08:51:32.046Z</time>
      </trkpt>
      <trkpt lat="42.093128" lon="12.858839">
        <ele>997.922</ele>
        <time>2026-09-06T08:52:11.046Z</time>
      </trkpt>
      <trkpt lat="42.092421" lon="12.859401">
        <ele>1001.909</ele>
        <time>2026-09-06T08:55:09.048Z</time>
      </trkpt>
      <trkpt lat="42.092036" lon="12.859311">
        <ele>1008.431</ele>
        <time>2026-09-06T08:56:07.048Z</time>
      </trkpt>
      <trkpt lat="42.091751" lon="12.859511">
        <ele>1015.227</ele>
        <time>2026-09-06T08:56:53.048Z</time>
      </trkpt>
      <trkpt lat="42.091283" lon="12.859552">
        <ele>1026.383</ele>
        <time>2026-09-06T08:58:28.050Z</time>
      </trkpt>
      <trkpt lat="42.090683" lon="12.859935">
        <ele>1032.782</ele>
        <time>2026-09-06T08:59:57.051Z</time>
      </trkpt>
      <trkpt lat="42.090345" lon="12.859989">
        <ele>1036.689</ele>
        <time>2026-09-06T09:00:47.051Z</time>
      </trkpt>
      <trkpt lat="42.090260" lon="12.860138">
        <ele>1038.046</ele>
        <time>2026-09-06T09:01:13.052Z</time>
      </trkpt>
      <trkpt lat="42.089834" lon="12.859857">
        <ele>1040.937</ele>
        <time>2026-09-06T09:02:46.052Z</time>
      </trkpt>
      <trkpt lat="42.089895" lon="12.860144">
        <ele>1041.029</ele>
        <time>2026-09-06T09:03:31.053Z</time>
      </trkpt>
      <trkpt lat="42.089543" lon="12.860418">
        <ele>1043.711</ele>
        <time>2026-09-06T09:04:19.053Z</time>
      </trkpt>
      <trkpt lat="42.088532" lon="12.861989">
        <ele>1071.369</ele>
        <time>2026-09-06T09:08:50.056Z</time>
      </trkpt>
      <trkpt lat="42.088012" lon="12.862435">
        <ele>1085.204</ele>
        <time>2026-09-06T09:11:24.058Z</time>
      </trkpt>
      <trkpt lat="42.088088" lon="12.862606">
        <ele>1086.424</ele>
        <time>2026-09-06T09:13:02.058Z</time>
      </trkpt>
      <trkpt lat="42.088218" lon="12.862499">
        <ele>1088.609</ele>
        <time>2026-09-06T09:13:47.059Z</time>
      </trkpt>
      <trkpt lat="42.088427" lon="12.862944">
        <ele>1098.328</ele>
        <time>2026-09-06T09:15:00.059Z</time>
      </trkpt>
      <trkpt lat="42.088571" lon="12.862991">
        <ele>1102.964</ele>
        <time>2026-09-06T09:15:25.059Z</time>
      </trkpt>
      <trkpt lat="42.088647" lon="12.863155">
        <ele>1108.010</ele>
        <time>2026-09-06T09:16:04.060Z</time>
      </trkpt>
      <trkpt lat="42.088682" lon="12.863651">
        <ele>1121.329</ele>
        <time>2026-09-06T09:17:51.060Z</time>
      </trkpt>
      <trkpt lat="42.088825" lon="12.863865">
        <ele>1127.376</ele>
        <time>2026-09-06T09:18:49.061Z</time>
      </trkpt>
      <trkpt lat="42.089071" lon="12.864982">
        <ele>1148.623</ele>
        <time>2026-09-06T09:22:01.062Z</time>
      </trkpt>
      <trkpt lat="42.089414" lon="12.865540">
        <ele>1161.084</ele>
        <time>2026-09-06T09:23:25.063Z</time>
      </trkpt>
      <trkpt lat="42.089762" lon="12.866405">
        <ele>1186.866</ele>
        <time>2026-09-06T09:26:26.065Z</time>
      </trkpt>
      <trkpt lat="42.090052" lon="12.866729">
        <ele>1201.888</ele>
        <time>2026-09-06T09:28:02.065Z</time>
      </trkpt>
      <trkpt lat="42.090007" lon="12.866820">
        <ele>1206.167</ele>
        <time>2026-09-06T09:28:29.066Z</time>
      </trkpt>
      <trkpt lat="42.090160" lon="12.866884">
        <ele>1210.881</ele>
        <time>2026-09-06T09:30:27.065Z</time>
      </trkpt>
      <trkpt lat="42.090056" lon="12.867103">
        <ele>1217.219</ele>
        <time>2026-09-06T09:30:57.066Z</time>
      </trkpt>
      <trkpt lat="42.090201" lon="12.867346">
        <ele>1223.709</ele>
        <time>2026-09-06T09:31:54.066Z</time>
      </trkpt>
      <trkpt lat="42.090535" lon="12.867594">
        <ele>1237.788</ele>
        <time>2026-09-06T09:33:22.067Z</time>
      </trkpt>
      <trkpt lat="42.090987" lon="12.868337">
        <ele>1257.974</ele>
        <time>2026-09-06T09:35:40.068Z</time>
      </trkpt>
      <trkpt lat="42.090941" lon="12.868576">
        <ele>1260.510</ele>
        <time>2026-09-06T09:36:02.068Z</time>
      </trkpt>
      <trkpt lat="42.091389" lon="12.869405">
        <ele>1276.169</ele>
        <time>2026-09-06T09:38:01.069Z</time>
      </trkpt>
      <trkpt lat="42.091241" lon="12.870009">
        <ele>1288.276</ele>
        <time>2026-09-06T09:40:03.069Z</time>
      </trkpt>
      <trkpt lat="42.091466" lon="12.869527">
        <ele>1286.083</ele>
        <time>2026-09-06T09:51:10.070Z</time>
      </trkpt>
      <trkpt lat="42.091798" lon="12.869412">
        <ele>1279.334</ele>
        <time>2026-09-06T09:52:15.071Z</time>
      </trkpt>
      <trkpt lat="42.092332" lon="12.868926">
        <ele>1270.796</ele>
        <time>2026-09-06T09:53:51.071Z</time>
      </trkpt>
      <trkpt lat="42.093161" lon="12.868619">
        <ele>1272.598</ele>
        <time>2026-09-06T09:55:38.071Z</time>
      </trkpt>
      <trkpt lat="42.093455" lon="12.868316">
        <ele>1281.546</ele>
        <time>2026-09-06T09:56:40.072Z</time>
      </trkpt>
      <trkpt lat="42.093985" lon="12.868239">
        <ele>1294.088</ele>
        <time>2026-09-06T09:58:25.073Z</time>
      </trkpt>
      <trkpt lat="42.094632" lon="12.868284">
        <ele>1297.716</ele>
        <time>2026-09-06T09:59:36.073Z</time>
      </trkpt>
      <trkpt lat="42.095184" lon="12.867487">
        <ele>1305.509</ele>
        <time>2026-09-06T10:01:24.074Z</time>
      </trkpt>
      <trkpt lat="42.095696" lon="12.867202">
        <ele>1306.376</ele>
        <time>2026-09-06T10:02:33.075Z</time>
      </trkpt>
      <trkpt lat="42.096039" lon="12.866837">
        <ele>1309.622</ele>
        <time>2026-09-06T10:03:39.075Z</time>
      </trkpt>
      <trkpt lat="42.096290" lon="12.866802">
        <ele>1303.648</ele>
        <time>2026-09-06T10:04:26.076Z</time>
      </trkpt>
      <trkpt lat="42.096592" lon="12.866515">
        <ele>1298.657</ele>
        <time>2026-09-06T10:05:57.076Z</time>
      </trkpt>
      <trkpt lat="42.097125" lon="12.866493">
        <ele>1299.174</ele>
        <time>2026-09-06T10:07:14.077Z</time>
      </trkpt>
      <trkpt lat="42.098906" lon="12.865993">
        <ele>1321.451</ele>
        <time>2026-09-06T10:11:47.079Z</time>
      </trkpt>
      <trkpt lat="42.099821" lon="12.865922">
        <ele>1313.132</ele>
        <time>2026-09-06T10:14:37.081Z</time>
      </trkpt>
      <trkpt lat="42.100569" lon="12.866371">
        <ele>1309.794</ele>
        <time>2026-09-06T10:17:53.082Z</time>
      </trkpt>
      <trkpt lat="42.100816" lon="12.866967">
        <ele>1294.626</ele>
        <time>2026-09-06T10:20:34.083Z</time>
      </trkpt>
      <trkpt lat="42.101125" lon="12.867247">
        <ele>1291.166</ele>
        <time>2026-09-06T10:21:16.084Z</time>
      </trkpt>
      <trkpt lat="42.102694" lon="12.866515">
        <ele>1308.329</ele>
        <time>2026-09-06T10:24:48.085Z</time>
      </trkpt>
      <trkpt lat="42.103292" lon="12.866476">
        <ele>1318.221</ele>
        <time>2026-09-06T10:26:04.086Z</time>
      </trkpt>
      <trkpt lat="42.103670" lon="12.866591">
        <ele>1320.509</ele>
        <time>2026-09-06T10:26:53.086Z</time>
      </trkpt>
      <trkpt lat="42.103730" lon="12.866523">
        <ele>1322.778</ele>
        <time>2026-09-06T10:27:32.087Z</time>
      </trkpt>
      <trkpt lat="42.103825" lon="12.866744">
        <ele>1324.724</ele>
        <time>2026-09-06T10:29:52.086Z</time>
      </trkpt>
      <trkpt lat="42.104181" lon="12.866439">
        <ele>1314.880</ele>
        <time>2026-09-06T11:20:46.087Z</time>
      </trkpt>
      <trkpt lat="42.104162" lon="12.866531">
        <ele>1314.769</ele>
        <time>2026-09-06T11:21:03.087Z</time>
      </trkpt>
      <trkpt lat="42.104362" lon="12.866422">
        <ele>1312.116</ele>
        <time>2026-09-06T11:26:13.088Z</time>
      </trkpt>
      <trkpt lat="42.104598" lon="12.866075">
        <ele>1303.643</ele>
        <time>2026-09-06T11:27:04.088Z</time>
      </trkpt>
      <trkpt lat="42.106198" lon="12.865792">
        <ele>1309.144</ele>
        <time>2026-09-06T11:30:04.089Z</time>
      </trkpt>
      <trkpt lat="42.106353" lon="12.865942">
        <ele>1310.246</ele>
        <time>2026-09-06T11:30:25.090Z</time>
      </trkpt>
      <trkpt lat="42.107276" lon="12.865859">
        <ele>1300.958</ele>
        <time>2026-09-06T11:32:26.091Z</time>
      </trkpt>
      <trkpt lat="42.107947" lon="12.866248">
        <ele>1290.191</ele>
        <time>2026-09-06T11:33:57.091Z</time>
      </trkpt>
      <trkpt lat="42.108504" lon="12.866210">
        <ele>1279.981</ele>
        <time>2026-09-06T11:35:34.093Z</time>
      </trkpt>
      <trkpt lat="42.108828" lon="12.866066">
        <ele>1272.819</ele>
        <time>2026-09-06T11:36:26.093Z</time>
      </trkpt>
      <trkpt lat="42.108910" lon="12.865764">
        <ele>1268.409</ele>
        <time>2026-09-06T11:37:21.094Z</time>
      </trkpt>
      <trkpt lat="42.109183" lon="12.865482">
        <ele>1262.511</ele>
        <time>2026-09-06T11:38:15.094Z</time>
      </trkpt>
      <trkpt lat="42.109162" lon="12.865356">
        <ele>1261.047</ele>
        <time>2026-09-06T11:38:27.094Z</time>
      </trkpt>
      <trkpt lat="42.109667" lon="12.864902">
        <ele>1249.423</ele>
        <time>2026-09-06T11:39:59.095Z</time>
      </trkpt>
      <trkpt lat="42.109607" lon="12.864013">
        <ele>1232.332</ele>
        <time>2026-09-06T11:42:02.096Z</time>
      </trkpt>
      <trkpt lat="42.109750" lon="12.863615">
        <ele>1223.599</ele>
        <time>2026-09-06T11:42:57.097Z</time>
      </trkpt>
      <trkpt lat="42.109636" lon="12.863517">
        <ele>1220.876</ele>
        <time>2026-09-06T11:43:21.097Z</time>
      </trkpt>
      <trkpt lat="42.109685" lon="12.863367">
        <ele>1216.877</ele>
        <time>2026-09-06T11:43:54.097Z</time>
      </trkpt>
      <trkpt lat="42.109582" lon="12.863244">
        <ele>1213.119</ele>
        <time>2026-09-06T11:44:31.097Z</time>
      </trkpt>
      <trkpt lat="42.109120" lon="12.863087">
        <ele>1199.631</ele>
        <time>2026-09-06T11:45:54.098Z</time>
      </trkpt>
      <trkpt lat="42.108858" lon="12.862529">
        <ele>1186.551</ele>
        <time>2026-09-06T11:47:59.099Z</time>
      </trkpt>
      <trkpt lat="42.108632" lon="12.862474">
        <ele>1181.501</ele>
        <time>2026-09-06T11:48:31.099Z</time>
      </trkpt>
      <trkpt lat="42.108794" lon="12.862301">
        <ele>1176.711</ele>
        <time>2026-09-06T11:49:19.100Z</time>
      </trkpt>
      <trkpt lat="42.108689" lon="12.862025">
        <ele>1170.309</ele>
        <time>2026-09-06T11:50:15.100Z</time>
      </trkpt>
      <trkpt lat="42.108464" lon="12.861937">
        <ele>1163.627</ele>
        <time>2026-09-06T11:51:03.100Z</time>
      </trkpt>
      <trkpt lat="42.108154" lon="12.862090">
        <ele>1155.953</ele>
        <time>2026-09-06T11:51:59.102Z</time>
      </trkpt>
      <trkpt lat="42.107942" lon="12.861953">
        <ele>1149.529</ele>
        <time>2026-09-06T11:52:40.102Z</time>
      </trkpt>
      <trkpt lat="42.107665" lon="12.861647">
        <ele>1142.178</ele>
        <time>2026-09-06T11:53:43.104Z</time>
      </trkpt>
      <trkpt lat="42.107575" lon="12.861315">
        <ele>1133.845</ele>
        <time>2026-09-06T11:54:54.104Z</time>
      </trkpt>
      <trkpt lat="42.107114" lon="12.860978">
        <ele>1122.022</ele>
        <time>2026-09-06T11:56:26.106Z</time>
      </trkpt>
      <trkpt lat="42.106949" lon="12.860633">
        <ele>1113.223</ele>
        <time>2026-09-06T11:57:45.107Z</time>
      </trkpt>
      <trkpt lat="42.106232" lon="12.860130">
        <ele>1091.865</ele>
        <time>2026-09-06T12:00:42.109Z</time>
      </trkpt>
      <trkpt lat="42.105597" lon="12.859868">
        <ele>1079.857</ele>
        <time>2026-09-06T12:02:15.111Z</time>
      </trkpt>
      <trkpt lat="42.104959" lon="12.859955">
        <ele>1068.631</ele>
        <time>2026-09-06T12:03:49.112Z</time>
      </trkpt>
      <trkpt lat="42.105071" lon="12.859793">
        <ele>1065.161</ele>
        <time>2026-09-06T12:04:31.112Z</time>
      </trkpt>
      <trkpt lat="42.104794" lon="12.859844">
        <ele>1060.407</ele>
        <time>2026-09-06T12:07:46.112Z</time>
      </trkpt>
      <trkpt lat="42.104737" lon="12.859707">
        <ele>1057.309</ele>
        <time>2026-09-06T12:08:33.113Z</time>
      </trkpt>
      <trkpt lat="42.104888" lon="12.859465">
        <ele>1050.815</ele>
        <time>2026-09-06T12:09:25.113Z</time>
      </trkpt>
      <trkpt lat="42.104418" lon="12.859226">
        <ele>1036.661</ele>
        <time>2026-09-06T12:12:13.115Z</time>
      </trkpt>
      <trkpt lat="42.104235" lon="12.858935">
        <ele>1029.697</ele>
        <time>2026-09-06T12:13:48.115Z</time>
      </trkpt>
      <trkpt lat="42.104091" lon="12.858929">
        <ele>1025.946</ele>
        <time>2026-09-06T12:14:32.116Z</time>
      </trkpt>
      <trkpt lat="42.104068" lon="12.858454">
        <ele>1016.843</ele>
        <time>2026-09-06T12:16:03.116Z</time>
      </trkpt>
      <trkpt lat="42.103937" lon="12.858295">
        <ele>1012.690</ele>
        <time>2026-09-06T12:16:52.117Z</time>
      </trkpt>
      <trkpt lat="42.104034" lon="12.858092">
        <ele>1007.771</ele>
        <time>2026-09-06T12:17:29.117Z</time>
      </trkpt>
      <trkpt lat="42.103727" lon="12.857555">
        <ele>993.643</ele>
        <time>2026-09-06T12:19:51.118Z</time>
      </trkpt>
      <trkpt lat="42.103560" lon="12.857015">
        <ele>981.895</ele>
        <time>2026-09-06T12:21:58.119Z</time>
      </trkpt>
      <trkpt lat="42.103611" lon="12.856929">
        <ele>979.244</ele>
        <time>2026-09-06T12:22:14.119Z</time>
      </trkpt>
      <trkpt lat="42.103248" lon="12.857461">
        <ele>976.405</ele>
        <time>2026-09-06T12:24:28.120Z</time>
      </trkpt>
      <trkpt lat="42.103060" lon="12.857559">
        <ele>975.515</ele>
        <time>2026-09-06T12:24:48.120Z</time>
      </trkpt>
      <trkpt lat="42.102213" lon="12.856829">
        <ele>971.309</ele>
        <time>2026-09-06T12:27:04.121Z</time>
      </trkpt>
      <trkpt lat="42.101669" lon="12.856699">
        <ele>968.836</ele>
        <time>2026-09-06T12:27:55.121Z</time>
      </trkpt>
      <trkpt lat="42.101181" lon="12.857047">
        <ele>967.482</ele>
        <time>2026-09-06T12:28:45.121Z</time>
      </trkpt>
      <trkpt lat="42.100083" lon="12.856029">
        <ele>965.888</ele>
        <time>2026-09-06T12:30:48.121Z</time>
      </trkpt>
      <trkpt lat="42.099929" lon="12.855995">
        <ele>965.437</ele>
        <time>2026-09-06T12:31:02.121Z</time>
      </trkpt>
      <trkpt lat="42.099453" lon="12.856151">
        <ele>963.634</ele>
        <time>2026-09-06T12:31:49.121Z</time>
      </trkpt>
      <trkpt lat="42.098904" lon="12.855778">
        <ele>963.531</ele>
        <time>2026-09-06T12:32:44.121Z</time>
      </trkpt>
      <trkpt lat="42.098811" lon="12.855562">
        <ele>964.262</ele>
        <time>2026-09-06T12:33:44.121Z</time>
      </trkpt>
      <trkpt lat="42.098846" lon="12.855236">
        <ele>964.824</ele>
        <time>2026-09-06T12:34:07.121Z</time>
      </trkpt>
      <trkpt lat="42.099190" lon="12.854821">
        <ele>968.846</ele>
        <time>2026-09-06T12:34:50.121Z</time>
      </trkpt>
      <trkpt lat="42.099348" lon="12.854396">
        <ele>970.138</ele>
        <time>2026-09-06T12:35:23.121Z</time>
      </trkpt>
      <trkpt lat="42.099486" lon="12.854340">
        <ele>971.270</ele>
        <time>2026-09-06T12:35:48.121Z</time>
      </trkpt>
      <trkpt lat="42.099832" lon="12.854586">
        <ele>975.417</ele>
        <time>2026-09-06T12:36:44.121Z</time>
      </trkpt>
      <trkpt lat="42.100249" lon="12.854481">
        <ele>980.409</ele>
        <time>2026-09-06T12:37:38.122Z</time>
      </trkpt>
      <trkpt lat="42.100686" lon="12.854087">
        <ele>987.565</ele>
        <time>2026-09-06T12:39:17.122Z</time>
      </trkpt>
      <trkpt lat="42.100801" lon="12.853452">
        <ele>990.341</ele>
        <time>2026-09-06T12:40:01.122Z</time>
      </trkpt>
      <trkpt lat="42.101417" lon="12.853245">
        <ele>994.867</ele>
        <time>2026-09-06T12:41:07.122Z</time>
      </trkpt>
      <trkpt lat="42.101615" lon="12.852944">
        <ele>998.376</ele>
        <time>2026-09-06T12:41:38.123Z</time>
      </trkpt>
      <trkpt lat="42.101642" lon="12.852539">
        <ele>1002.393</ele>
        <time>2026-09-06T12:42:12.123Z</time>
      </trkpt>
      <trkpt lat="42.101391" lon="12.851743">
        <ele>1005.180</ele>
        <time>2026-09-06T12:43:22.123Z</time>
      </trkpt>
      <trkpt lat="42.101737" lon="12.850504">
        <ele>1010.471</ele>
        <time>2026-09-06T12:44:58.124Z</time>
      </trkpt>
      <trkpt lat="42.101632" lon="12.849924">
        <ele>1007.353</ele>
        <time>2026-09-06T12:45:57.125Z</time>
      </trkpt>
      <trkpt lat="42.101795" lon="12.849243">
        <ele>999.145</ele>
        <time>2026-09-06T12:47:30.125Z</time>
      </trkpt>
      <trkpt lat="42.101633" lon="12.849356">
        <ele>995.912</ele>
        <time>2026-09-06T12:47:55.126Z</time>
      </trkpt>
      <trkpt lat="42.101616" lon="12.849294">
        <ele>995.332</ele>
        <time>2026-09-06T12:48:08.126Z</time>
      </trkpt>
      <trkpt lat="42.101738" lon="12.848045">
        <ele>980.505</ele>
        <time>2026-09-06T12:50:29.127Z</time>
      </trkpt>
      <trkpt lat="42.101191" lon="12.844706">
        <ele>941.509</ele>
        <time>2026-09-06T12:56:24.130Z</time>
      </trkpt>
      <trkpt lat="42.101235" lon="12.844343">
        <ele>940.273</ele>
        <time>2026-09-06T12:56:49.130Z</time>
      </trkpt>
      <trkpt lat="42.101672" lon="12.844222">
        <ele>934.169</ele>
        <time>2026-09-06T12:57:54.130Z</time>
      </trkpt>
      <trkpt lat="42.101902" lon="12.843817">
        <ele>925.915</ele>
        <time>2026-09-06T12:58:51.131Z</time>
      </trkpt>
      <trkpt lat="42.101825" lon="12.843312">
        <ele>919.354</ele>
        <time>2026-09-06T12:59:47.131Z</time>
      </trkpt>
      <trkpt lat="42.101668" lon="12.843287">
        <ele>915.981</ele>
        <time>2026-09-06T13:00:28.131Z</time>
      </trkpt>
      <trkpt lat="42.101630" lon="12.843099">
        <ele>911.468</ele>
        <time>2026-09-06T13:00:52.132Z</time>
      </trkpt>
      <trkpt lat="42.101691" lon="12.842696">
        <ele>906.899</ele>
        <time>2026-09-06T13:01:27.132Z</time>
      </trkpt>
      <trkpt lat="42.101537" lon="12.841594">
        <ele>894.681</ele>
        <time>2026-09-06T13:03:27.133Z</time>
      </trkpt>
      <trkpt lat="42.101629" lon="12.839880">
        <ele>873.493</ele>
        <time>2026-09-06T13:07:23.135Z</time>
      </trkpt>
      <trkpt lat="42.102771" lon="12.839082">
        <ele>851.077</ele>
        <time>2026-09-06T13:10:11.136Z</time>
      </trkpt>
      <trkpt lat="42.104920" lon="12.838376">
        <ele>830.261</ele>
        <time>2026-09-06T13:15:18.136Z</time>
      </trkpt>
      <trkpt lat="42.105337" lon="12.838473">
        <ele>828.127</ele>
        <time>2026-09-06T13:16:13.136Z</time>
      </trkpt>
      <trkpt lat="42.106428" lon="12.837889">
        <ele>818.109</ele>
        <time>2026-09-06T13:18:22.136Z</time>
      </trkpt>
      <trkpt lat="42.106804" lon="12.837560">
        <ele>815.859</ele>
        <time>2026-09-06T13:19:07.136Z</time>
      </trkpt>
      <trkpt lat="42.107708" lon="12.836258">
        <ele>802.465</ele>
        <time>2026-09-06T13:21:58.137Z</time>
      </trkpt>
      <trkpt lat="42.107798" lon="12.835469">
        <ele>800.281</ele>
        <time>2026-09-06T13:23:01.137Z</time>
      </trkpt>
      <trkpt lat="42.108407" lon="12.834326">
        <ele>797.770</ele>
        <time>2026-09-06T13:24:40.138Z</time>
      </trkpt>
      <trkpt lat="42.108348" lon="12.834117">
        <ele>796.727</ele>
        <time>2026-09-06T13:25:31.138Z</time>
      </trkpt>
      <trkpt lat="42.108361" lon="12.834198">
        <ele>796.074</ele>
        <time>2026-09-06T13:27:30.138Z</time>
      </trkpt>
      <trkpt lat="42.108562" lon="12.833360">
        <ele>793.715</ele>
        <time>2026-09-06T13:29:09.497Z</time>
      </trkpt>
    </trkseg>
  </trk></gpx>