<?xml version="1.0" encoding="UTF-8"?>
<gpx creator="Wikiloc - https://www.wikiloc.com" version="1.1" xmlns="http://www.topografix.com/GPX/1/1" xmlns:xsi="http://www.w3.org/2001/XMLSchema-instance" xsi:schemaLocation="http://www.topografix.com/GPX/1/1 http://www.topografix.com/GPX/1/1/gpx.xsd">
  <metadata>
    <name>Wikiloc - Rifugio Campo e Ristoro La Baita da Pradaccio</name>
    <link href="https://www.wikiloc.com/hiking-trails/rifugio-campo-e-ristoro-la-baita-da-pradaccio-281838938">
      <text>Rifugio Campo e Ristoro La Baita da Pradaccio - Wikiloc on Wikiloc</text>
    </link>
    <time>2026-08-24T13:06:54Z</time>
  </metadata>
  <trk>
    <name>Rifugio Campo e Ristoro La Baita da Pradaccio - Wikiloc</name>
    <cmt></cmt>
    <desc></desc>
    <trkseg>
      <trkpt lat="46.466752" lon="10.433278">
        <ele>1686.049</ele>
        <time>2026-08-24T06:21:26.500Z</time>
      </trkpt>
      <trkpt lat="46.466785" lon="10.433235">
        <ele>1687.002</ele>
        <time>2026-08-24T06:22:48Z</time>
      </trkpt>
      <trkpt lat="46.467198" lon="10.433758">
        <ele>1684.222</ele>
        <time>2026-08-24T06:24:54Z</time>
      </trkpt>
      <trkpt lat="46.467572" lon="10.434663">
        <ele>1690.409</ele>
        <time>2026-08-24T06:26:29Z</time>
      </trkpt>
      <trkpt lat="46.467665" lon="10.435340">
        <ele>1690.346</ele>
        <time>2026-08-24T06:27:37Z</time>
      </trkpt>
      <trkpt lat="46.467805" lon="10.435620">
        <ele>1689.332</ele>
        <time>2026-08-24T06:28:03Z</time>
      </trkpt>
      <trkpt lat="46.467995" lon="10.435750">
        <ele>1689.335</ele>
        <time>2026-08-24T06:28:29Z</time>
      </trkpt>
      <trkpt lat="46.468145" lon="10.436178">
        <ele>1689.212</ele>
        <time>2026-08-24T06:29:12Z</time>
      </trkpt>
      <trkpt lat="46.468183" lon="10.436653">
        <ele>1684.867</ele>
        <time>2026-08-24T06:29:52Z</time>
      </trkpt>
      <trkpt lat="46.468547" lon="10.437490">
        <ele>1679.822</ele>
        <time>2026-08-24T06:30:59Z</time>
      </trkpt>
      <trkpt lat="46.468622" lon="10.437947">
        <ele>1678.583</ele>
        <time>2026-08-24T06:31:46Z</time>
      </trkpt>
      <trkpt lat="46.468783" lon="10.438195">
        <ele>1681.887</ele>
        <time>2026-08-24T06:32:24Z</time>
      </trkpt>
      <trkpt lat="46.468902" lon="10.438692">
        <ele>1684.422</ele>
        <time>2026-08-24T06:33:00Z</time>
      </trkpt>
      <trkpt lat="46.469117" lon="10.439077">
        <ele>1676.158</ele>
        <time>2026-08-24T06:33:35Z</time>
      </trkpt>
      <trkpt lat="46.469125" lon="10.439263">
        <ele>1669.952</ele>
        <time>2026-08-24T06:33:50Z</time>
      </trkpt>
      <trkpt lat="46.469492" lon="10.439567">
        <ele>1672.117</ele>
        <time>2026-08-24T06:34:34Z</time>
      </trkpt>
      <trkpt lat="46.469800" lon="10.440047">
        <ele>1663.709</ele>
        <time>2026-08-24T06:35:27Z</time>
      </trkpt>
      <trkpt lat="46.469902" lon="10.440093">
        <ele>1661.877</ele>
        <time>2026-08-24T06:35:39Z</time>
      </trkpt>
      <trkpt lat="46.470385" lon="10.441232">
        <ele>1644.213</ele>
        <time>2026-08-24T06:37:24Z</time>
      </trkpt>
      <trkpt lat="46.470365" lon="10.441517">
        <ele>1635.986</ele>
        <time>2026-08-24T06:37:51Z</time>
      </trkpt>
      <trkpt lat="46.470570" lon="10.442043">
        <ele>1630.313</ele>
        <time>2026-08-24T06:38:32Z</time>
      </trkpt>
      <trkpt lat="46.470570" lon="10.442315">
        <ele>1630.698</ele>
        <time>2026-08-24T06:38:56Z</time>
      </trkpt>
      <trkpt lat="46.470745" lon="10.442843">
        <ele>1631.763</ele>
        <time>2026-08-24T06:39:45Z</time>
      </trkpt>
      <trkpt lat="46.470735" lon="10.443337">
        <ele>1624.424</ele>
        <time>2026-08-24T06:40:51Z</time>
      </trkpt>
      <trkpt lat="46.470582" lon="10.443545">
        <ele>1621.158</ele>
        <time>2026-08-24T06:41:17Z</time>
      </trkpt>
      <trkpt lat="46.470463" lon="10.444135">
        <ele>1614.843</ele>
        <time>2026-08-24T06:42:02Z</time>
      </trkpt>
      <trkpt lat="46.470573" lon="10.444613">
        <ele>1620.671</ele>
        <time>2026-08-24T06:42:51Z</time>
      </trkpt>
      <trkpt lat="46.470748" lon="10.444550">
        <ele>1618.341</ele>
        <time>2026-08-24T06:43:25Z</time>
      </trkpt>
      <trkpt lat="46.470795" lon="10.444655">
        <ele>1617.915</ele>
        <time>2026-08-24T06:43:40Z</time>
      </trkpt>
      <trkpt lat="46.470888" lon="10.444575">
        <ele>1617.509</ele>
        <time>2026-08-24T06:43:54Z</time>
      </trkpt>
      <trkpt lat="46.471092" lon="10.444585">
        <ele>1620.539</ele>
        <time>2026-08-24T06:44:26Z</time>
      </trkpt>
      <trkpt lat="46.471372" lon="10.445010">
        <ele>1629.565</ele>
        <time>2026-08-24T06:45:01Z</time>
      </trkpt>
      <trkpt lat="46.471515" lon="10.445025">
        <ele>1627.518</ele>
        <time>2026-08-24T06:45:25Z</time>
      </trkpt>
      <trkpt lat="46.471595" lon="10.445120">
        <ele>1627.625</ele>
        <time>2026-08-24T06:45:35Z</time>
      </trkpt>
      <trkpt lat="46.471702" lon="10.445095">
        <ele>1629.850</ele>
        <time>2026-08-24T06:45:51Z</time>
      </trkpt>
      <trkpt lat="46.471817" lon="10.445453">
        <ele>1638.485</ele>
        <time>2026-08-24T06:46:19Z</time>
      </trkpt>
      <trkpt lat="46.471973" lon="10.445593">
        <ele>1635.576</ele>
        <time>2026-08-24T06:46:50Z</time>
      </trkpt>
      <trkpt lat="46.471985" lon="10.445778">
        <ele>1633.150</ele>
        <time>2026-08-24T06:47:07Z</time>
      </trkpt>
      <trkpt lat="46.472190" lon="10.445982">
        <ele>1632.195</ele>
        <time>2026-08-24T06:47:48Z</time>
      </trkpt>
      <trkpt lat="46.472108" lon="10.446170">
        <ele>1632.936</ele>
        <time>2026-08-24T06:48:04Z</time>
      </trkpt>
      <trkpt lat="46.472187" lon="10.446203">
        <ele>1633.717</ele>
        <time>2026-08-24T06:48:23Z</time>
      </trkpt>
      <trkpt lat="46.472173" lon="10.446400">
        <ele>1639.118</ele>
        <time>2026-08-24T06:48:43Z</time>
      </trkpt>
      <trkpt lat="46.472205" lon="10.446350">
        <ele>1643.109</ele>
        <time>2026-08-24T06:48:51Z</time>
      </trkpt>
      <trkpt lat="46.472287" lon="10.446533">
        <ele>1648.155</ele>
        <time>2026-08-24T06:49:18Z</time>
      </trkpt>
      <trkpt lat="46.472293" lon="10.446465">
        <ele>1649.891</ele>
        <time>2026-08-24T06:49:28Z</time>
      </trkpt>
      <trkpt lat="46.472422" lon="10.446627">
        <ele>1656.484</ele>
        <time>2026-08-24T06:49:53Z</time>
      </trkpt>
      <trkpt lat="46.472387" lon="10.446745">
        <ele>1657.941</ele>
        <time>2026-08-24T06:50:07Z</time>
      </trkpt>
      <trkpt lat="46.472482" lon="10.446880">
        <ele>1665.986</ele>
        <time>2026-08-24T06:50:41Z</time>
      </trkpt>
      <trkpt lat="46.472432" lon="10.447035">
        <ele>1667.741</ele>
        <time>2026-08-24T06:50:57Z</time>
      </trkpt>
      <trkpt lat="46.472727" lon="10.447633">
        <ele>1673.332</ele>
        <time>2026-08-24T06:52:38Z</time>
      </trkpt>
      <trkpt lat="46.472840" lon="10.448235">
        <ele>1684.686</ele>
        <time>2026-08-24T06:53:45Z</time>
      </trkpt>
      <trkpt lat="46.472947" lon="10.448327">
        <ele>1681.591</ele>
        <time>2026-08-24T06:54:13Z</time>
      </trkpt>
      <trkpt lat="46.472975" lon="10.448532">
        <ele>1681.769</ele>
        <time>2026-08-24T06:54:31Z</time>
      </trkpt>
      <trkpt lat="46.473165" lon="10.448555">
        <ele>1685.504</ele>
        <time>2026-08-24T06:55:02Z</time>
      </trkpt>
      <trkpt lat="46.473198" lon="10.448627">
        <ele>1686.024</ele>
        <time>2026-08-24T06:55:09Z</time>
      </trkpt>
      <trkpt lat="46.473050" lon="10.448600">
        <ele>1688.609</ele>
        <time>2026-08-24T06:55:35Z</time>
      </trkpt>
      <trkpt lat="46.473018" lon="10.448653">
        <ele>1692.918</ele>
        <time>2026-08-24T06:55:44Z</time>
      </trkpt>
      <trkpt lat="46.472913" lon="10.448523">
        <ele>1703.184</ele>
        <time>2026-08-24T06:56:04Z</time>
      </trkpt>
      <trkpt lat="46.472840" lon="10.448567">
        <ele>1703.377</ele>
        <time>2026-08-24T06:56:12Z</time>
      </trkpt>
      <trkpt lat="46.472698" lon="10.448495">
        <ele>1703.274</ele>
        <time>2026-08-24T06:56:46Z</time>
      </trkpt>
      <trkpt lat="46.472592" lon="10.448567">
        <ele>1703.329</ele>
        <time>2026-08-24T06:57:02Z</time>
      </trkpt>
      <trkpt lat="46.472493" lon="10.448543">
        <ele>1703.364</ele>
        <time>2026-08-24T06:57:14Z</time>
      </trkpt>
      <trkpt lat="46.472423" lon="10.448490">
        <ele>1703.285</ele>
        <time>2026-08-24T06:57:21Z</time>
      </trkpt>
      <trkpt lat="46.472500" lon="10.448527">
        <ele>1702.529</ele>
        <time>2026-08-24T06:57:28Z</time>
      </trkpt>
      <trkpt lat="46.472515" lon="10.448462">
        <ele>1702.524</ele>
        <time>2026-08-24T06:57:37Z</time>
      </trkpt>
      <trkpt lat="46.472417" lon="10.448412">
        <ele>1702.895</ele>
        <time>2026-08-24T06:57:49Z</time>
      </trkpt>
      <trkpt lat="46.472360" lon="10.448262">
        <ele>1709.749</ele>
        <time>2026-08-24T06:58:08Z</time>
      </trkpt>
      <trkpt lat="46.472205" lon="10.448155">
        <ele>1717.223</ele>
        <time>2026-08-24T06:58:32Z</time>
      </trkpt>
      <trkpt lat="46.472133" lon="10.448208">
        <ele>1717.209</ele>
        <time>2026-08-24T06:58:43Z</time>
      </trkpt>
      <trkpt lat="46.472030" lon="10.447875">
        <ele>1714.521</ele>
        <time>2026-08-24T06:59:23Z</time>
      </trkpt>
      <trkpt lat="46.471772" lon="10.447718">
        <ele>1712.697</ele>
        <time>2026-08-24T06:59:54Z</time>
      </trkpt>
      <trkpt lat="46.471705" lon="10.447800">
        <ele>1710.970</ele>
        <time>2026-08-24T07:00:08Z</time>
      </trkpt>
      <trkpt lat="46.471577" lon="10.447712">
        <ele>1708.217</ele>
        <time>2026-08-24T07:00:27Z</time>
      </trkpt>
      <trkpt lat="46.471570" lon="10.447840">
        <ele>1708.032</ele>
        <time>2026-08-24T07:00:48Z</time>
      </trkpt>
      <trkpt lat="46.471765" lon="10.448190">
        <ele>1709.387</ele>
        <time>2026-08-24T07:01:39Z</time>
      </trkpt>
      <trkpt lat="46.471798" lon="10.448628">
        <ele>1714.378</ele>
        <time>2026-08-24T07:02:24Z</time>
      </trkpt>
      <trkpt lat="46.472247" lon="10.449270">
        <ele>1728.212</ele>
        <time>2026-08-24T07:03:43Z</time>
      </trkpt>
      <trkpt lat="46.472335" lon="10.449155">
        <ele>1726.977</ele>
        <time>2026-08-24T07:03:59Z</time>
      </trkpt>
      <trkpt lat="46.472428" lon="10.449145">
        <ele>1726.975</ele>
        <time>2026-08-24T07:04:10Z</time>
      </trkpt>
      <trkpt lat="46.472482" lon="10.449297">
        <ele>1730.128</ele>
        <time>2026-08-24T07:04:37Z</time>
      </trkpt>
      <trkpt lat="46.472595" lon="10.449177">
        <ele>1733.320</ele>
        <time>2026-08-24T07:04:48Z</time>
      </trkpt>
      <trkpt lat="46.472558" lon="10.449217">
        <ele>1733.409</ele>
        <time>2026-08-24T07:05:01Z</time>
      </trkpt>
      <trkpt lat="46.472740" lon="10.449540">
        <ele>1729.099</ele>
        <time>2026-08-24T07:05:58Z</time>
      </trkpt>
      <trkpt lat="46.473060" lon="10.449618">
        <ele>1731.045</ele>
        <time>2026-08-24T07:06:34Z</time>
      </trkpt>
      <trkpt lat="46.473873" lon="10.450195">
        <ele>1726.148</ele>
        <time>2026-08-24T07:08:06Z</time>
      </trkpt>
      <trkpt lat="46.473922" lon="10.450315">
        <ele>1726.375</ele>
        <time>2026-08-24T07:08:15Z</time>
      </trkpt>
      <trkpt lat="46.473975" lon="10.450268">
        <ele>1726.260</ele>
        <time>2026-08-24T07:08:35Z</time>
      </trkpt>
      <trkpt lat="46.473988" lon="10.450370">
        <ele>1726.125</ele>
        <time>2026-08-24T07:08:43Z</time>
      </trkpt>
      <trkpt lat="46.474105" lon="10.450392">
        <ele>1726.186</ele>
        <time>2026-08-24T07:08:55Z</time>
      </trkpt>
      <trkpt lat="46.474377" lon="10.450838">
        <ele>1728.930</ele>
        <time>2026-08-24T07:09:38Z</time>
      </trkpt>
      <trkpt lat="46.474950" lon="10.451233">
        <ele>1729.085</ele>
        <time>2026-08-24T07:10:32Z</time>
      </trkpt>
      <trkpt lat="46.475072" lon="10.451643">
        <ele>1723.753</ele>
        <time>2026-08-24T07:11:02Z</time>
      </trkpt>
      <trkpt lat="46.475225" lon="10.451730">
        <ele>1721.304</ele>
        <time>2026-08-24T07:11:29Z</time>
      </trkpt>
      <trkpt lat="46.475355" lon="10.451585">
        <ele>1721.314</ele>
        <time>2026-08-24T07:11:31Z</time>
      </trkpt>
      <trkpt lat="46.475302" lon="10.451912">
        <ele>1722.409</ele>
        <time>2026-08-24T07:12:14Z</time>
      </trkpt>
      <trkpt lat="46.475392" lon="10.452082">
        <ele>1722.447</ele>
        <time>2026-08-24T07:12:29Z</time>
      </trkpt>
      <trkpt lat="46.475828" lon="10.452570">
        <ele>1722.793</ele>
        <time>2026-08-24T07:13:41Z</time>
      </trkpt>
      <trkpt lat="46.475900" lon="10.452515">
        <ele>1724.036</ele>
        <time>2026-08-24T07:13:56Z</time>
      </trkpt>
      <trkpt lat="46.475997" lon="10.452570">
        <ele>1731.353</ele>
        <time>2026-08-24T07:14:07Z</time>
      </trkpt>
      <trkpt lat="46.476185" lon="10.452852">
        <ele>1732.648</ele>
        <time>2026-08-24T07:14:28Z</time>
      </trkpt>
      <trkpt lat="46.476335" lon="10.452943">
        <ele>1729.013</ele>
        <time>2026-08-24T07:14:44Z</time>
      </trkpt>
      <trkpt lat="46.476782" lon="10.454255">
        <ele>1722.274</ele>
        <time>2026-08-24T07:16:46Z</time>
      </trkpt>
      <trkpt lat="46.477240" lon="10.455197">
        <ele>1725.618</ele>
        <time>2026-08-24T07:18:43Z</time>
      </trkpt>
      <trkpt lat="46.477278" lon="10.455638">
        <ele>1725.263</ele>
        <time>2026-08-24T07:19:24Z</time>
      </trkpt>
      <trkpt lat="46.477347" lon="10.455638">
        <ele>1725.275</ele>
        <time>2026-08-24T07:19:39Z</time>
      </trkpt>
      <trkpt lat="46.477432" lon="10.456032">
        <ele>1727.828</ele>
        <time>2026-08-24T07:20:07Z</time>
      </trkpt>
      <trkpt lat="46.477393" lon="10.455980">
        <ele>1728.220</ele>
        <time>2026-08-24T07:20:49Z</time>
      </trkpt>
      <trkpt lat="46.477418" lon="10.456907">
        <ele>1750.509</ele>
        <time>2026-08-24T07:22:14Z</time>
      </trkpt>
      <trkpt lat="46.477525" lon="10.457005">
        <ele>1752.359</ele>
        <time>2026-08-24T07:22:34Z</time>
      </trkpt>
      <trkpt lat="46.477530" lon="10.457390">
        <ele>1760.725</ele>
        <time>2026-08-24T07:23:12Z</time>
      </trkpt>
      <trkpt lat="46.477605" lon="10.457647">
        <ele>1759.878</ele>
        <time>2026-08-24T07:23:43Z</time>
      </trkpt>
      <trkpt lat="46.477668" lon="10.457592">
        <ele>1753.595</ele>
        <time>2026-08-24T07:25:15Z</time>
      </trkpt>
      <trkpt lat="46.477680" lon="10.457795">
        <ele>1753.960</ele>
        <time>2026-08-24T07:25:42Z</time>
      </trkpt>
      <trkpt lat="46.477862" lon="10.457495">
        <ele>1756.815</ele>
        <time>2026-08-24T07:26:14Z</time>
      </trkpt>
      <trkpt lat="46.477810" lon="10.457203">
        <ele>1762.146</ele>
        <time>2026-08-24T07:26:52Z</time>
      </trkpt>
      <trkpt lat="46.477865" lon="10.456763">
        <ele>1771.490</ele>
        <time>2026-08-24T07:27:52Z</time>
      </trkpt>
      <trkpt lat="46.477815" lon="10.456695">
        <ele>1771.975</ele>
        <time>2026-08-24T07:28:07Z</time>
      </trkpt>
      <trkpt lat="46.477990" lon="10.456475">
        <ele>1773.954</ele>
        <time>2026-08-24T07:28:52Z</time>
      </trkpt>
      <trkpt lat="46.478020" lon="10.456137">
        <ele>1802.856</ele>
        <time>2026-08-24T07:30:23Z</time>
      </trkpt>
      <trkpt lat="46.477953" lon="10.456075">
        <ele>1784.411</ele>
        <time>2026-08-24T07:31:17Z</time>
      </trkpt>
      <trkpt lat="46.478050" lon="10.455725">
        <ele>1779.609</ele>
        <time>2026-08-24T07:31:54Z</time>
      </trkpt>
      <trkpt lat="46.478212" lon="10.455523">
        <ele>1783.547</ele>
        <time>2026-08-24T07:32:21Z</time>
      </trkpt>
      <trkpt lat="46.478233" lon="10.455098">
        <ele>1791.653</ele>
        <time>2026-08-24T07:33:14Z</time>
      </trkpt>
      <trkpt lat="46.478328" lon="10.454943">
        <ele>1791.666</ele>
        <time>2026-08-24T07:33:30Z</time>
      </trkpt>
      <trkpt lat="46.478303" lon="10.454735">
        <ele>1791.383</ele>
        <time>2026-08-24T07:34:12Z</time>
      </trkpt>
      <trkpt lat="46.478547" lon="10.455400">
        <ele>1792.268</ele>
        <time>2026-08-24T07:35:46Z</time>
      </trkpt>
      <trkpt lat="46.478618" lon="10.455817">
        <ele>1801.863</ele>
        <time>2026-08-24T07:37:03Z</time>
      </trkpt>
      <trkpt lat="46.478707" lon="10.455858">
        <ele>1804.594</ele>
        <time>2026-08-24T07:37:31Z</time>
      </trkpt>
      <trkpt lat="46.478762" lon="10.456105">
        <ele>1806.618</ele>
        <time>2026-08-24T07:38:06Z</time>
      </trkpt>
      <trkpt lat="46.478870" lon="10.456177">
        <ele>1806.993</ele>
        <time>2026-08-24T07:38:21Z</time>
      </trkpt>
      <trkpt lat="46.478947" lon="10.456135">
        <ele>1808.997</ele>
        <time>2026-08-24T07:38:41Z</time>
      </trkpt>
      <trkpt lat="46.478967" lon="10.456517">
        <ele>1813.823</ele>
        <time>2026-08-24T07:39:20Z</time>
      </trkpt>
      <trkpt lat="46.479012" lon="10.456627">
        <ele>1813.825</ele>
        <time>2026-08-24T07:39:32Z</time>
      </trkpt>
      <trkpt lat="46.479082" lon="10.456600">
        <ele>1810.909</ele>
        <time>2026-08-24T07:40:10Z</time>
      </trkpt>
      <trkpt lat="46.479052" lon="10.456545">
        <ele>1810.771</ele>
        <time>2026-08-24T07:40:17Z</time>
      </trkpt>
      <trkpt lat="46.478988" lon="10.456677">
        <ele>1810.767</ele>
        <time>2026-08-24T07:40:39Z</time>
      </trkpt>
      <trkpt lat="46.479112" lon="10.456972">
        <ele>1811.950</ele>
        <time>2026-08-24T07:41:13Z</time>
      </trkpt>
      <trkpt lat="46.479063" lon="10.457295">
        <ele>1812.577</ele>
        <time>2026-08-24T07:41:54Z</time>
      </trkpt>
      <trkpt lat="46.479207" lon="10.457775">
        <ele>1814.962</ele>
        <time>2026-08-24T07:42:50Z</time>
      </trkpt>
      <trkpt lat="46.479168" lon="10.457902">
        <ele>1817.377</ele>
        <time>2026-08-24T07:43:32Z</time>
      </trkpt>
      <trkpt lat="46.479388" lon="10.458300">
        <ele>1818.878</ele>
        <time>2026-08-24T07:44:22Z</time>
      </trkpt>
      <trkpt lat="46.479437" lon="10.458268">
        <ele>1818.842</ele>
        <time>2026-08-24T07:44:30Z</time>
      </trkpt>
      <trkpt lat="46.479457" lon="10.458358">
        <ele>1820.717</ele>
        <time>2026-08-24T07:44:43Z</time>
      </trkpt>
      <trkpt lat="46.479667" lon="10.458457">
        <ele>1823.727</ele>
        <time>2026-08-24T07:45:41Z</time>
      </trkpt>
      <trkpt lat="46.479653" lon="10.458742">
        <ele>1838.568</ele>
        <time>2026-08-24T07:46:20Z</time>
      </trkpt>
      <trkpt lat="46.479907" lon="10.459158">
        <ele>1835.714</ele>
        <time>2026-08-24T07:47:22Z</time>
      </trkpt>
      <trkpt lat="46.479950" lon="10.459560">
        <ele>1847.109</ele>
        <time>2026-08-24T07:48:12Z</time>
      </trkpt>
      <trkpt lat="46.480088" lon="10.459748">
        <ele>1847.664</ele>
        <time>2026-08-24T07:48:41Z</time>
      </trkpt>
      <trkpt lat="46.480047" lon="10.459885">
        <ele>1847.550</ele>
        <time>2026-08-24T07:48:52Z</time>
      </trkpt>
      <trkpt lat="46.480178" lon="10.460455">
        <ele>1858.863</ele>
        <time>2026-08-24T07:50:19Z</time>
      </trkpt>
      <trkpt lat="46.480132" lon="10.461250">
        <ele>1869.320</ele>
        <time>2026-08-24T07:51:42Z</time>
      </trkpt>
      <trkpt lat="46.480287" lon="10.461667">
        <ele>1862.985</ele>
        <time>2026-08-24T07:52:20Z</time>
      </trkpt>
      <trkpt lat="46.480285" lon="10.461863">
        <ele>1856.440</ele>
        <time>2026-08-24T07:52:39Z</time>
      </trkpt>
      <trkpt lat="46.480198" lon="10.461972">
        <ele>1859.071</ele>
        <time>2026-08-24T07:53:34Z</time>
      </trkpt>
      <trkpt lat="46.480243" lon="10.462090">
        <ele>1862.175</ele>
        <time>2026-08-24T07:53:43Z</time>
      </trkpt>
      <trkpt lat="46.480135" lon="10.462473">
        <ele>1864.280</ele>
        <time>2026-08-24T07:54:30Z</time>
      </trkpt>
      <trkpt lat="46.479917" lon="10.462433">
        <ele>1865.273</ele>
        <time>2026-08-24T07:54:39Z</time>
      </trkpt>
      <trkpt lat="46.480123" lon="10.462473">
        <ele>1866.285</ele>
        <time>2026-08-24T07:54:56Z</time>
      </trkpt>
      <trkpt lat="46.479970" lon="10.463640">
        <ele>1865.213</ele>
        <time>2026-08-24T07:56:30Z</time>
      </trkpt>
      <trkpt lat="46.480043" lon="10.463925">
        <ele>1865.709</ele>
        <time>2026-08-24T07:56:56Z</time>
      </trkpt>
      <trkpt lat="46.480260" lon="10.464193">
        <ele>1867.979</ele>
        <time>2026-08-24T07:57:43Z</time>
      </trkpt>
      <trkpt lat="46.480078" lon="10.464125">
        <ele>1878.125</ele>
        <time>2026-08-24T07:58:11Z</time>
      </trkpt>
      <trkpt lat="46.479922" lon="10.464357">
        <ele>1887.588</ele>
        <time>2026-08-24T07:58:27Z</time>
      </trkpt>
      <trkpt lat="46.479963" lon="10.464620">
        <ele>1888.435</ele>
        <time>2026-08-24T07:58:38Z</time>
      </trkpt>
      <trkpt lat="46.480162" lon="10.464910">
        <ele>1874.590</ele>
        <time>2026-08-24T08:05:56Z</time>
      </trkpt>
      <trkpt lat="46.480087" lon="10.465043">
        <ele>1880.415</ele>
        <time>2026-08-24T08:06:20Z</time>
      </trkpt>
      <trkpt lat="46.480215" lon="10.465805">
        <ele>1873.526</ele>
        <time>2026-08-24T08:07:23Z</time>
      </trkpt>
      <trkpt lat="46.480180" lon="10.466545">
        <ele>1870.190</ele>
        <time>2026-08-24T08:08:22Z</time>
      </trkpt>
      <trkpt lat="46.480027" lon="10.467197">
        <ele>1868.255</ele>
        <time>2026-08-24T08:09:26Z</time>
      </trkpt>
      <trkpt lat="46.480068" lon="10.467135">
        <ele>1867.254</ele>
        <time>2026-08-24T08:10:01Z</time>
      </trkpt>
      <trkpt lat="46.479993" lon="10.468190">
        <ele>1883.756</ele>
        <time>2026-08-24T08:12:04Z</time>
      </trkpt>
      <trkpt lat="46.480085" lon="10.468605">
        <ele>1884.011</ele>
        <time>2026-08-24T08:12:35Z</time>
      </trkpt>
      <trkpt lat="46.480050" lon="10.468757">
        <ele>1881.609</ele>
        <time>2026-08-24T08:12:46Z</time>
      </trkpt>
      <trkpt lat="46.480352" lon="10.469527">
        <ele>1879.887</ele>
        <time>2026-08-24T08:13:44Z</time>
      </trkpt>
      <trkpt lat="46.480398" lon="10.469957">
        <ele>1873.213</ele>
        <time>2026-08-24T08:14:15Z</time>
      </trkpt>
      <trkpt lat="46.480522" lon="10.470278">
        <ele>1867.996</ele>
        <time>2026-08-24T08:14:51Z</time>
      </trkpt>
      <trkpt lat="46.480417" lon="10.470462">
        <ele>1870.843</ele>
        <time>2026-08-24T08:15:21Z</time>
      </trkpt>
      <trkpt lat="46.480462" lon="10.470710">
        <ele>1873.148</ele>
        <time>2026-08-24T08:15:45Z</time>
      </trkpt>
      <trkpt lat="46.480215" lon="10.471283">
        <ele>1893.063</ele>
        <time>2026-08-24T08:16:51Z</time>
      </trkpt>
      <trkpt lat="46.480273" lon="10.471750">
        <ele>1892.424</ele>
        <time>2026-08-24T08:17:34Z</time>
      </trkpt>
      <trkpt lat="46.480207" lon="10.472048">
        <ele>1890.698</ele>
        <time>2026-08-24T08:18:07Z</time>
      </trkpt>
      <trkpt lat="46.480453" lon="10.472653">
        <ele>1886.863</ele>
        <time>2026-08-24T08:19:19Z</time>
      </trkpt>
      <trkpt lat="46.480370" lon="10.472988">
        <ele>1894.665</ele>
        <time>2026-08-24T08:19:46Z</time>
      </trkpt>
      <trkpt lat="46.480652" lon="10.474268">
        <ele>1898.668</ele>
        <time>2026-08-24T08:21:30Z</time>
      </trkpt>
      <trkpt lat="46.480338" lon="10.475133">
        <ele>1901.514</ele>
        <time>2026-08-24T08:22:38Z</time>
      </trkpt>
      <trkpt lat="46.480275" lon="10.475522">
        <ele>1891.709</ele>
        <time>2026-08-24T08:23:10Z</time>
      </trkpt>
      <trkpt lat="46.480090" lon="10.475913">
        <ele>1892.098</ele>
        <time>2026-08-24T08:23:45Z</time>
      </trkpt>
      <trkpt lat="46.479978" lon="10.476645">
        <ele>1891.414</ele>
        <time>2026-08-24T08:24:41Z</time>
      </trkpt>
      <trkpt lat="46.480027" lon="10.476903">
        <ele>1890.847</ele>
        <time>2026-08-24T08:25:10Z</time>
      </trkpt>
      <trkpt lat="46.480105" lon="10.476917">
        <ele>1891.524</ele>
        <time>2026-08-24T08:26:01Z</time>
      </trkpt>
      <trkpt lat="46.480048" lon="10.476990">
        <ele>1890.519</ele>
        <time>2026-08-24T08:26:30Z</time>
      </trkpt>
      <trkpt lat="46.480078" lon="10.477228">
        <ele>1890.324</ele>
        <time>2026-08-24T08:26:52Z</time>
      </trkpt>
      <trkpt lat="46.480300" lon="10.478012">
        <ele>1895.665</ele>
        <time>2026-08-24T08:28:01Z</time>
      </trkpt>
      <trkpt lat="46.480292" lon="10.478128">
        <ele>1896.049</ele>
        <time>2026-08-24T08:28:17Z</time>
      </trkpt>
      <trkpt lat="46.480113" lon="10.478288">
        <ele>1905.574</ele>
        <time>2026-08-24T08:28:54Z</time>
      </trkpt>
      <trkpt lat="46.480070" lon="10.478502">
        <ele>1909.992</ele>
        <time>2026-08-24T08:29:12Z</time>
      </trkpt>
      <trkpt lat="46.480267" lon="10.479183">
        <ele>1905.573</ele>
        <time>2026-08-24T08:30:11Z</time>
      </trkpt>
      <trkpt lat="46.480175" lon="10.480407">
        <ele>1906.320</ele>
        <time>2026-08-24T08:31:50Z</time>
      </trkpt>
      <trkpt lat="46.480047" lon="10.480953">
        <ele>1912.309</ele>
        <time>2026-08-24T08:32:39Z</time>
      </trkpt>
      <trkpt lat="46.479932" lon="10.481107">
        <ele>1913.611</ele>
        <time>2026-08-24T08:32:59Z</time>
      </trkpt>
      <trkpt lat="46.479723" lon="10.481218">
        <ele>1917.157</ele>
        <time>2026-08-24T08:33:21Z</time>
      </trkpt>
      <trkpt lat="46.479452" lon="10.481697">
        <ele>1915.690</ele>
        <time>2026-08-24T08:33:59Z</time>
      </trkpt>
      <trkpt lat="46.479460" lon="10.482577">
        <ele>1897.317</ele>
        <time>2026-08-24T08:35:06Z</time>
      </trkpt>
      <trkpt lat="46.479030" lon="10.483030">
        <ele>1907.642</ele>
        <time>2026-08-24T08:36:21Z</time>
      </trkpt>
      <trkpt lat="46.478988" lon="10.483393">
        <ele>1914.387</ele>
        <time>2026-08-24T08:37:19Z</time>
      </trkpt>
      <trkpt lat="46.479040" lon="10.483528">
        <ele>1922.478</ele>
        <time>2026-08-24T08:37:38Z</time>
      </trkpt>
      <trkpt lat="46.478928" lon="10.483765">
        <ele>1926.772</ele>
        <time>2026-08-24T08:38:01Z</time>
      </trkpt>
      <trkpt lat="46.478962" lon="10.484100">
        <ele>1925.317</ele>
        <time>2026-08-24T08:38:36Z</time>
      </trkpt>
      <trkpt lat="46.478875" lon="10.484332">
        <ele>1926.286</ele>
        <time>2026-08-24T08:39:02Z</time>
      </trkpt>
      <trkpt lat="46.478723" lon="10.484538">
        <ele>1932.160</ele>
        <time>2026-08-24T08:39:24Z</time>
      </trkpt>
      <trkpt lat="46.478475" lon="10.485175">
        <ele>1932.926</ele>
        <time>2026-08-24T08:40:17Z</time>
      </trkpt>
      <trkpt lat="46.478158" lon="10.485480">
        <ele>1932.309</ele>
        <time>2026-08-24T08:40:53Z</time>
      </trkpt>
      <trkpt lat="46.477938" lon="10.487243">
        <ele>1919.530</ele>
        <time>2026-08-24T08:44:25Z</time>
      </trkpt>
      <trkpt lat="46.477212" lon="10.488148">
        <ele>1933.416</ele>
        <time>2026-08-24T08:47:16Z</time>
      </trkpt>
      <trkpt lat="46.477005" lon="10.488715">
        <ele>1936.819</ele>
        <time>2026-08-24T08:48:18Z</time>
      </trkpt>
      <trkpt lat="46.476873" lon="10.488755">
        <ele>1936.936</ele>
        <time>2026-08-24T08:48:36Z</time>
      </trkpt>
      <trkpt lat="46.476697" lon="10.488968">
        <ele>1944.331</ele>
        <time>2026-08-24T08:49:06Z</time>
      </trkpt>
      <trkpt lat="46.476513" lon="10.489467">
        <ele>1946.446</ele>
        <time>2026-08-24T08:49:54Z</time>
      </trkpt>
      <trkpt lat="46.476255" lon="10.489820">
        <ele>1945.197</ele>
        <time>2026-08-24T08:50:33Z</time>
      </trkpt>
      <trkpt lat="46.476193" lon="10.490478">
        <ele>1944.561</ele>
        <time>2026-08-24T08:51:47Z</time>
      </trkpt>
      <trkpt lat="46.476042" lon="10.490782">
        <ele>1945.986</ele>
        <time>2026-08-24T08:52:17Z</time>
      </trkpt>
      <trkpt lat="46.475777" lon="10.491832">
        <ele>1941.827</ele>
        <time>2026-08-24T08:53:54Z</time>
      </trkpt>
      <trkpt lat="46.475645" lon="10.491835">
        <ele>1941.968</ele>
        <time>2026-08-24T08:54:12Z</time>
      </trkpt>
      <trkpt lat="46.475343" lon="10.492022">
        <ele>1942.814</ele>
        <time>2026-08-24T08:54:52Z</time>
      </trkpt>
      <trkpt lat="46.475222" lon="10.492230">
        <ele>1943.409</ele>
        <time>2026-08-24T08:55:27Z</time>
      </trkpt>
      <trkpt lat="46.475098" lon="10.493613">
        <ele>1957.164</ele>
        <time>2026-08-24T08:58:15Z</time>
      </trkpt>
      <trkpt lat="46.475157" lon="10.493628">
        <ele>1957.740</ele>
        <time>2026-08-24T08:58:46Z</time>
      </trkpt>
      <trkpt lat="46.474927" lon="10.494442">
        <ele>1960.743</ele>
        <time>2026-08-24T09:00:44Z</time>
      </trkpt>
      <trkpt lat="46.474633" lon="10.495008">
        <ele>1970.530</ele>
        <time>2026-08-24T09:02:07Z</time>
      </trkpt>
      <trkpt lat="46.474357" lon="10.495938">
        <ele>1977.725</ele>
        <time>2026-08-24T09:03:52Z</time>
      </trkpt>
      <trkpt lat="46.474115" lon="10.497792">
        <ele>1991.630</ele>
        <time>2026-08-24T09:07:30Z</time>
      </trkpt>
      <trkpt lat="46.474047" lon="10.497893">
        <ele>1992.911</ele>
        <time>2026-08-24T09:07:56Z</time>
      </trkpt>
      <trkpt lat="46.473940" lon="10.497883">
        <ele>1997.355</ele>
        <time>2026-08-24T09:08:22Z</time>
      </trkpt>
      <trkpt lat="46.473927" lon="10.497987">
        <ele>1998.810</ele>
        <time>2026-08-24T09:09:19Z</time>
      </trkpt>
      <trkpt lat="46.473967" lon="10.497945">
        <ele>1999.063</ele>
        <time>2026-08-24T09:10:12Z</time>
      </trkpt>
      <trkpt lat="46.474003" lon="10.498055">
        <ele>1995.744</ele>
        <time>2026-08-24T09:13:25Z</time>
      </trkpt>
      <trkpt lat="46.473870" lon="10.498075">
        <ele>2000.418</ele>
        <time>2026-08-24T09:14:58Z</time>
      </trkpt>
      <trkpt lat="46.473802" lon="10.497993">
        <ele>2001.509</ele>
        <time>2026-08-24T09:15:10Z</time>
      </trkpt>
      <trkpt lat="46.473687" lon="10.498048">
        <ele>2005.178</ele>
        <time>2026-08-24T09:15:50Z</time>
      </trkpt>
      <trkpt lat="46.473878" lon="10.497667">
        <ele>2002.914</ele>
        <time>2026-08-24T09:17:20Z</time>
      </trkpt>
      <trkpt lat="46.473840" lon="10.497577">
        <ele>2002.827</ele>
        <time>2026-08-24T09:17:50Z</time>
      </trkpt>
      <trkpt lat="46.473968" lon="10.497548">
        <ele>2002.884</ele>
        <time>2026-08-24T09:18:32Z</time>
      </trkpt>
      <trkpt lat="46.474065" lon="10.497742">
        <ele>2003.899</ele>
        <time>2026-08-24T09:18:53Z</time>
      </trkpt>
      <trkpt lat="46.473972" lon="10.497917">
        <ele>2002.024</ele>
        <time>2026-08-24T09:19:27Z</time>
      </trkpt>
      <trkpt lat="46.474020" lon="10.498142">
        <ele>1999.165</ele>
        <time>2026-08-24T09:28:04Z</time>
      </trkpt>
      <trkpt lat="46.473915" lon="10.498752">
        <ele>2000.429</ele>
        <time>2026-08-24T09:29:39Z</time>
      </trkpt>
      <trkpt lat="46.473507" lon="10.499592">
        <ele>2004.334</ele>
        <time>2026-08-24T09:31:32Z</time>
      </trkpt>
      <trkpt lat="46.473310" lon="10.499585">
        <ele>2004.142</ele>
        <time>2026-08-24T09:32:05Z</time>
      </trkpt>
      <trkpt lat="46.473158" lon="10.499845">
        <ele>2002.622</ele>
        <time>2026-08-24T09:32:56Z</time>
      </trkpt>
      <trkpt lat="46.473257" lon="10.499685">
        <ele>2010.914</ele>
        <time>2026-08-24T09:34:19Z</time>
      </trkpt>
      <trkpt lat="46.473593" lon="10.499552">
        <ele>2007.209</ele>
        <time>2026-08-24T09:35:11Z</time>
      </trkpt>
      <trkpt lat="46.473648" lon="10.499347">
        <ele>2006.826</ele>
        <time>2026-08-24T09:35:31Z</time>
      </trkpt>
      <trkpt lat="46.473907" lon="10.498945">
        <ele>2003.582</ele>
        <time>2026-08-24T09:36:23Z</time>
      </trkpt>
      <trkpt lat="46.474030" lon="10.498257">
        <ele>2002.565</ele>
        <time>2026-08-24T09:37:59Z</time>
      </trkpt>
      <trkpt lat="46.474010" lon="10.498033">
        <ele>1999.612</ele>
        <time>2026-08-24T10:04:42Z</time>
      </trkpt>
      <trkpt lat="46.473957" lon="10.498027">
        <ele>1999.447</ele>
        <time>2026-08-24T10:55:20Z</time>
      </trkpt>
      <trkpt lat="46.474010" lon="10.498038">
        <ele>2000.182</ele>
        <time>2026-08-24T10:55:28Z</time>
      </trkpt>
      <trkpt lat="46.473957" lon="10.497995">
        <ele>2000.563</ele>
        <time>2026-08-24T10:55:35Z</time>
      </trkpt>
      <trkpt lat="46.473980" lon="10.497777">
        <ele>2002.287</ele>
        <time>2026-08-24T10:55:53Z</time>
      </trkpt>
      <trkpt lat="46.473943" lon="10.497810">
        <ele>2002.372</ele>
        <time>2026-08-24T10:56:03Z</time>
      </trkpt>
      <trkpt lat="46.474028" lon="10.497798">
        <ele>2003.966</ele>
        <time>2026-08-24T10:56:38Z</time>
      </trkpt>
      <trkpt lat="46.473972" lon="10.497823">
        <ele>2003.829</ele>
        <time>2026-08-24T10:58:35Z</time>
      </trkpt>
      <trkpt lat="46.473965" lon="10.497765">
        <ele>2001.321</ele>
        <time>2026-08-24T11:00:09Z</time>
      </trkpt>
      <trkpt lat="46.473952" lon="10.497950">
        <ele>2005.109</ele>
        <time>2026-08-24T11:00:20Z</time>
      </trkpt>
      <trkpt lat="46.474042" lon="10.498070">
        <ele>2001.518</ele>
        <time>2026-08-24T11:02:13Z</time>
      </trkpt>
      <trkpt lat="46.474195" lon="10.497660">
        <ele>2002.164</ele>
        <time>2026-08-24T11:03:00Z</time>
      </trkpt>
      <trkpt lat="46.474403" lon="10.495805">
        <ele>1987.017</ele>
        <time>2026-08-24T11:06:40Z</time>
      </trkpt>
      <trkpt lat="46.475157" lon="10.493890">
        <ele>1964.274</ele>
        <time>2026-08-24T11:09:41Z</time>
      </trkpt>
      <trkpt lat="46.475300" lon="10.492165">
        <ele>1951.399</ele>
        <time>2026-08-24T11:12:01Z</time>
      </trkpt>
      <trkpt lat="46.475528" lon="10.492053">
        <ele>1945.754</ele>
        <time>2026-08-24T11:12:53Z</time>
      </trkpt>
      <trkpt lat="46.475578" lon="10.491940">
        <ele>1945.735</ele>
        <time>2026-08-24T11:13:05Z</time>
      </trkpt>
      <trkpt lat="46.475793" lon="10.491903">
        <ele>1944.879</ele>
        <time>2026-08-24T11:13:42Z</time>
      </trkpt>
      <trkpt lat="46.475922" lon="10.491710">
        <ele>1951.474</ele>
        <time>2026-08-24T11:14:32Z</time>
      </trkpt>
      <trkpt lat="46.476153" lon="10.490703">
        <ele>1950.114</ele>
        <time>2026-08-24T11:15:53Z</time>
      </trkpt>
      <trkpt lat="46.476293" lon="10.490473">
        <ele>1949.754</ele>
        <time>2026-08-24T11:16:20Z</time>
      </trkpt>
      <trkpt lat="46.476328" lon="10.489867">
        <ele>1950.209</ele>
        <time>2026-08-24T11:17:08Z</time>
      </trkpt>
      <trkpt lat="46.476608" lon="10.489420">
        <ele>1952.509</ele>
        <time>2026-08-24T11:17:53Z</time>
      </trkpt>
      <trkpt lat="46.476725" lon="10.489008">
        <ele>1952.263</ele>
        <time>2026-08-24T11:19:13Z</time>
      </trkpt>
      <trkpt lat="46.476875" lon="10.488975">
        <ele>1952.999</ele>
        <time>2026-08-24T11:19:40Z</time>
      </trkpt>
      <trkpt lat="46.477158" lon="10.488645">
        <ele>1954.992</ele>
        <time>2026-08-24T11:20:16Z</time>
      </trkpt>
      <trkpt lat="46.477300" lon="10.488192">
        <ele>1939.579</ele>
        <time>2026-08-24T11:20:53Z</time>
      </trkpt>
      <trkpt lat="46.478007" lon="10.487192">
        <ele>1932.614</ele>
        <time>2026-08-24T11:22:34Z</time>
      </trkpt>
      <trkpt lat="46.478077" lon="10.487013">
        <ele>1931.679</ele>
        <time>2026-08-24T11:22:47Z</time>
      </trkpt>
      <trkpt lat="46.478212" lon="10.485458">
        <ele>1925.460</ele>
        <time>2026-08-24T11:24:38Z</time>
      </trkpt>
      <trkpt lat="46.478338" lon="10.485408">
        <ele>1925.554</ele>
        <time>2026-08-24T11:25:00Z</time>
      </trkpt>
      <trkpt lat="46.478368" lon="10.485463">
        <ele>1927.469</ele>
        <time>2026-08-24T11:25:10Z</time>
      </trkpt>
      <trkpt lat="46.478462" lon="10.485382">
        <ele>1938.483</ele>
        <time>2026-08-24T11:25:26Z</time>
      </trkpt>
      <trkpt lat="46.478875" lon="10.484535">
        <ele>1929.825</ele>
        <time>2026-08-24T11:26:25Z</time>
      </trkpt>
      <trkpt lat="46.479155" lon="10.483572">
        <ele>1917.517</ele>
        <time>2026-08-24T11:27:45Z</time>
      </trkpt>
      <trkpt lat="46.479098" lon="10.483427">
        <ele>1917.309</ele>
        <time>2026-08-24T11:27:55Z</time>
      </trkpt>
      <trkpt lat="46.479187" lon="10.483278">
        <ele>1915.920</ele>
        <time>2026-08-24T11:28:09Z</time>
      </trkpt>
      <trkpt lat="46.479192" lon="10.483065">
        <ele>1912.766</ele>
        <time>2026-08-24T11:28:29Z</time>
      </trkpt>
      <trkpt lat="46.479120" lon="10.482905">
        <ele>1909.079</ele>
        <time>2026-08-24T11:28:46Z</time>
      </trkpt>
      <trkpt lat="46.479342" lon="10.482840">
        <ele>1909.196</ele>
        <time>2026-08-24T11:29:08Z</time>
      </trkpt>
      <trkpt lat="46.479498" lon="10.482628">
        <ele>1909.391</ele>
        <time>2026-08-24T11:29:27Z</time>
      </trkpt>
      <trkpt lat="46.479590" lon="10.482423">
        <ele>1905.036</ele>
        <time>2026-08-24T11:29:41Z</time>
      </trkpt>
      <trkpt lat="46.479615" lon="10.481550">
        <ele>1904.817</ele>
        <time>2026-08-24T11:30:49Z</time>
      </trkpt>
      <trkpt lat="46.479913" lon="10.481160">
        <ele>1922.821</ele>
        <time>2026-08-24T11:31:38Z</time>
      </trkpt>
      <trkpt lat="46.480015" lon="10.481135">
        <ele>1928.436</ele>
        <time>2026-08-24T11:31:44Z</time>
      </trkpt>
      <trkpt lat="46.480287" lon="10.480415">
        <ele>1928.521</ele>
        <time>2026-08-24T11:32:36Z</time>
      </trkpt>
      <trkpt lat="46.480298" lon="10.479995">
        <ele>1908.141</ele>
        <time>2026-08-24T11:33:08Z</time>
      </trkpt>
      <trkpt lat="46.480375" lon="10.479827">
        <ele>1907.505</ele>
        <time>2026-08-24T11:33:22Z</time>
      </trkpt>
      <trkpt lat="46.480337" lon="10.479082">
        <ele>1906.109</ele>
        <time>2026-08-24T11:34:15Z</time>
      </trkpt>
      <trkpt lat="46.480273" lon="10.478770">
        <ele>1902.674</ele>
        <time>2026-08-24T11:34:37Z</time>
      </trkpt>
      <trkpt lat="46.480153" lon="10.478485">
        <ele>1901.110</ele>
        <time>2026-08-24T11:35:06Z</time>
      </trkpt>
      <trkpt lat="46.480093" lon="10.478473">
        <ele>1903.893</ele>
        <time>2026-08-24T11:36:17Z</time>
      </trkpt>
      <trkpt lat="46.480283" lon="10.478238">
        <ele>1906.780</ele>
        <time>2026-08-24T11:36:49Z</time>
      </trkpt>
      <trkpt lat="46.480237" lon="10.478167">
        <ele>1908.025</ele>
        <time>2026-08-24T11:36:59Z</time>
      </trkpt>
      <trkpt lat="46.480290" lon="10.477575">
        <ele>1913.330</ele>
        <time>2026-08-24T11:37:30Z</time>
      </trkpt>
      <trkpt lat="46.480147" lon="10.477238">
        <ele>1901.341</ele>
        <time>2026-08-24T11:37:53Z</time>
      </trkpt>
      <trkpt lat="46.480148" lon="10.476975">
        <ele>1893.125</ele>
        <time>2026-08-24T11:38:12Z</time>
      </trkpt>
      <trkpt lat="46.480032" lon="10.476617">
        <ele>1890.210</ele>
        <time>2026-08-24T11:38:39Z</time>
      </trkpt>
      <trkpt lat="46.480150" lon="10.476025">
        <ele>1890.972</ele>
        <time>2026-08-24T11:39:26Z</time>
      </trkpt>
      <trkpt lat="46.480338" lon="10.475572">
        <ele>1894.813</ele>
        <time>2026-08-24T11:40:03Z</time>
      </trkpt>
      <trkpt lat="46.480383" lon="10.475113">
        <ele>1891.914</ele>
        <time>2026-08-24T11:40:31Z</time>
      </trkpt>
      <trkpt lat="46.480667" lon="10.474725">
        <ele>1889.609</ele>
        <time>2026-08-24T11:41:12Z</time>
      </trkpt>
      <trkpt lat="46.480762" lon="10.473965">
        <ele>1897.679</ele>
        <time>2026-08-24T11:42:01Z</time>
      </trkpt>
      <trkpt lat="46.480623" lon="10.473687">
        <ele>1896.825</ele>
        <time>2026-08-24T11:42:21Z</time>
      </trkpt>
      <trkpt lat="46.480477" lon="10.473007">
        <ele>1891.678</ele>
        <time>2026-08-24T11:43:15Z</time>
      </trkpt>
      <trkpt lat="46.480570" lon="10.472512">
        <ele>1893.775</ele>
        <time>2026-08-24T11:43:47Z</time>
      </trkpt>
      <trkpt lat="46.480398" lon="10.472263">
        <ele>1888.240</ele>
        <time>2026-08-24T11:44:11Z</time>
      </trkpt>
      <trkpt lat="46.480320" lon="10.471903">
        <ele>1885.445</ele>
        <time>2026-08-24T11:44:45Z</time>
      </trkpt>
      <trkpt lat="46.480368" lon="10.471107">
        <ele>1877.346</ele>
        <time>2026-08-24T11:45:40Z</time>
      </trkpt>
      <trkpt lat="46.480482" lon="10.470927">
        <ele>1877.330</ele>
        <time>2026-08-24T11:46:01Z</time>
      </trkpt>
      <trkpt lat="46.480588" lon="10.470335">
        <ele>1874.615</ele>
        <time>2026-08-24T11:46:42Z</time>
      </trkpt>
      <trkpt lat="46.480468" lon="10.470040">
        <ele>1871.136</ele>
        <time>2026-08-24T11:47:07Z</time>
      </trkpt>
      <trkpt lat="46.480277" lon="10.468988">
        <ele>1873.117</ele>
        <time>2026-08-24T11:48:30Z</time>
      </trkpt>
      <trkpt lat="46.480198" lon="10.468885">
        <ele>1874.218</ele>
        <time>2026-08-24T11:48:42Z</time>
      </trkpt>
      <trkpt lat="46.480140" lon="10.468528">
        <ele>1883.009</ele>
        <time>2026-08-24T11:49:06Z</time>
      </trkpt>
      <trkpt lat="46.480193" lon="10.468390">
        <ele>1883.585</ele>
        <time>2026-08-24T11:49:14Z</time>
      </trkpt>
      <trkpt lat="46.480023" lon="10.467852">
        <ele>1884.991</ele>
        <time>2026-08-24T11:50:02Z</time>
      </trkpt>
      <trkpt lat="46.480132" lon="10.467595">
        <ele>1885.624</ele>
        <time>2026-08-24T11:50:14Z</time>
      </trkpt>
      <trkpt lat="46.480180" lon="10.467185">
        <ele>1874.711</ele>
        <time>2026-08-24T11:50:39Z</time>
      </trkpt>
      <trkpt lat="46.480103" lon="10.467087">
        <ele>1868.576</ele>
        <time>2026-08-24T11:50:55Z</time>
      </trkpt>
      <trkpt lat="46.480203" lon="10.466772">
        <ele>1869.281</ele>
        <time>2026-08-24T11:51:16Z</time>
      </trkpt>
      <trkpt lat="46.480313" lon="10.465747">
        <ele>1867.932</ele>
        <time>2026-08-24T11:52:36Z</time>
      </trkpt>
      <trkpt lat="46.480217" lon="10.465647">
        <ele>1869.216</ele>
        <time>2026-08-24T11:52:45Z</time>
      </trkpt>
      <trkpt lat="46.480213" lon="10.465283">
        <ele>1870.741</ele>
        <time>2026-08-24T11:53:16Z</time>
      </trkpt>
      <trkpt lat="46.480043" lon="10.464768">
        <ele>1876.491</ele>
        <time>2026-08-24T11:53:54Z</time>
      </trkpt>
      <trkpt lat="46.480037" lon="10.464533">
        <ele>1876.281</ele>
        <time>2026-08-24T11:54:10Z</time>
      </trkpt>
      <trkpt lat="46.480233" lon="10.464415">
        <ele>1874.619</ele>
        <time>2026-08-24T11:54:42Z</time>
      </trkpt>
      <trkpt lat="46.480038" lon="10.464063">
        <ele>1883.909</ele>
        <time>2026-08-24T11:55:15Z</time>
      </trkpt>
      <trkpt lat="46.480083" lon="10.463888">
        <ele>1882.271</ele>
        <time>2026-08-24T11:55:25Z</time>
      </trkpt>
      <trkpt lat="46.480017" lon="10.463550">
        <ele>1868.077</ele>
        <time>2026-08-24T11:55:49Z</time>
      </trkpt>
      <trkpt lat="46.480073" lon="10.463385">
        <ele>1864.980</ele>
        <time>2026-08-24T11:56:01Z</time>
      </trkpt>
      <trkpt lat="46.480033" lon="10.463113">
        <ele>1865.887</ele>
        <time>2026-08-24T11:56:22Z</time>
      </trkpt>
      <trkpt lat="46.480202" lon="10.462325">
        <ele>1868.862</ele>
        <time>2026-08-24T11:57:29Z</time>
      </trkpt>
      <trkpt lat="46.480122" lon="10.461418">
        <ele>1870.767</ele>
        <time>2026-08-24T11:58:42Z</time>
      </trkpt>
      <trkpt lat="46.480283" lon="10.461157">
        <ele>1870.588</ele>
        <time>2026-08-24T11:59:04Z</time>
      </trkpt>
      <trkpt lat="46.480213" lon="10.460907">
        <ele>1870.882</ele>
        <time>2026-08-24T11:59:22Z</time>
      </trkpt>
      <trkpt lat="46.480255" lon="10.460665">
        <ele>1869.677</ele>
        <time>2026-08-24T11:59:36Z</time>
      </trkpt>
      <trkpt lat="46.480160" lon="10.460540">
        <ele>1869.716</ele>
        <time>2026-08-24T11:59:51Z</time>
      </trkpt>
      <trkpt lat="46.480207" lon="10.460203">
        <ele>1871.076</ele>
        <time>2026-08-24T12:00:11Z</time>
      </trkpt>
      <trkpt lat="46.479985" lon="10.459858">
        <ele>1870.213</ele>
        <time>2026-08-24T12:00:46Z</time>
      </trkpt>
      <trkpt lat="46.480025" lon="10.459555">
        <ele>1862.309</ele>
        <time>2026-08-24T12:01:07Z</time>
      </trkpt>
      <trkpt lat="46.479962" lon="10.459507">
        <ele>1859.153</ele>
        <time>2026-08-24T12:01:14Z</time>
      </trkpt>
      <trkpt lat="46.479967" lon="10.459277">
        <ele>1857.149</ele>
        <time>2026-08-24T12:01:29Z</time>
      </trkpt>
      <trkpt lat="46.479725" lon="10.458967">
        <ele>1855.022</ele>
        <time>2026-08-24T12:02:02Z</time>
      </trkpt>
      <trkpt lat="46.479753" lon="10.458765">
        <ele>1848.019</ele>
        <time>2026-08-24T12:02:20Z</time>
      </trkpt>
      <trkpt lat="46.479660" lon="10.458655">
        <ele>1839.274</ele>
        <time>2026-08-24T12:02:37Z</time>
      </trkpt>
      <trkpt lat="46.479740" lon="10.458633">
        <ele>1838.499</ele>
        <time>2026-08-24T12:02:52Z</time>
      </trkpt>
      <trkpt lat="46.479593" lon="10.458485">
        <ele>1838.530</ele>
        <time>2026-08-24T12:03:12Z</time>
      </trkpt>
      <trkpt lat="46.479358" lon="10.458392">
        <ele>1841.744</ele>
        <time>2026-08-24T12:03:21Z</time>
      </trkpt>
      <trkpt lat="46.479363" lon="10.458108">
        <ele>1837.699</ele>
        <time>2026-08-24T12:03:44Z</time>
      </trkpt>
      <trkpt lat="46.479148" lon="10.457285">
        <ele>1822.969</ele>
        <time>2026-08-24T12:04:59Z</time>
      </trkpt>
      <trkpt lat="46.479130" lon="10.456748">
        <ele>1811.604</ele>
        <time>2026-08-24T12:05:45Z</time>
      </trkpt>
      <trkpt lat="46.479012" lon="10.456628">
        <ele>1811.724</ele>
        <time>2026-08-24T12:06:00Z</time>
      </trkpt>
      <trkpt lat="46.479075" lon="10.456232">
        <ele>1819.309</ele>
        <time>2026-08-24T12:06:42Z</time>
      </trkpt>
      <trkpt lat="46.478733" lon="10.456167">
        <ele>1813.728</ele>
        <time>2026-08-24T12:07:14Z</time>
      </trkpt>
      <trkpt lat="46.478768" lon="10.456008">
        <ele>1814.514</ele>
        <time>2026-08-24T12:07:27Z</time>
      </trkpt>
      <trkpt lat="46.478693" lon="10.455753">
        <ele>1815.347</ele>
        <time>2026-08-24T12:07:52Z</time>
      </trkpt>
      <trkpt lat="46.478535" lon="10.455562">
        <ele>1808.744</ele>
        <time>2026-08-24T12:08:18Z</time>
      </trkpt>
      <trkpt lat="46.478487" lon="10.454912">
        <ele>1803.079</ele>
        <time>2026-08-24T12:09:08Z</time>
      </trkpt>
      <trkpt lat="46.478230" lon="10.454628">
        <ele>1795.794</ele>
        <time>2026-08-24T12:09:39Z</time>
      </trkpt>
      <trkpt lat="46.478180" lon="10.454388">
        <ele>1795.695</ele>
        <time>2026-08-24T12:10:05Z</time>
      </trkpt>
      <trkpt lat="46.478177" lon="10.454577">
        <ele>1797.589</ele>
        <time>2026-08-24T12:10:36Z</time>
      </trkpt>
      <trkpt lat="46.478262" lon="10.454592">
        <ele>1788.054</ele>
        <time>2026-08-24T12:12:22Z</time>
      </trkpt>
      <trkpt lat="46.478262" lon="10.454655">
        <ele>1783.451</ele>
        <time>2026-08-24T12:12:48Z</time>
      </trkpt>
      <trkpt lat="46.478145" lon="10.455443">
        <ele>1788.901</ele>
        <time>2026-08-24T12:14:01Z</time>
      </trkpt>
      <trkpt lat="46.477900" lon="10.456007">
        <ele>1790.711</ele>
        <time>2026-08-24T12:14:47Z</time>
      </trkpt>
      <trkpt lat="46.477990" lon="10.456318">
        <ele>1784.409</ele>
        <time>2026-08-24T12:15:43Z</time>
      </trkpt>
      <trkpt lat="46.477782" lon="10.456507">
        <ele>1776.717</ele>
        <time>2026-08-24T12:16:18Z</time>
      </trkpt>
      <trkpt lat="46.477748" lon="10.457012">
        <ele>1762.143</ele>
        <time>2026-08-24T12:16:53Z</time>
      </trkpt>
      <trkpt lat="46.477818" lon="10.457615">
        <ele>1754.286</ele>
        <time>2026-08-24T12:17:34Z</time>
      </trkpt>
      <trkpt lat="46.477758" lon="10.457665">
        <ele>1753.153</ele>
        <time>2026-08-24T12:17:42Z</time>
      </trkpt>
      <trkpt lat="46.477537" lon="10.456743">
        <ele>1749.048</ele>
        <time>2026-08-24T12:19:09Z</time>
      </trkpt>
      <trkpt lat="46.477388" lon="10.456785">
        <ele>1747.223</ele>
        <time>2026-08-24T12:19:29Z</time>
      </trkpt>
      <trkpt lat="46.477308" lon="10.456598">
        <ele>1741.844</ele>
        <time>2026-08-24T12:19:56Z</time>
      </trkpt>
      <trkpt lat="46.477438" lon="10.456120">
        <ele>1753.978</ele>
        <time>2026-08-24T12:20:38Z</time>
      </trkpt>
      <trkpt lat="46.477382" lon="10.456093">
        <ele>1753.913</ele>
        <time>2026-08-24T12:20:51Z</time>
      </trkpt>
      <trkpt lat="46.477363" lon="10.455875">
        <ele>1751.871</ele>
        <time>2026-08-24T12:21:10Z</time>
      </trkpt>
      <trkpt lat="46.477425" lon="10.455652">
        <ele>1749.641</ele>
        <time>2026-08-24T12:21:25Z</time>
      </trkpt>
      <trkpt lat="46.477210" lon="10.455095">
        <ele>1748.515</ele>
        <time>2026-08-24T12:22:07Z</time>
      </trkpt>
      <trkpt lat="46.477265" lon="10.454937">
        <ele>1738.309</ele>
        <time>2026-08-24T12:22:20Z</time>
      </trkpt>
      <trkpt lat="46.476933" lon="10.454478">
        <ele>1726.649</ele>
        <time>2026-08-24T12:22:51Z</time>
      </trkpt>
      <trkpt lat="46.476692" lon="10.453957">
        <ele>1727.695</ele>
        <time>2026-08-24T12:23:32Z</time>
      </trkpt>
      <trkpt lat="46.476538" lon="10.453475">
        <ele>1724.648</ele>
        <time>2026-08-24T12:24:07Z</time>
      </trkpt>
      <trkpt lat="46.476530" lon="10.453205">
        <ele>1723.725</ele>
        <time>2026-08-24T12:24:28Z</time>
      </trkpt>
      <trkpt lat="46.476388" lon="10.452932">
        <ele>1726.430</ele>
        <time>2026-08-24T12:24:54Z</time>
      </trkpt>
      <trkpt lat="46.476112" lon="10.452698">
        <ele>1726.525</ele>
        <time>2026-08-24T12:25:38Z</time>
      </trkpt>
      <trkpt lat="46.475947" lon="10.452710">
        <ele>1723.526</ele>
        <time>2026-08-24T12:25:50Z</time>
      </trkpt>
      <trkpt lat="46.475797" lon="10.452377">
        <ele>1713.440</ele>
        <time>2026-08-24T12:26:13Z</time>
      </trkpt>
      <trkpt lat="46.475493" lon="10.452110">
        <ele>1710.055</ele>
        <time>2026-08-24T12:26:47Z</time>
      </trkpt>
      <trkpt lat="46.475125" lon="10.451570">
        <ele>1709.066</ele>
        <time>2026-08-24T12:27:37Z</time>
      </trkpt>
      <trkpt lat="46.475020" lon="10.451340">
        <ele>1709.629</ele>
        <time>2026-08-24T12:27:56Z</time>
      </trkpt>
      <trkpt lat="46.475075" lon="10.451212">
        <ele>1709.421</ele>
        <time>2026-08-24T12:28:09Z</time>
      </trkpt>
      <trkpt lat="46.474723" lon="10.451010">
        <ele>1710.509</ele>
        <time>2026-08-24T12:28:31Z</time>
      </trkpt>
      <trkpt lat="46.474292" lon="10.450503">
        <ele>1723.068</ele>
        <time>2026-08-24T12:29:30Z</time>
      </trkpt>
      <trkpt lat="46.474178" lon="10.450498">
        <ele>1722.324</ele>
        <time>2026-08-24T12:29:44Z</time>
      </trkpt>
      <trkpt lat="46.473693" lon="10.449973">
        <ele>1731.667</ele>
        <time>2026-08-24T12:30:36Z</time>
      </trkpt>
      <trkpt lat="46.473222" lon="10.449762">
        <ele>1729.474</ele>
        <time>2026-08-24T12:31:25Z</time>
      </trkpt>
      <trkpt lat="46.472932" lon="10.449322">
        <ele>1727.529</ele>
        <time>2026-08-24T12:32:27Z</time>
      </trkpt>
      <trkpt lat="46.472720" lon="10.449127">
        <ele>1728.114</ele>
        <time>2026-08-24T12:33:00Z</time>
      </trkpt>
      <trkpt lat="46.472730" lon="10.449015">
        <ele>1727.415</ele>
        <time>2026-08-24T12:33:11Z</time>
      </trkpt>
      <trkpt lat="46.472582" lon="10.448875">
        <ele>1723.549</ele>
        <time>2026-08-24T12:33:31Z</time>
      </trkpt>
      <trkpt lat="46.472520" lon="10.448693">
        <ele>1721.854</ele>
        <time>2026-08-24T12:33:45Z</time>
      </trkpt>
      <trkpt lat="46.472383" lon="10.448622">
        <ele>1715.451</ele>
        <time>2026-08-24T12:34:01Z</time>
      </trkpt>
      <trkpt lat="46.472475" lon="10.448517">
        <ele>1708.701</ele>
        <time>2026-08-24T12:34:16Z</time>
      </trkpt>
      <trkpt lat="46.472672" lon="10.448558">
        <ele>1699.611</ele>
        <time>2026-08-24T12:34:43Z</time>
      </trkpt>
      <trkpt lat="46.472908" lon="10.448770">
        <ele>1687.609</ele>
        <time>2026-08-24T12:35:11Z</time>
      </trkpt>
      <trkpt lat="46.473133" lon="10.448577">
        <ele>1683.417</ele>
        <time>2026-08-24T12:35:33Z</time>
      </trkpt>
      <trkpt lat="46.472902" lon="10.448328">
        <ele>1686.213</ele>
        <time>2026-08-24T12:36:04Z</time>
      </trkpt>
      <trkpt lat="46.472847" lon="10.447865">
        <ele>1683.216</ele>
        <time>2026-08-24T12:36:39Z</time>
      </trkpt>
      <trkpt lat="46.472522" lon="10.447120">
        <ele>1675.383</ele>
        <time>2026-08-24T12:37:52Z</time>
      </trkpt>
      <trkpt lat="46.472578" lon="10.446985">
        <ele>1671.948</ele>
        <time>2026-08-24T12:38:03Z</time>
      </trkpt>
      <trkpt lat="46.472350" lon="10.446627">
        <ele>1665.933</ele>
        <time>2026-08-24T12:38:38Z</time>
      </trkpt>
      <trkpt lat="46.472370" lon="10.446520">
        <ele>1661.954</ele>
        <time>2026-08-24T12:38:49Z</time>
      </trkpt>
      <trkpt lat="46.472150" lon="10.446325">
        <ele>1656.578</ele>
        <time>2026-08-24T12:39:10Z</time>
      </trkpt>
      <trkpt lat="46.472212" lon="10.446195">
        <ele>1654.273</ele>
        <time>2026-08-24T12:39:24Z</time>
      </trkpt>
      <trkpt lat="46.472065" lon="10.445913">
        <ele>1642.399</ele>
        <time>2026-08-24T12:39:57Z</time>
      </trkpt>
      <trkpt lat="46.472175" lon="10.445767">
        <ele>1639.207</ele>
        <time>2026-08-24T12:40:10Z</time>
      </trkpt>
      <trkpt lat="46.471867" lon="10.445507">
        <ele>1644.427</ele>
        <time>2026-08-24T12:40:38Z</time>
      </trkpt>
      <trkpt lat="46.471642" lon="10.445197">
        <ele>1648.009</ele>
        <time>2026-08-24T12:41:06Z</time>
      </trkpt>
      <trkpt lat="46.471585" lon="10.444873">
        <ele>1647.811</ele>
        <time>2026-08-24T12:41:29Z</time>
      </trkpt>
      <trkpt lat="46.471290" lon="10.444800">
        <ele>1645.117</ele>
        <time>2026-08-24T12:41:48Z</time>
      </trkpt>
      <trkpt lat="46.471132" lon="10.444598">
        <ele>1644.230</ele>
        <time>2026-08-24T12:42:12Z</time>
      </trkpt>
      <trkpt lat="46.470825" lon="10.444388">
        <ele>1635.127</ele>
        <time>2026-08-24T12:42:46Z</time>
      </trkpt>
      <trkpt lat="46.470765" lon="10.444447">
        <ele>1635.162</ele>
        <time>2026-08-24T12:42:57Z</time>
      </trkpt>
      <trkpt lat="46.470673" lon="10.444355">
        <ele>1635.177</ele>
        <time>2026-08-24T12:43:04Z</time>
      </trkpt>
      <trkpt lat="46.470462" lon="10.444358">
        <ele>1650.488</ele>
        <time>2026-08-24T12:43:27Z</time>
      </trkpt>
      <trkpt lat="46.470575" lon="10.444035">
        <ele>1636.132</ele>
        <time>2026-08-24T12:43:56Z</time>
      </trkpt>
      <trkpt lat="46.470535" lon="10.443832">
        <ele>1631.457</ele>
        <time>2026-08-24T12:44:14Z</time>
      </trkpt>
      <trkpt lat="46.470670" lon="10.443293">
        <ele>1621.633</ele>
        <time>2026-08-24T12:45:03Z</time>
      </trkpt>
      <trkpt lat="46.470868" lon="10.442932">
        <ele>1620.323</ele>
        <time>2026-08-24T12:45:57Z</time>
      </trkpt>
      <trkpt lat="46.470735" lon="10.442628">
        <ele>1623.115</ele>
        <time>2026-08-24T12:46:35Z</time>
      </trkpt>
      <trkpt lat="46.470720" lon="10.442253">
        <ele>1630.709</ele>
        <time>2026-08-24T12:47:15Z</time>
      </trkpt>
      <trkpt lat="46.470547" lon="10.441867">
        <ele>1633.345</ele>
        <time>2026-08-24T12:47:56Z</time>
      </trkpt>
      <trkpt lat="46.470330" lon="10.440797">
        <ele>1646.251</ele>
        <time>2026-08-24T12:50:15Z</time>
      </trkpt>
      <trkpt lat="46.470277" lon="10.440792">
        <ele>1646.244</ele>
        <time>2026-08-24T12:50:23Z</time>
      </trkpt>
      <trkpt lat="46.470235" lon="10.440520">
        <ele>1645.341</ele>
        <time>2026-08-24T12:50:52Z</time>
      </trkpt>
      <trkpt lat="46.470013" lon="10.440263">
        <ele>1648.566</ele>
        <time>2026-08-24T12:51:37Z</time>
      </trkpt>
      <trkpt lat="46.469957" lon="10.439985">
        <ele>1657.721</ele>
        <time>2026-08-24T12:52:23Z</time>
      </trkpt>
      <trkpt lat="46.469672" lon="10.439825">
        <ele>1658.752</ele>
        <time>2026-08-24T12:52:54Z</time>
      </trkpt>
      <trkpt lat="46.469703" lon="10.439730">
        <ele>1659.446</ele>
        <time>2026-08-24T12:53:08Z</time>
      </trkpt>
      <trkpt lat="46.469535" lon="10.439567">
        <ele>1660.721</ele>
        <time>2026-08-24T12:53:37Z</time>
      </trkpt>
      <trkpt lat="46.469562" lon="10.439493">
        <ele>1661.049</ele>
        <time>2026-08-24T12:53:50Z</time>
      </trkpt>
      <trkpt lat="46.469353" lon="10.439302">
        <ele>1662.802</ele>
        <time>2026-08-24T12:54:26Z</time>
      </trkpt>
      <trkpt lat="46.469188" lon="10.439260">
        <ele>1662.722</ele>
        <time>2026-08-24T12:54:51Z</time>
      </trkpt>
      <trkpt lat="46.469183" lon="10.438913">
        <ele>1664.309</ele>
        <time>2026-08-24T12:55:35Z</time>
      </trkpt>
      <trkpt lat="46.469035" lon="10.438787">
        <ele>1663.616</ele>
        <time>2026-08-24T12:55:56Z</time>
      </trkpt>
      <trkpt lat="46.469038" lon="10.438665">
        <ele>1661.492</ele>
        <time>2026-08-24T12:56:12Z</time>
      </trkpt>
      <trkpt lat="46.468920" lon="10.438535">
        <ele>1661.465</ele>
        <time>2026-08-24T12:56:39Z</time>
      </trkpt>
      <trkpt lat="46.468895" lon="10.438220">
        <ele>1673.942</ele>
        <time>2026-08-24T12:57:07Z</time>
      </trkpt>
      <trkpt lat="46.468693" lon="10.438015">
        <ele>1678.017</ele>
        <time>2026-08-24T12:57:42Z</time>
      </trkpt>
      <trkpt lat="46.468703" lon="10.437712">
        <ele>1680.942</ele>
        <time>2026-08-24T12:58:25Z</time>
      </trkpt>
      <trkpt lat="46.468607" lon="10.437403">
        <ele>1678.833</ele>
        <time>2026-08-24T12:58:53Z</time>
      </trkpt>
      <trkpt lat="46.468358" lon="10.437093">
        <ele>1674.987</ele>
        <time>2026-08-24T12:59:38Z</time>
      </trkpt>
      <trkpt lat="46.468148" lon="10.436538">
        <ele>1684.512</ele>
        <time>2026-08-24T13:00:31Z</time>
      </trkpt>
      <trkpt lat="46.468077" lon="10.435930">
        <ele>1686.034</ele>
        <time>2026-08-24T13:01:46Z</time>
      </trkpt>
      <trkpt lat="46.467930" lon="10.435623">
        <ele>1687.155</ele>
        <time>2026-08-24T13:02:13Z</time>
      </trkpt>
      <trkpt lat="46.467622" lon="10.435308">
        <ele>1687.810</ele>
        <time>2026-08-24T13:02:53Z</time>
      </trkpt>
      <trkpt lat="46.467565" lon="10.434667">
        <ele>1687.509</ele>
        <time>2026-08-24T13:03:48Z</time>
      </trkpt>
      <trkpt lat="46.467152" lon="10.433695">
        <ele>1684.795</ele>
        <time>2026-08-24T13:05:10Z</time>
      </trkpt>
      <trkpt lat="46.466830" lon="10.433355">
        <ele>1686.531</ele>
        <time>2026-08-24T13:05:56Z</time>
      </trkpt>
      <trkpt lat="46.466800" lon="10.433238">
        <ele>1686.764</ele>
        <time>2026-08-24T13:06:13Z</time>
      </trkpt>
      <trkpt lat="46.466800" lon="10.433345">
        <ele>1687.081</ele>
        <time>2026-08-24T13:06:29Z</time>
      </trkpt>
      <trkpt lat="46.466720" lon="10.433395">
        <ele>1687.436</ele>
        <time>2026-08-24T13:06:47Z</time>
      </trkpt>
      <trkpt lat="46.466780" lon="10.433320">
        <ele>1687.671</ele>
        <time>2026-08-24T13:06:54Z</time>
      </trkpt>
    </trkseg>
  </trk></gpx>