<?xml version="1.0" encoding="UTF-8"?>
<gpx creator="Wikiloc - https://www.wikiloc.com" version="1.1" xmlns="http://www.topografix.com/GPX/1/1" xmlns:xsi="http://www.w3.org/2001/XMLSchema-instance" xsi:schemaLocation="http://www.topografix.com/GPX/1/1 http://www.topografix.com/GPX/1/1/gpx.xsd">
  <metadata>
    <name>Wikiloc - Rifugi Casinei, Brentei e Alimonta da Vallesinella. Lo spett...</name>
    <link href="https://www.wikiloc.com/hiking-trails/rifugi-casinei-brentei-e-alimonta-da-vallesinella-lo-spettacolo-delle-dolomiti-del-brenta-54757342">
      <text>Rifugi Casinei, Brentei e Alimonta da Vallesinella. Lo spett... on Wikiloc</text>
    </link>
    <time>2020-08-15T13:12:39Z</time>
  </metadata>
  <trk>
    <name>Rifugi Casinei, Brentei e Alimonta da Vallesinella. Lo spett... - Wikiloc</name>
    <cmt></cmt>
    <desc></desc>
    <trkseg>
      <trkpt lat="46.205892" lon="10.852418">
        <ele>1493.986</ele>
        <time>2020-08-15T06:43:10Z</time>
      </trkpt>
      <trkpt lat="46.205819" lon="10.852367">
        <ele>1493.660</ele>
        <time>2020-08-15T06:43:45Z</time>
      </trkpt>
      <trkpt lat="46.205909" lon="10.852136">
        <ele>1493.426</ele>
        <time>2020-08-15T06:44:21Z</time>
      </trkpt>
      <trkpt lat="46.205789" lon="10.852239">
        <ele>1489.908</ele>
        <time>2020-08-15T06:44:46Z</time>
      </trkpt>
      <trkpt lat="46.205743" lon="10.852213">
        <ele>1488.683</ele>
        <time>2020-08-15T06:44:55Z</time>
      </trkpt>
      <trkpt lat="46.205651" lon="10.852456">
        <ele>1485.522</ele>
        <time>2020-08-15T06:45:20Z</time>
      </trkpt>
      <trkpt lat="46.205575" lon="10.852460">
        <ele>1485.415</ele>
        <time>2020-08-15T06:45:30Z</time>
      </trkpt>
      <trkpt lat="46.205405" lon="10.852316">
        <ele>1488.983</ele>
        <time>2020-08-15T06:45:53Z</time>
      </trkpt>
      <trkpt lat="46.204537" lon="10.852603">
        <ele>1503.715</ele>
        <time>2020-08-15T06:47:23Z</time>
      </trkpt>
      <trkpt lat="46.204346" lon="10.852552">
        <ele>1507.021</ele>
        <time>2020-08-15T06:47:47Z</time>
      </trkpt>
      <trkpt lat="46.204248" lon="10.852637">
        <ele>1510.642</ele>
        <time>2020-08-15T06:48:07Z</time>
      </trkpt>
      <trkpt lat="46.204010" lon="10.853117">
        <ele>1519.420</ele>
        <time>2020-08-15T06:48:49Z</time>
      </trkpt>
      <trkpt lat="46.204043" lon="10.853374">
        <ele>1524.872</ele>
        <time>2020-08-15T06:49:17Z</time>
      </trkpt>
      <trkpt lat="46.203940" lon="10.853382">
        <ele>1526.313</ele>
        <time>2020-08-15T06:49:28Z</time>
      </trkpt>
      <trkpt lat="46.203946" lon="10.853580">
        <ele>1529.814</ele>
        <time>2020-08-15T06:49:44Z</time>
      </trkpt>
      <trkpt lat="46.203676" lon="10.854369">
        <ele>1545.008</ele>
        <time>2020-08-15T06:51:06Z</time>
      </trkpt>
      <trkpt lat="46.203474" lon="10.854625">
        <ele>1553.122</ele>
        <time>2020-08-15T06:51:44Z</time>
      </trkpt>
      <trkpt lat="46.203447" lon="10.854791">
        <ele>1556.211</ele>
        <time>2020-08-15T06:52:00Z</time>
      </trkpt>
      <trkpt lat="46.203550" lon="10.854811">
        <ele>1559.384</ele>
        <time>2020-08-15T06:52:13Z</time>
      </trkpt>
      <trkpt lat="46.203477" lon="10.854848">
        <ele>1560.692</ele>
        <time>2020-08-15T06:52:21Z</time>
      </trkpt>
      <trkpt lat="46.203433" lon="10.854995">
        <ele>1562.524</ele>
        <time>2020-08-15T06:52:34Z</time>
      </trkpt>
      <trkpt lat="46.203489" lon="10.855115">
        <ele>1565.490</ele>
        <time>2020-08-15T06:52:48Z</time>
      </trkpt>
      <trkpt lat="46.203326" lon="10.855119">
        <ele>1568.381</ele>
        <time>2020-08-15T06:53:07Z</time>
      </trkpt>
      <trkpt lat="46.203161" lon="10.855236">
        <ele>1570.919</ele>
        <time>2020-08-15T06:53:27Z</time>
      </trkpt>
      <trkpt lat="46.203268" lon="10.855445">
        <ele>1577.894</ele>
        <time>2020-08-15T06:53:56Z</time>
      </trkpt>
      <trkpt lat="46.202995" lon="10.855801">
        <ele>1587.057</ele>
        <time>2020-08-15T06:54:49Z</time>
      </trkpt>
      <trkpt lat="46.202838" lon="10.856793">
        <ele>1604.922</ele>
        <time>2020-08-15T06:56:37Z</time>
      </trkpt>
      <trkpt lat="46.202574" lon="10.857189">
        <ele>1610.208</ele>
        <time>2020-08-15T06:57:10Z</time>
      </trkpt>
      <trkpt lat="46.202364" lon="10.857378">
        <ele>1611.424</ele>
        <time>2020-08-15T06:57:46Z</time>
      </trkpt>
      <trkpt lat="46.202331" lon="10.857339">
        <ele>1613.053</ele>
        <time>2020-08-15T06:57:56Z</time>
      </trkpt>
      <trkpt lat="46.202134" lon="10.857494">
        <ele>1618.876</ele>
        <time>2020-08-15T06:58:22Z</time>
      </trkpt>
      <trkpt lat="46.201934" lon="10.857216">
        <ele>1627.644</ele>
        <time>2020-08-15T06:59:01Z</time>
      </trkpt>
      <trkpt lat="46.201870" lon="10.857359">
        <ele>1630.016</ele>
        <time>2020-08-15T06:59:15Z</time>
      </trkpt>
      <trkpt lat="46.201811" lon="10.857604">
        <ele>1632.362</ele>
        <time>2020-08-15T06:59:24Z</time>
      </trkpt>
      <trkpt lat="46.201839" lon="10.857714">
        <ele>1633.163</ele>
        <time>2020-08-15T06:59:29Z</time>
      </trkpt>
      <trkpt lat="46.201967" lon="10.857734">
        <ele>1635.311</ele>
        <time>2020-08-15T06:59:43Z</time>
      </trkpt>
      <trkpt lat="46.201929" lon="10.857939">
        <ele>1640.517</ele>
        <time>2020-08-15T07:00:09Z</time>
      </trkpt>
      <trkpt lat="46.201974" lon="10.858114">
        <ele>1643.987</ele>
        <time>2020-08-15T07:00:25Z</time>
      </trkpt>
      <trkpt lat="46.201808" lon="10.858439">
        <ele>1648.815</ele>
        <time>2020-08-15T07:01:02Z</time>
      </trkpt>
      <trkpt lat="46.201551" lon="10.858755">
        <ele>1652.408</ele>
        <time>2020-08-15T07:01:24Z</time>
      </trkpt>
      <trkpt lat="46.201427" lon="10.859285">
        <ele>1661.716</ele>
        <time>2020-08-15T07:02:15Z</time>
      </trkpt>
      <trkpt lat="46.201268" lon="10.859625">
        <ele>1666.955</ele>
        <time>2020-08-15T07:02:54Z</time>
      </trkpt>
      <trkpt lat="46.201347" lon="10.860490">
        <ele>1680.558</ele>
        <time>2020-08-15T07:04:23Z</time>
      </trkpt>
      <trkpt lat="46.201264" lon="10.860825">
        <ele>1685.476</ele>
        <time>2020-08-15T07:04:50Z</time>
      </trkpt>
      <trkpt lat="46.201209" lon="10.860840">
        <ele>1685.528</ele>
        <time>2020-08-15T07:04:51Z</time>
      </trkpt>
      <trkpt lat="46.200977" lon="10.860530">
        <ele>1690.814</ele>
        <time>2020-08-15T07:05:24Z</time>
      </trkpt>
      <trkpt lat="46.200762" lon="10.860055">
        <ele>1701.045</ele>
        <time>2020-08-15T07:06:40Z</time>
      </trkpt>
      <trkpt lat="46.200651" lon="10.860490">
        <ele>1704.683</ele>
        <time>2020-08-15T07:07:05Z</time>
      </trkpt>
      <trkpt lat="46.200606" lon="10.860525">
        <ele>1706.363</ele>
        <time>2020-08-15T07:07:16Z</time>
      </trkpt>
      <trkpt lat="46.200582" lon="10.860480">
        <ele>1707.944</ele>
        <time>2020-08-15T07:07:26Z</time>
      </trkpt>
      <trkpt lat="46.200437" lon="10.859775">
        <ele>1721.118</ele>
        <time>2020-08-15T07:08:49Z</time>
      </trkpt>
      <trkpt lat="46.200385" lon="10.858915">
        <ele>1739.208</ele>
        <time>2020-08-15T07:10:43Z</time>
      </trkpt>
      <trkpt lat="46.200437" lon="10.858324">
        <ele>1755.851</ele>
        <time>2020-08-15T07:12:20Z</time>
      </trkpt>
      <trkpt lat="46.200337" lon="10.857995">
        <ele>1769.380</ele>
        <time>2020-08-15T07:13:41Z</time>
      </trkpt>
      <trkpt lat="46.200352" lon="10.857833">
        <ele>1770.993</ele>
        <time>2020-08-15T07:13:57Z</time>
      </trkpt>
      <trkpt lat="46.200314" lon="10.857744">
        <ele>1772.041</ele>
        <time>2020-08-15T07:14:05Z</time>
      </trkpt>
      <trkpt lat="46.200285" lon="10.857843">
        <ele>1776.343</ele>
        <time>2020-08-15T07:14:34Z</time>
      </trkpt>
      <trkpt lat="46.199970" lon="10.858110">
        <ele>1789.059</ele>
        <time>2020-08-15T07:15:24Z</time>
      </trkpt>
      <trkpt lat="46.199770" lon="10.857842">
        <ele>1789.290</ele>
        <time>2020-08-15T07:15:52Z</time>
      </trkpt>
      <trkpt lat="46.199803" lon="10.857607">
        <ele>1789.698</ele>
        <time>2020-08-15T07:16:15Z</time>
      </trkpt>
      <trkpt lat="46.199736" lon="10.857782">
        <ele>1789.857</ele>
        <time>2020-08-15T07:16:27Z</time>
      </trkpt>
      <trkpt lat="46.199817" lon="10.857978">
        <ele>1790.600</ele>
        <time>2020-08-15T07:16:39Z</time>
      </trkpt>
      <trkpt lat="46.199892" lon="10.857965">
        <ele>1790.220</ele>
        <time>2020-08-15T07:16:51Z</time>
      </trkpt>
      <trkpt lat="46.199966" lon="10.858580">
        <ele>1792.908</ele>
        <time>2020-08-15T07:18:05Z</time>
      </trkpt>
      <trkpt lat="46.199859" lon="10.858990">
        <ele>1804.530</ele>
        <time>2020-08-15T07:19:17Z</time>
      </trkpt>
      <trkpt lat="46.199613" lon="10.859165">
        <ele>1812.429</ele>
        <time>2020-08-15T07:20:00Z</time>
      </trkpt>
      <trkpt lat="46.199550" lon="10.858906">
        <ele>1818.812</ele>
        <time>2020-08-15T07:20:29Z</time>
      </trkpt>
      <trkpt lat="46.199126" lon="10.858704">
        <ele>1832.430</ele>
        <time>2020-08-15T07:21:44Z</time>
      </trkpt>
      <trkpt lat="46.199111" lon="10.858811">
        <ele>1834.052</ele>
        <time>2020-08-15T07:21:58Z</time>
      </trkpt>
      <trkpt lat="46.198981" lon="10.858909">
        <ele>1840.348</ele>
        <time>2020-08-15T07:22:28Z</time>
      </trkpt>
      <trkpt lat="46.198751" lon="10.858767">
        <ele>1847.749</ele>
        <time>2020-08-15T07:23:03Z</time>
      </trkpt>
      <trkpt lat="46.198640" lon="10.858850">
        <ele>1853.267</ele>
        <time>2020-08-15T07:23:31Z</time>
      </trkpt>
      <trkpt lat="46.198661" lon="10.858999">
        <ele>1856.992</ele>
        <time>2020-08-15T07:23:51Z</time>
      </trkpt>
      <trkpt lat="46.198602" lon="10.859054">
        <ele>1859.073</ele>
        <time>2020-08-15T07:24:10Z</time>
      </trkpt>
      <trkpt lat="46.198534" lon="10.859526">
        <ele>1871.420</ele>
        <time>2020-08-15T07:25:11Z</time>
      </trkpt>
      <trkpt lat="46.198031" lon="10.860285">
        <ele>1887.308</ele>
        <time>2020-08-15T07:26:40Z</time>
      </trkpt>
      <trkpt lat="46.197227" lon="10.860973">
        <ele>1906.584</ele>
        <time>2020-08-15T07:28:31Z</time>
      </trkpt>
      <trkpt lat="46.196880" lon="10.861189">
        <ele>1911.773</ele>
        <time>2020-08-15T07:29:51Z</time>
      </trkpt>
      <trkpt lat="46.196621" lon="10.861517">
        <ele>1920.996</ele>
        <time>2020-08-15T07:30:46Z</time>
      </trkpt>
      <trkpt lat="46.196539" lon="10.861520">
        <ele>1922.364</ele>
        <time>2020-08-15T07:30:54Z</time>
      </trkpt>
      <trkpt lat="46.195812" lon="10.862035">
        <ele>1938.266</ele>
        <time>2020-08-15T07:32:40Z</time>
      </trkpt>
      <trkpt lat="46.194600" lon="10.863718">
        <ele>1970.492</ele>
        <time>2020-08-15T07:36:24Z</time>
      </trkpt>
      <trkpt lat="46.194524" lon="10.863720">
        <ele>1971.053</ele>
        <time>2020-08-15T07:36:33Z</time>
      </trkpt>
      <trkpt lat="46.194329" lon="10.863969">
        <ele>1975.671</ele>
        <time>2020-08-15T07:37:08Z</time>
      </trkpt>
      <trkpt lat="46.193425" lon="10.864512">
        <ele>1994.333</ele>
        <time>2020-08-15T07:38:53Z</time>
      </trkpt>
      <trkpt lat="46.193195" lon="10.864841">
        <ele>2001.623</ele>
        <time>2020-08-15T07:39:33Z</time>
      </trkpt>
      <trkpt lat="46.192866" lon="10.865111">
        <ele>2008.115</ele>
        <time>2020-08-15T07:40:22Z</time>
      </trkpt>
      <trkpt lat="46.192799" lon="10.865147">
        <ele>2009.908</ele>
        <time>2020-08-15T07:40:30Z</time>
      </trkpt>
      <trkpt lat="46.192674" lon="10.865098">
        <ele>2011.378</ele>
        <time>2020-08-15T07:40:45Z</time>
      </trkpt>
      <trkpt lat="46.192369" lon="10.865265">
        <ele>2015.657</ele>
        <time>2020-08-15T07:41:34Z</time>
      </trkpt>
      <trkpt lat="46.192238" lon="10.865809">
        <ele>2017.060</ele>
        <time>2020-08-15T07:42:15Z</time>
      </trkpt>
      <trkpt lat="46.192063" lon="10.865981">
        <ele>2019.868</ele>
        <time>2020-08-15T07:42:33Z</time>
      </trkpt>
      <trkpt lat="46.191920" lon="10.866257">
        <ele>2022.340</ele>
        <time>2020-08-15T07:43:35Z</time>
      </trkpt>
      <trkpt lat="46.191813" lon="10.866295">
        <ele>2022.476</ele>
        <time>2020-08-15T07:43:47Z</time>
      </trkpt>
      <trkpt lat="46.191621" lon="10.866523">
        <ele>2026.257</ele>
        <time>2020-08-15T07:44:11Z</time>
      </trkpt>
      <trkpt lat="46.191524" lon="10.866586">
        <ele>2025.415</ele>
        <time>2020-08-15T07:44:19Z</time>
      </trkpt>
      <trkpt lat="46.191208" lon="10.866590">
        <ele>2023.889</ele>
        <time>2020-08-15T07:44:48Z</time>
      </trkpt>
      <trkpt lat="46.190200" lon="10.866540">
        <ele>2026.606</ele>
        <time>2020-08-15T07:46:38Z</time>
      </trkpt>
      <trkpt lat="46.189758" lon="10.866272">
        <ele>2029.826</ele>
        <time>2020-08-15T07:47:16Z</time>
      </trkpt>
      <trkpt lat="46.189588" lon="10.866022">
        <ele>2031.308</ele>
        <time>2020-08-15T07:47:37Z</time>
      </trkpt>
      <trkpt lat="46.189210" lon="10.865675">
        <ele>2035.513</ele>
        <time>2020-08-15T07:48:16Z</time>
      </trkpt>
      <trkpt lat="46.189206" lon="10.865554">
        <ele>2036.912</ele>
        <time>2020-08-15T07:48:44Z</time>
      </trkpt>
      <trkpt lat="46.188561" lon="10.865126">
        <ele>2045.165</ele>
        <time>2020-08-15T07:50:19Z</time>
      </trkpt>
      <trkpt lat="46.188140" lon="10.865173">
        <ele>2042.723</ele>
        <time>2020-08-15T07:51:55Z</time>
      </trkpt>
      <trkpt lat="46.188004" lon="10.865317">
        <ele>2040.365</ele>
        <time>2020-08-15T07:52:21Z</time>
      </trkpt>
      <trkpt lat="46.187634" lon="10.865163">
        <ele>2037.811</ele>
        <time>2020-08-15T07:53:05Z</time>
      </trkpt>
      <trkpt lat="46.187446" lon="10.865533">
        <ele>2031.282</ele>
        <time>2020-08-15T07:54:09Z</time>
      </trkpt>
      <trkpt lat="46.187572" lon="10.865715">
        <ele>2028.890</ele>
        <time>2020-08-15T07:54:26Z</time>
      </trkpt>
      <trkpt lat="46.187558" lon="10.865834">
        <ele>2029.936</ele>
        <time>2020-08-15T07:54:33Z</time>
      </trkpt>
      <trkpt lat="46.187122" lon="10.866593">
        <ele>2027.817</ele>
        <time>2020-08-15T07:55:31Z</time>
      </trkpt>
      <trkpt lat="46.187002" lon="10.866625">
        <ele>2031.318</ele>
        <time>2020-08-15T07:55:57Z</time>
      </trkpt>
      <trkpt lat="46.186965" lon="10.866698">
        <ele>2033.908</ele>
        <time>2020-08-15T07:56:07Z</time>
      </trkpt>
      <trkpt lat="46.186500" lon="10.866797">
        <ele>2047.148</ele>
        <time>2020-08-15T07:57:36Z</time>
      </trkpt>
      <trkpt lat="46.186313" lon="10.866898">
        <ele>2051.137</ele>
        <time>2020-08-15T07:58:01Z</time>
      </trkpt>
      <trkpt lat="46.185609" lon="10.866951">
        <ele>2056.280</ele>
        <time>2020-08-15T07:59:04Z</time>
      </trkpt>
      <trkpt lat="46.185453" lon="10.867109">
        <ele>2061.068</ele>
        <time>2020-08-15T07:59:30Z</time>
      </trkpt>
      <trkpt lat="46.185138" lon="10.867674">
        <ele>2075.990</ele>
        <time>2020-08-15T08:00:46Z</time>
      </trkpt>
      <trkpt lat="46.184934" lon="10.867783">
        <ele>2080.216</ele>
        <time>2020-08-15T08:01:11Z</time>
      </trkpt>
      <trkpt lat="46.184506" lon="10.868220">
        <ele>2089.337</ele>
        <time>2020-08-15T08:02:19Z</time>
      </trkpt>
      <trkpt lat="46.184070" lon="10.868534">
        <ele>2102.155</ele>
        <time>2020-08-15T08:03:21Z</time>
      </trkpt>
      <trkpt lat="46.183890" lon="10.868785">
        <ele>2105.146</ele>
        <time>2020-08-15T08:03:48Z</time>
      </trkpt>
      <trkpt lat="46.183200" lon="10.868991">
        <ele>2104.588</ele>
        <time>2020-08-15T08:05:22Z</time>
      </trkpt>
      <trkpt lat="46.183058" lon="10.868938">
        <ele>2105.216</ele>
        <time>2020-08-15T08:05:50Z</time>
      </trkpt>
      <trkpt lat="46.182698" lon="10.868963">
        <ele>2109.208</ele>
        <time>2020-08-15T08:06:29Z</time>
      </trkpt>
      <trkpt lat="46.182558" lon="10.869341">
        <ele>2106.019</ele>
        <time>2020-08-15T08:07:41Z</time>
      </trkpt>
      <trkpt lat="46.181828" lon="10.869076">
        <ele>2104.558</ele>
        <time>2020-08-15T08:09:09Z</time>
      </trkpt>
      <trkpt lat="46.181599" lon="10.869249">
        <ele>2106.521</ele>
        <time>2020-08-15T08:10:01Z</time>
      </trkpt>
      <trkpt lat="46.181555" lon="10.869207">
        <ele>2104.899</ele>
        <time>2020-08-15T08:10:34Z</time>
      </trkpt>
      <trkpt lat="46.181504" lon="10.869358">
        <ele>2104.561</ele>
        <time>2020-08-15T08:10:41Z</time>
      </trkpt>
      <trkpt lat="46.181545" lon="10.869372">
        <ele>2104.187</ele>
        <time>2020-08-15T08:10:51Z</time>
      </trkpt>
      <trkpt lat="46.181341" lon="10.869577">
        <ele>2098.268</ele>
        <time>2020-08-15T08:11:45Z</time>
      </trkpt>
      <trkpt lat="46.181291" lon="10.869836">
        <ele>2095.056</ele>
        <time>2020-08-15T08:12:08Z</time>
      </trkpt>
      <trkpt lat="46.181085" lon="10.869996">
        <ele>2097.496</ele>
        <time>2020-08-15T08:12:56Z</time>
      </trkpt>
      <trkpt lat="46.180994" lon="10.870248">
        <ele>2100.531</ele>
        <time>2020-08-15T08:13:12Z</time>
      </trkpt>
      <trkpt lat="46.180831" lon="10.870407">
        <ele>2103.724</ele>
        <time>2020-08-15T08:13:35Z</time>
      </trkpt>
      <trkpt lat="46.180599" lon="10.870432">
        <ele>2103.708</ele>
        <time>2020-08-15T08:14:01Z</time>
      </trkpt>
      <trkpt lat="46.180483" lon="10.870792">
        <ele>2101.814</ele>
        <time>2020-08-15T08:14:32Z</time>
      </trkpt>
      <trkpt lat="46.180122" lon="10.870794">
        <ele>2105.573</ele>
        <time>2020-08-15T08:15:12Z</time>
      </trkpt>
      <trkpt lat="46.179576" lon="10.871215">
        <ele>2105.746</ele>
        <time>2020-08-15T08:16:34Z</time>
      </trkpt>
      <trkpt lat="46.178977" lon="10.872367">
        <ele>2132.134</ele>
        <time>2020-08-15T08:18:44Z</time>
      </trkpt>
      <trkpt lat="46.178830" lon="10.872481">
        <ele>2135.116</ele>
        <time>2020-08-15T08:19:21Z</time>
      </trkpt>
      <trkpt lat="46.178646" lon="10.872940">
        <ele>2142.672</ele>
        <time>2020-08-15T08:20:03Z</time>
      </trkpt>
      <trkpt lat="46.178264" lon="10.873495">
        <ele>2150.473</ele>
        <time>2020-08-15T08:21:11Z</time>
      </trkpt>
      <trkpt lat="46.178196" lon="10.873819">
        <ele>2156.851</ele>
        <time>2020-08-15T08:21:42Z</time>
      </trkpt>
      <trkpt lat="46.178260" lon="10.874311">
        <ele>2162.475</ele>
        <time>2020-08-15T08:22:23Z</time>
      </trkpt>
      <trkpt lat="46.178204" lon="10.874344">
        <ele>2162.728</ele>
        <time>2020-08-15T08:22:31Z</time>
      </trkpt>
      <trkpt lat="46.178085" lon="10.874807">
        <ele>2162.520</ele>
        <time>2020-08-15T08:22:57Z</time>
      </trkpt>
      <trkpt lat="46.177994" lon="10.874835">
        <ele>2163.308</ele>
        <time>2020-08-15T08:23:07Z</time>
      </trkpt>
      <trkpt lat="46.177788" lon="10.875320">
        <ele>2168.712</ele>
        <time>2020-08-15T08:24:02Z</time>
      </trkpt>
      <trkpt lat="46.177580" lon="10.876546">
        <ele>2172.721</ele>
        <time>2020-08-15T08:26:03Z</time>
      </trkpt>
      <trkpt lat="46.177439" lon="10.876726">
        <ele>2172.594</ele>
        <time>2020-08-15T08:26:24Z</time>
      </trkpt>
      <trkpt lat="46.177148" lon="10.876891">
        <ele>2172.372</ele>
        <time>2020-08-15T08:26:46Z</time>
      </trkpt>
      <trkpt lat="46.177043" lon="10.876842">
        <ele>2171.634</ele>
        <time>2020-08-15T08:27:26Z</time>
      </trkpt>
      <trkpt lat="46.176360" lon="10.876842">
        <ele>2167.830</ele>
        <time>2020-08-15T08:28:22Z</time>
      </trkpt>
      <trkpt lat="46.175987" lon="10.876724">
        <ele>2167.221</ele>
        <time>2020-08-15T08:29:01Z</time>
      </trkpt>
      <trkpt lat="46.175557" lon="10.876414">
        <ele>2170.829</ele>
        <time>2020-08-15T08:30:14Z</time>
      </trkpt>
      <trkpt lat="46.175242" lon="10.876646">
        <ele>2174.736</ele>
        <time>2020-08-15T08:30:45Z</time>
      </trkpt>
      <trkpt lat="46.174841" lon="10.876533">
        <ele>2178.917</ele>
        <time>2020-08-15T08:31:18Z</time>
      </trkpt>
      <trkpt lat="46.174399" lon="10.876614">
        <ele>2185.218</ele>
        <time>2020-08-15T08:32:01Z</time>
      </trkpt>
      <trkpt lat="46.174248" lon="10.876867">
        <ele>2186.808</ele>
        <time>2020-08-15T08:32:58Z</time>
      </trkpt>
      <trkpt lat="46.174314" lon="10.876558">
        <ele>2186.828</ele>
        <time>2020-08-15T08:36:16Z</time>
      </trkpt>
      <trkpt lat="46.174730" lon="10.876617">
        <ele>2182.957</ele>
        <time>2020-08-15T08:37:04Z</time>
      </trkpt>
      <trkpt lat="46.175055" lon="10.876527">
        <ele>2180.650</ele>
        <time>2020-08-15T08:37:31Z</time>
      </trkpt>
      <trkpt lat="46.175727" lon="10.876872">
        <ele>2170.218</ele>
        <time>2020-08-15T08:38:29Z</time>
      </trkpt>
      <trkpt lat="46.175888" lon="10.876840">
        <ele>2170.820</ele>
        <time>2020-08-15T08:38:43Z</time>
      </trkpt>
      <trkpt lat="46.175983" lon="10.876925">
        <ele>2170.136</ele>
        <time>2020-08-15T08:38:51Z</time>
      </trkpt>
      <trkpt lat="46.176041" lon="10.877537">
        <ele>2174.637</ele>
        <time>2020-08-15T08:39:28Z</time>
      </trkpt>
      <trkpt lat="46.176119" lon="10.877744">
        <ele>2176.125</ele>
        <time>2020-08-15T08:39:43Z</time>
      </trkpt>
      <trkpt lat="46.176183" lon="10.878768">
        <ele>2185.576</ele>
        <time>2020-08-15T08:40:52Z</time>
      </trkpt>
      <trkpt lat="46.176359" lon="10.879046">
        <ele>2190.790</ele>
        <time>2020-08-15T08:41:21Z</time>
      </trkpt>
      <trkpt lat="46.176452" lon="10.879404">
        <ele>2196.619</ele>
        <time>2020-08-15T08:41:53Z</time>
      </trkpt>
      <trkpt lat="46.176730" lon="10.879737">
        <ele>2206.808</ele>
        <time>2020-08-15T08:42:42Z</time>
      </trkpt>
      <trkpt lat="46.176948" lon="10.880857">
        <ele>2226.682</ele>
        <time>2020-08-15T08:44:26Z</time>
      </trkpt>
      <trkpt lat="46.176892" lon="10.881538">
        <ele>2237.291</ele>
        <time>2020-08-15T08:45:35Z</time>
      </trkpt>
      <trkpt lat="46.176649" lon="10.881860">
        <ele>2242.484</ele>
        <time>2020-08-15T08:46:13Z</time>
      </trkpt>
      <trkpt lat="46.176582" lon="10.882162">
        <ele>2246.222</ele>
        <time>2020-08-15T08:46:42Z</time>
      </trkpt>
      <trkpt lat="46.176313" lon="10.882379">
        <ele>2249.554</ele>
        <time>2020-08-15T08:47:37Z</time>
      </trkpt>
      <trkpt lat="46.176477" lon="10.882227">
        <ele>2248.050</ele>
        <time>2020-08-15T08:48:04Z</time>
      </trkpt>
      <trkpt lat="46.176286" lon="10.882596">
        <ele>2264.311</ele>
        <time>2020-08-15T08:49:21Z</time>
      </trkpt>
      <trkpt lat="46.176443" lon="10.883029">
        <ele>2274.489</ele>
        <time>2020-08-15T08:50:22Z</time>
      </trkpt>
      <trkpt lat="46.176436" lon="10.883354">
        <ele>2284.775</ele>
        <time>2020-08-15T08:51:13Z</time>
      </trkpt>
      <trkpt lat="46.176561" lon="10.883846">
        <ele>2292.928</ele>
        <time>2020-08-15T08:52:05Z</time>
      </trkpt>
      <trkpt lat="46.176499" lon="10.883975">
        <ele>2296.320</ele>
        <time>2020-08-15T08:52:21Z</time>
      </trkpt>
      <trkpt lat="46.176621" lon="10.884093">
        <ele>2299.608</ele>
        <time>2020-08-15T08:52:41Z</time>
      </trkpt>
      <trkpt lat="46.176671" lon="10.884373">
        <ele>2307.822</ele>
        <time>2020-08-15T08:53:44Z</time>
      </trkpt>
      <trkpt lat="46.176814" lon="10.884583">
        <ele>2314.491</ele>
        <time>2020-08-15T08:55:05Z</time>
      </trkpt>
      <trkpt lat="46.176995" lon="10.884639">
        <ele>2319.514</ele>
        <time>2020-08-15T08:55:33Z</time>
      </trkpt>
      <trkpt lat="46.177024" lon="10.884769">
        <ele>2322.282</ele>
        <time>2020-08-15T08:55:49Z</time>
      </trkpt>
      <trkpt lat="46.177078" lon="10.884770">
        <ele>2324.184</ele>
        <time>2020-08-15T08:55:58Z</time>
      </trkpt>
      <trkpt lat="46.177118" lon="10.885216">
        <ele>2335.360</ele>
        <time>2020-08-15T08:56:56Z</time>
      </trkpt>
      <trkpt lat="46.177263" lon="10.885518">
        <ele>2346.091</ele>
        <time>2020-08-15T08:57:51Z</time>
      </trkpt>
      <trkpt lat="46.177220" lon="10.885701">
        <ele>2349.559</ele>
        <time>2020-08-15T08:58:13Z</time>
      </trkpt>
      <trkpt lat="46.177286" lon="10.886269">
        <ele>2369.343</ele>
        <time>2020-08-15T09:00:04Z</time>
      </trkpt>
      <trkpt lat="46.177410" lon="10.886190">
        <ele>2372.464</ele>
        <time>2020-08-15T09:00:28Z</time>
      </trkpt>
      <trkpt lat="46.177610" lon="10.885823">
        <ele>2380.610</ele>
        <time>2020-08-15T09:01:26Z</time>
      </trkpt>
      <trkpt lat="46.177643" lon="10.885923">
        <ele>2386.108</ele>
        <time>2020-08-15T09:01:51Z</time>
      </trkpt>
      <trkpt lat="46.177543" lon="10.886390">
        <ele>2396.739</ele>
        <time>2020-08-15T09:02:51Z</time>
      </trkpt>
      <trkpt lat="46.177425" lon="10.886630">
        <ele>2402.998</ele>
        <time>2020-08-15T09:03:27Z</time>
      </trkpt>
      <trkpt lat="46.177555" lon="10.886604">
        <ele>2405.241</ele>
        <time>2020-08-15T09:04:01Z</time>
      </trkpt>
      <trkpt lat="46.177311" lon="10.887021">
        <ele>2415.319</ele>
        <time>2020-08-15T09:05:14Z</time>
      </trkpt>
      <trkpt lat="46.177216" lon="10.887550">
        <ele>2422.751</ele>
        <time>2020-08-15T09:06:00Z</time>
      </trkpt>
      <trkpt lat="46.177266" lon="10.887668">
        <ele>2426.687</ele>
        <time>2020-08-15T09:06:15Z</time>
      </trkpt>
      <trkpt lat="46.177124" lon="10.888045">
        <ele>2433.688</ele>
        <time>2020-08-15T09:07:25Z</time>
      </trkpt>
      <trkpt lat="46.177219" lon="10.888084">
        <ele>2436.696</ele>
        <time>2020-08-15T09:07:44Z</time>
      </trkpt>
      <trkpt lat="46.177302" lon="10.888516">
        <ele>2439.934</ele>
        <time>2020-08-15T09:08:04Z</time>
      </trkpt>
      <trkpt lat="46.177261" lon="10.888782">
        <ele>2443.655</ele>
        <time>2020-08-15T09:08:25Z</time>
      </trkpt>
      <trkpt lat="46.177307" lon="10.888816">
        <ele>2444.310</ele>
        <time>2020-08-15T09:08:27Z</time>
      </trkpt>
      <trkpt lat="46.177131" lon="10.889056">
        <ele>2452.008</ele>
        <time>2020-08-15T09:09:12Z</time>
      </trkpt>
      <trkpt lat="46.177157" lon="10.889247">
        <ele>2455.258</ele>
        <time>2020-08-15T09:09:33Z</time>
      </trkpt>
      <trkpt lat="46.177101" lon="10.889452">
        <ele>2459.297</ele>
        <time>2020-08-15T09:09:58Z</time>
      </trkpt>
      <trkpt lat="46.176986" lon="10.889388">
        <ele>2461.660</ele>
        <time>2020-08-15T09:10:28Z</time>
      </trkpt>
      <trkpt lat="46.176969" lon="10.889431">
        <ele>2463.688</ele>
        <time>2020-08-15T09:10:37Z</time>
      </trkpt>
      <trkpt lat="46.176708" lon="10.888820">
        <ele>2468.340</ele>
        <time>2020-08-15T09:11:40Z</time>
      </trkpt>
      <trkpt lat="46.176685" lon="10.888345">
        <ele>2466.786</ele>
        <time>2020-08-15T09:12:09Z</time>
      </trkpt>
      <trkpt lat="46.176596" lon="10.888206">
        <ele>2470.957</ele>
        <time>2020-08-15T09:12:27Z</time>
      </trkpt>
      <trkpt lat="46.176403" lon="10.888152">
        <ele>2475.065</ele>
        <time>2020-08-15T09:13:01Z</time>
      </trkpt>
      <trkpt lat="46.176389" lon="10.888284">
        <ele>2476.336</ele>
        <time>2020-08-15T09:13:11Z</time>
      </trkpt>
      <trkpt lat="46.176238" lon="10.888257">
        <ele>2480.017</ele>
        <time>2020-08-15T09:13:27Z</time>
      </trkpt>
      <trkpt lat="46.176212" lon="10.888366">
        <ele>2482.918</ele>
        <time>2020-08-15T09:13:43Z</time>
      </trkpt>
      <trkpt lat="46.175851" lon="10.888233">
        <ele>2494.708</ele>
        <time>2020-08-15T09:14:47Z</time>
      </trkpt>
      <trkpt lat="46.175882" lon="10.888550">
        <ele>2501.738</ele>
        <time>2020-08-15T09:15:36Z</time>
      </trkpt>
      <trkpt lat="46.175771" lon="10.888471">
        <ele>2506.337</ele>
        <time>2020-08-15T09:16:01Z</time>
      </trkpt>
      <trkpt lat="46.175752" lon="10.888532">
        <ele>2507.550</ele>
        <time>2020-08-15T09:16:09Z</time>
      </trkpt>
      <trkpt lat="46.175703" lon="10.888495">
        <ele>2509.638</ele>
        <time>2020-08-15T09:16:27Z</time>
      </trkpt>
      <trkpt lat="46.175606" lon="10.888647">
        <ele>2512.220</ele>
        <time>2020-08-15T09:16:47Z</time>
      </trkpt>
      <trkpt lat="46.175523" lon="10.888635">
        <ele>2514.136</ele>
        <time>2020-08-15T09:16:59Z</time>
      </trkpt>
      <trkpt lat="46.175512" lon="10.888802">
        <ele>2520.577</ele>
        <time>2020-08-15T09:17:32Z</time>
      </trkpt>
      <trkpt lat="46.175352" lon="10.888830">
        <ele>2524.915</ele>
        <time>2020-08-15T09:17:59Z</time>
      </trkpt>
      <trkpt lat="46.175509" lon="10.888988">
        <ele>2529.214</ele>
        <time>2020-08-15T09:18:23Z</time>
      </trkpt>
      <trkpt lat="46.175283" lon="10.889954">
        <ele>2542.154</ele>
        <time>2020-08-15T09:19:46Z</time>
      </trkpt>
      <trkpt lat="46.174547" lon="10.890410">
        <ele>2558.509</ele>
        <time>2020-08-15T09:21:33Z</time>
      </trkpt>
      <trkpt lat="46.174438" lon="10.890314">
        <ele>2559.108</ele>
        <time>2020-08-15T09:21:45Z</time>
      </trkpt>
      <trkpt lat="46.174290" lon="10.890294">
        <ele>2562.886</ele>
        <time>2020-08-15T09:22:03Z</time>
      </trkpt>
      <trkpt lat="46.174179" lon="10.891157">
        <ele>2573.125</ele>
        <time>2020-08-15T09:23:13Z</time>
      </trkpt>
      <trkpt lat="46.174293" lon="10.891296">
        <ele>2575.448</ele>
        <time>2020-08-15T09:23:31Z</time>
      </trkpt>
      <trkpt lat="46.174231" lon="10.891540">
        <ele>2577.376</ele>
        <time>2020-08-15T09:23:52Z</time>
      </trkpt>
      <trkpt lat="46.174067" lon="10.891788">
        <ele>2582.668</ele>
        <time>2020-08-15T09:25:17Z</time>
      </trkpt>
      <trkpt lat="46.173797" lon="10.891843">
        <ele>2582.794</ele>
        <time>2020-08-15T09:26:24Z</time>
      </trkpt>
      <trkpt lat="46.173796" lon="10.891962">
        <ele>2583.465</ele>
        <time>2020-08-15T09:26:42Z</time>
      </trkpt>
      <trkpt lat="46.173662" lon="10.892056">
        <ele>2583.963</ele>
        <time>2020-08-15T09:27:08Z</time>
      </trkpt>
      <trkpt lat="46.173608" lon="10.892014">
        <ele>2584.521</ele>
        <time>2020-08-15T09:28:11Z</time>
      </trkpt>
      <trkpt lat="46.173648" lon="10.891897">
        <ele>2584.141</ele>
        <time>2020-08-15T09:29:08Z</time>
      </trkpt>
      <trkpt lat="46.173749" lon="10.892040">
        <ele>2585.005</ele>
        <time>2020-08-15T09:30:32Z</time>
      </trkpt>
      <trkpt lat="46.173802" lon="10.892017">
        <ele>2584.908</ele>
        <time>2020-08-15T09:31:30Z</time>
      </trkpt>
      <trkpt lat="46.173777" lon="10.891940">
        <ele>2585.057</ele>
        <time>2020-08-15T09:31:46Z</time>
      </trkpt>
      <trkpt lat="46.173866" lon="10.891921">
        <ele>2585.476</ele>
        <time>2020-08-15T09:31:55Z</time>
      </trkpt>
      <trkpt lat="46.173859" lon="10.892135">
        <ele>2585.729</ele>
        <time>2020-08-15T09:33:47Z</time>
      </trkpt>
      <trkpt lat="46.173805" lon="10.892066">
        <ele>2585.927</ele>
        <time>2020-08-15T09:34:21Z</time>
      </trkpt>
      <trkpt lat="46.173522" lon="10.892046">
        <ele>2580.379</ele>
        <time>2020-08-15T10:54:37Z</time>
      </trkpt>
      <trkpt lat="46.173558" lon="10.891923">
        <ele>2579.545</ele>
        <time>2020-08-15T10:55:12Z</time>
      </trkpt>
      <trkpt lat="46.173301" lon="10.892208">
        <ele>2581.836</ele>
        <time>2020-08-15T10:56:47Z</time>
      </trkpt>
      <trkpt lat="46.173416" lon="10.892060">
        <ele>2581.124</ele>
        <time>2020-08-15T10:58:26Z</time>
      </trkpt>
      <trkpt lat="46.173493" lon="10.891770">
        <ele>2580.995</ele>
        <time>2020-08-15T10:58:54Z</time>
      </trkpt>
      <trkpt lat="46.173887" lon="10.891781">
        <ele>2580.449</ele>
        <time>2020-08-15T10:59:56Z</time>
      </trkpt>
      <trkpt lat="46.174074" lon="10.891716">
        <ele>2580.023</ele>
        <time>2020-08-15T11:00:15Z</time>
      </trkpt>
      <trkpt lat="46.174197" lon="10.891592">
        <ele>2577.808</ele>
        <time>2020-08-15T11:01:01Z</time>
      </trkpt>
      <trkpt lat="46.174282" lon="10.891344">
        <ele>2576.154</ele>
        <time>2020-08-15T11:01:44Z</time>
      </trkpt>
      <trkpt lat="46.174178" lon="10.891098">
        <ele>2574.633</ele>
        <time>2020-08-15T11:02:29Z</time>
      </trkpt>
      <trkpt lat="46.174283" lon="10.890294">
        <ele>2564.986</ele>
        <time>2020-08-15T11:03:53Z</time>
      </trkpt>
      <trkpt lat="46.174386" lon="10.890249">
        <ele>2562.884</ele>
        <time>2020-08-15T11:04:10Z</time>
      </trkpt>
      <trkpt lat="46.174558" lon="10.890359">
        <ele>2560.326</ele>
        <time>2020-08-15T11:04:32Z</time>
      </trkpt>
      <trkpt lat="46.175240" lon="10.889940">
        <ele>2546.212</ele>
        <time>2020-08-15T11:06:06Z</time>
      </trkpt>
      <trkpt lat="46.175502" lon="10.888970">
        <ele>2532.353</ele>
        <time>2020-08-15T11:07:39Z</time>
      </trkpt>
      <trkpt lat="46.175358" lon="10.888792">
        <ele>2528.861</ele>
        <time>2020-08-15T11:08:31Z</time>
      </trkpt>
      <trkpt lat="46.175508" lon="10.888758">
        <ele>2524.396</ele>
        <time>2020-08-15T11:09:21Z</time>
      </trkpt>
      <trkpt lat="46.175469" lon="10.888631">
        <ele>2520.631</ele>
        <time>2020-08-15T11:09:38Z</time>
      </trkpt>
      <trkpt lat="46.175613" lon="10.888578">
        <ele>2516.624</ele>
        <time>2020-08-15T11:09:57Z</time>
      </trkpt>
      <trkpt lat="46.175759" lon="10.888387">
        <ele>2510.508</ele>
        <time>2020-08-15T11:10:43Z</time>
      </trkpt>
      <trkpt lat="46.175896" lon="10.888482">
        <ele>2505.944</ele>
        <time>2020-08-15T11:11:03Z</time>
      </trkpt>
      <trkpt lat="46.175808" lon="10.888129">
        <ele>2499.873</ele>
        <time>2020-08-15T11:11:45Z</time>
      </trkpt>
      <trkpt lat="46.176209" lon="10.888312">
        <ele>2488.166</ele>
        <time>2020-08-15T11:12:39Z</time>
      </trkpt>
      <trkpt lat="46.176232" lon="10.888236">
        <ele>2485.744</ele>
        <time>2020-08-15T11:12:52Z</time>
      </trkpt>
      <trkpt lat="46.176334" lon="10.888272">
        <ele>2483.636</ele>
        <time>2020-08-15T11:13:06Z</time>
      </trkpt>
      <trkpt lat="46.176391" lon="10.888069">
        <ele>2480.182</ele>
        <time>2020-08-15T11:13:29Z</time>
      </trkpt>
      <trkpt lat="46.176584" lon="10.888166">
        <ele>2476.733</ele>
        <time>2020-08-15T11:13:53Z</time>
      </trkpt>
      <trkpt lat="46.176672" lon="10.888447">
        <ele>2473.231</ele>
        <time>2020-08-15T11:14:24Z</time>
      </trkpt>
      <trkpt lat="46.176664" lon="10.888708">
        <ele>2474.959</ele>
        <time>2020-08-15T11:14:42Z</time>
      </trkpt>
      <trkpt lat="46.176815" lon="10.889152">
        <ele>2473.503</ele>
        <time>2020-08-15T11:15:20Z</time>
      </trkpt>
      <trkpt lat="46.176989" lon="10.889393">
        <ele>2467.323</ele>
        <time>2020-08-15T11:16:06Z</time>
      </trkpt>
      <trkpt lat="46.177079" lon="10.889413">
        <ele>2466.108</ele>
        <time>2020-08-15T11:16:13Z</time>
      </trkpt>
      <trkpt lat="46.177132" lon="10.889328">
        <ele>2464.910</ele>
        <time>2020-08-15T11:16:21Z</time>
      </trkpt>
      <trkpt lat="46.177133" lon="10.889030">
        <ele>2457.159</ele>
        <time>2020-08-15T11:17:08Z</time>
      </trkpt>
      <trkpt lat="46.177271" lon="10.888909">
        <ele>2451.272</ele>
        <time>2020-08-15T11:17:33Z</time>
      </trkpt>
      <trkpt lat="46.177226" lon="10.888160">
        <ele>2444.590</ele>
        <time>2020-08-15T11:18:02Z</time>
      </trkpt>
      <trkpt lat="46.177133" lon="10.888055">
        <ele>2442.762</ele>
        <time>2020-08-15T11:18:13Z</time>
      </trkpt>
      <trkpt lat="46.177220" lon="10.887900">
        <ele>2440.628</ele>
        <time>2020-08-15T11:18:26Z</time>
      </trkpt>
      <trkpt lat="46.177205" lon="10.887540">
        <ele>2432.029</ele>
        <time>2020-08-15T11:19:19Z</time>
      </trkpt>
      <trkpt lat="46.177325" lon="10.886992">
        <ele>2423.327</ele>
        <time>2020-08-15T11:20:11Z</time>
      </trkpt>
      <trkpt lat="46.177545" lon="10.886591">
        <ele>2415.291</ele>
        <time>2020-08-15T11:21:12Z</time>
      </trkpt>
      <trkpt lat="46.177426" lon="10.886666">
        <ele>2412.081</ele>
        <time>2020-08-15T11:21:28Z</time>
      </trkpt>
      <trkpt lat="46.177548" lon="10.886367">
        <ele>2403.719</ele>
        <time>2020-08-15T11:22:08Z</time>
      </trkpt>
      <trkpt lat="46.177623" lon="10.885834">
        <ele>2389.908</ele>
        <time>2020-08-15T11:23:32Z</time>
      </trkpt>
      <trkpt lat="46.177353" lon="10.886217">
        <ele>2379.534</ele>
        <time>2020-08-15T11:24:41Z</time>
      </trkpt>
      <trkpt lat="46.177276" lon="10.886196">
        <ele>2377.943</ele>
        <time>2020-08-15T11:25:03Z</time>
      </trkpt>
      <trkpt lat="46.177270" lon="10.885563">
        <ele>2358.066</ele>
        <time>2020-08-15T11:26:36Z</time>
      </trkpt>
      <trkpt lat="46.177146" lon="10.885429">
        <ele>2352.364</ele>
        <time>2020-08-15T11:27:08Z</time>
      </trkpt>
      <trkpt lat="46.177080" lon="10.885205">
        <ele>2346.086</ele>
        <time>2020-08-15T11:27:40Z</time>
      </trkpt>
      <trkpt lat="46.177055" lon="10.884785">
        <ele>2334.872</ele>
        <time>2020-08-15T11:28:36Z</time>
      </trkpt>
      <trkpt lat="46.177016" lon="10.884798">
        <ele>2332.833</ele>
        <time>2020-08-15T11:28:44Z</time>
      </trkpt>
      <trkpt lat="46.176996" lon="10.884664">
        <ele>2330.021</ele>
        <time>2020-08-15T11:29:00Z</time>
      </trkpt>
      <trkpt lat="46.176782" lon="10.884580">
        <ele>2324.186</ele>
        <time>2020-08-15T11:29:36Z</time>
      </trkpt>
      <trkpt lat="46.176609" lon="10.884410">
        <ele>2318.560</ele>
        <time>2020-08-15T11:30:16Z</time>
      </trkpt>
      <trkpt lat="46.176554" lon="10.884116">
        <ele>2311.626</ele>
        <time>2020-08-15T11:30:52Z</time>
      </trkpt>
      <trkpt lat="46.176448" lon="10.884019">
        <ele>2308.708</ele>
        <time>2020-08-15T11:31:09Z</time>
      </trkpt>
      <trkpt lat="46.176498" lon="10.883843">
        <ele>2304.573</ele>
        <time>2020-08-15T11:31:26Z</time>
      </trkpt>
      <trkpt lat="46.176471" lon="10.883510">
        <ele>2299.262</ele>
        <time>2020-08-15T11:32:04Z</time>
      </trkpt>
      <trkpt lat="46.176370" lon="10.883125">
        <ele>2291.235</ele>
        <time>2020-08-15T11:32:48Z</time>
      </trkpt>
      <trkpt lat="46.176436" lon="10.882958">
        <ele>2285.253</ele>
        <time>2020-08-15T11:33:16Z</time>
      </trkpt>
      <trkpt lat="46.176231" lon="10.882527">
        <ele>2274.895</ele>
        <time>2020-08-15T11:34:15Z</time>
      </trkpt>
      <trkpt lat="46.176517" lon="10.882255">
        <ele>2261.831</ele>
        <time>2020-08-15T11:35:23Z</time>
      </trkpt>
      <trkpt lat="46.176665" lon="10.881844">
        <ele>2253.992</ele>
        <time>2020-08-15T11:36:35Z</time>
      </trkpt>
      <trkpt lat="46.176900" lon="10.881532">
        <ele>2249.290</ele>
        <time>2020-08-15T11:37:06Z</time>
      </trkpt>
      <trkpt lat="46.176931" lon="10.880882">
        <ele>2238.835</ele>
        <time>2020-08-15T11:37:58Z</time>
      </trkpt>
      <trkpt lat="46.176745" lon="10.879801">
        <ele>2219.386</ele>
        <time>2020-08-15T11:39:33Z</time>
      </trkpt>
      <trkpt lat="46.176423" lon="10.879433">
        <ele>2210.414</ele>
        <time>2020-08-15T11:40:17Z</time>
      </trkpt>
      <trkpt lat="46.176159" lon="10.878642">
        <ele>2195.608</ele>
        <time>2020-08-15T11:41:20Z</time>
      </trkpt>
      <trkpt lat="46.176097" lon="10.877761">
        <ele>2188.948</ele>
        <time>2020-08-15T11:42:15Z</time>
      </trkpt>
      <trkpt lat="46.176008" lon="10.877507">
        <ele>2187.147</ele>
        <time>2020-08-15T11:42:36Z</time>
      </trkpt>
      <trkpt lat="46.175910" lon="10.876712">
        <ele>2183.440</ele>
        <time>2020-08-15T11:43:27Z</time>
      </trkpt>
      <trkpt lat="46.175960" lon="10.876596">
        <ele>2182.318</ele>
        <time>2020-08-15T11:44:49Z</time>
      </trkpt>
      <trkpt lat="46.175968" lon="10.876695">
        <ele>2182.190</ele>
        <time>2020-08-15T11:51:16Z</time>
      </trkpt>
      <trkpt lat="46.175943" lon="10.876542">
        <ele>2180.336</ele>
        <time>2020-08-15T11:51:33Z</time>
      </trkpt>
      <trkpt lat="46.175959" lon="10.876653">
        <ele>2180.167</ele>
        <time>2020-08-15T11:51:43Z</time>
      </trkpt>
      <trkpt lat="46.176276" lon="10.876744">
        <ele>2180.425</ele>
        <time>2020-08-15T11:52:10Z</time>
      </trkpt>
      <trkpt lat="46.177167" lon="10.876774">
        <ele>2186.248</ele>
        <time>2020-08-15T11:53:28Z</time>
      </trkpt>
      <trkpt lat="46.177481" lon="10.876569">
        <ele>2185.561</ele>
        <time>2020-08-15T11:53:56Z</time>
      </trkpt>
      <trkpt lat="46.177763" lon="10.875231">
        <ele>2182.417</ele>
        <time>2020-08-15T11:55:33Z</time>
      </trkpt>
      <trkpt lat="46.178021" lon="10.874717">
        <ele>2176.208</ele>
        <time>2020-08-15T11:56:25Z</time>
      </trkpt>
      <trkpt lat="46.178186" lon="10.874190">
        <ele>2175.049</ele>
        <time>2020-08-15T11:57:03Z</time>
      </trkpt>
      <trkpt lat="46.178165" lon="10.873477">
        <ele>2165.928</ele>
        <time>2020-08-15T11:58:18Z</time>
      </trkpt>
      <trkpt lat="46.178234" lon="10.873232">
        <ele>2163.181</ele>
        <time>2020-08-15T11:58:34Z</time>
      </trkpt>
      <trkpt lat="46.178737" lon="10.872373">
        <ele>2149.139</ele>
        <time>2020-08-15T12:00:15Z</time>
      </trkpt>
      <trkpt lat="46.178936" lon="10.872212">
        <ele>2144.411</ele>
        <time>2020-08-15T12:00:42Z</time>
      </trkpt>
      <trkpt lat="46.179407" lon="10.871174">
        <ele>2122.837</ele>
        <time>2020-08-15T12:02:39Z</time>
      </trkpt>
      <trkpt lat="46.179577" lon="10.871035">
        <ele>2117.438</ele>
        <time>2020-08-15T12:03:14Z</time>
      </trkpt>
      <trkpt lat="46.179776" lon="10.871009">
        <ele>2117.026</ele>
        <time>2020-08-15T12:03:32Z</time>
      </trkpt>
      <trkpt lat="46.179833" lon="10.870843">
        <ele>2119.214</ele>
        <time>2020-08-15T12:03:45Z</time>
      </trkpt>
      <trkpt lat="46.179986" lon="10.870677">
        <ele>2120.854</ele>
        <time>2020-08-15T12:04:04Z</time>
      </trkpt>
      <trkpt lat="46.180352" lon="10.870692">
        <ele>2118.209</ele>
        <time>2020-08-15T12:04:38Z</time>
      </trkpt>
      <trkpt lat="46.180399" lon="10.870587">
        <ele>2118.308</ele>
        <time>2020-08-15T12:04:46Z</time>
      </trkpt>
      <trkpt lat="46.180479" lon="10.870601">
        <ele>2118.476</ele>
        <time>2020-08-15T12:04:47Z</time>
      </trkpt>
      <trkpt lat="46.180553" lon="10.870380">
        <ele>2118.485</ele>
        <time>2020-08-15T12:05:00Z</time>
      </trkpt>
      <trkpt lat="46.180846" lon="10.870311">
        <ele>2118.788</ele>
        <time>2020-08-15T12:05:36Z</time>
      </trkpt>
      <trkpt lat="46.180950" lon="10.870198">
        <ele>2116.896</ele>
        <time>2020-08-15T12:05:46Z</time>
      </trkpt>
      <trkpt lat="46.181003" lon="10.870229">
        <ele>2117.118</ele>
        <time>2020-08-15T12:05:47Z</time>
      </trkpt>
      <trkpt lat="46.181072" lon="10.869908">
        <ele>2113.754</ele>
        <time>2020-08-15T12:06:12Z</time>
      </trkpt>
      <trkpt lat="46.181160" lon="10.869902">
        <ele>2112.685</ele>
        <time>2020-08-15T12:06:16Z</time>
      </trkpt>
      <trkpt lat="46.181258" lon="10.869775">
        <ele>2112.613</ele>
        <time>2020-08-15T12:06:32Z</time>
      </trkpt>
      <trkpt lat="46.181341" lon="10.869380">
        <ele>2119.159</ele>
        <time>2020-08-15T12:07:14Z</time>
      </trkpt>
      <trkpt lat="46.181601" lon="10.869292">
        <ele>2123.503</ele>
        <time>2020-08-15T12:07:58Z</time>
      </trkpt>
      <trkpt lat="46.181791" lon="10.869003">
        <ele>2122.723</ele>
        <time>2020-08-15T12:08:23Z</time>
      </trkpt>
      <trkpt lat="46.182499" lon="10.869228">
        <ele>2124.608</ele>
        <time>2020-08-15T12:09:53Z</time>
      </trkpt>
      <trkpt lat="46.182662" lon="10.868922">
        <ele>2129.170</ele>
        <time>2020-08-15T12:10:46Z</time>
      </trkpt>
      <trkpt lat="46.183178" lon="10.868935">
        <ele>2124.929</ele>
        <time>2020-08-15T12:11:28Z</time>
      </trkpt>
      <trkpt lat="46.183864" lon="10.868763">
        <ele>2126.552</ele>
        <time>2020-08-15T12:12:30Z</time>
      </trkpt>
      <trkpt lat="46.183983" lon="10.868571">
        <ele>2126.140</ele>
        <time>2020-08-15T12:12:52Z</time>
      </trkpt>
      <trkpt lat="46.184389" lon="10.868261">
        <ele>2114.142</ele>
        <time>2020-08-15T12:13:58Z</time>
      </trkpt>
      <trkpt lat="46.184898" lon="10.867730">
        <ele>2103.318</ele>
        <time>2020-08-15T12:15:02Z</time>
      </trkpt>
      <trkpt lat="46.185056" lon="10.867679">
        <ele>2099.739</ele>
        <time>2020-08-15T12:15:33Z</time>
      </trkpt>
      <trkpt lat="46.185353" lon="10.867147">
        <ele>2087.457</ele>
        <time>2020-08-15T12:17:16Z</time>
      </trkpt>
      <trkpt lat="46.185584" lon="10.866905">
        <ele>2080.815</ele>
        <time>2020-08-15T12:17:49Z</time>
      </trkpt>
      <trkpt lat="46.186007" lon="10.866875">
        <ele>2078.265</ele>
        <time>2020-08-15T12:18:30Z</time>
      </trkpt>
      <trkpt lat="46.187068" lon="10.866495">
        <ele>2053.811</ele>
        <time>2020-08-15T12:20:48Z</time>
      </trkpt>
      <trkpt lat="46.187559" lon="10.865805">
        <ele>2057.508</ele>
        <time>2020-08-15T12:21:46Z</time>
      </trkpt>
      <trkpt lat="46.187458" lon="10.865540">
        <ele>2060.336</ele>
        <time>2020-08-15T12:22:10Z</time>
      </trkpt>
      <trkpt lat="46.187517" lon="10.865286">
        <ele>2061.045</ele>
        <time>2020-08-15T12:22:26Z</time>
      </trkpt>
      <trkpt lat="46.187631" lon="10.865115">
        <ele>2065.738</ele>
        <time>2020-08-15T12:22:44Z</time>
      </trkpt>
      <trkpt lat="46.187990" lon="10.865231">
        <ele>2068.656</ele>
        <time>2020-08-15T12:23:24Z</time>
      </trkpt>
      <trkpt lat="46.188157" lon="10.865109">
        <ele>2071.468</ele>
        <time>2020-08-15T12:23:43Z</time>
      </trkpt>
      <trkpt lat="46.188392" lon="10.865120">
        <ele>2075.714</ele>
        <time>2020-08-15T12:24:07Z</time>
      </trkpt>
      <trkpt lat="46.188433" lon="10.865007">
        <ele>2076.125</ele>
        <time>2020-08-15T12:24:18Z</time>
      </trkpt>
      <trkpt lat="46.188684" lon="10.865065">
        <ele>2071.883</ele>
        <time>2020-08-15T12:24:50Z</time>
      </trkpt>
      <trkpt lat="46.189342" lon="10.865589">
        <ele>2063.651</ele>
        <time>2020-08-15T12:25:53Z</time>
      </trkpt>
      <trkpt lat="46.189804" lon="10.866162">
        <ele>2060.101</ele>
        <time>2020-08-15T12:26:44Z</time>
      </trkpt>
      <trkpt lat="46.190208" lon="10.866438">
        <ele>2056.411</ele>
        <time>2020-08-15T12:27:21Z</time>
      </trkpt>
      <trkpt lat="46.190605" lon="10.866361">
        <ele>2050.908</ele>
        <time>2020-08-15T12:27:53Z</time>
      </trkpt>
      <trkpt lat="46.190679" lon="10.866425">
        <ele>2050.370</ele>
        <time>2020-08-15T12:27:59Z</time>
      </trkpt>
      <trkpt lat="46.190881" lon="10.866375">
        <ele>2051.769</ele>
        <time>2020-08-15T12:28:16Z</time>
      </trkpt>
      <trkpt lat="46.191470" lon="10.866490">
        <ele>2058.042</ele>
        <time>2020-08-15T12:29:10Z</time>
      </trkpt>
      <trkpt lat="46.191626" lon="10.866445">
        <ele>2057.880</ele>
        <time>2020-08-15T12:29:23Z</time>
      </trkpt>
      <trkpt lat="46.192214" lon="10.865831">
        <ele>2051.072</ele>
        <time>2020-08-15T12:30:26Z</time>
      </trkpt>
      <trkpt lat="46.192312" lon="10.865271">
        <ele>2049.828</ele>
        <time>2020-08-15T12:31:04Z</time>
      </trkpt>
      <trkpt lat="46.192393" lon="10.865170">
        <ele>2048.969</ele>
        <time>2020-08-15T12:31:13Z</time>
      </trkpt>
      <trkpt lat="46.192635" lon="10.865027">
        <ele>2045.767</ele>
        <time>2020-08-15T12:31:36Z</time>
      </trkpt>
      <trkpt lat="46.192745" lon="10.865067">
        <ele>2043.513</ele>
        <time>2020-08-15T12:31:51Z</time>
      </trkpt>
      <trkpt lat="46.193227" lon="10.864688">
        <ele>2033.343</ele>
        <time>2020-08-15T12:32:45Z</time>
      </trkpt>
      <trkpt lat="46.193409" lon="10.864416">
        <ele>2029.107</ele>
        <time>2020-08-15T12:33:09Z</time>
      </trkpt>
      <trkpt lat="46.194260" lon="10.863930">
        <ele>2011.208</ele>
        <time>2020-08-15T12:34:45Z</time>
      </trkpt>
      <trkpt lat="46.194666" lon="10.863568">
        <ele>2004.326</ele>
        <time>2020-08-15T12:35:25Z</time>
      </trkpt>
      <trkpt lat="46.195736" lon="10.862073">
        <ele>1977.685</ele>
        <time>2020-08-15T12:37:31Z</time>
      </trkpt>
      <trkpt lat="46.196562" lon="10.861482">
        <ele>1961.478</ele>
        <time>2020-08-15T12:38:52Z</time>
      </trkpt>
      <trkpt lat="46.196860" lon="10.861090">
        <ele>1950.936</ele>
        <time>2020-08-15T12:39:37Z</time>
      </trkpt>
      <trkpt lat="46.197192" lon="10.860900">
        <ele>1946.488</ele>
        <time>2020-08-15T12:40:06Z</time>
      </trkpt>
      <trkpt lat="46.197631" lon="10.860496">
        <ele>1935.444</ele>
        <time>2020-08-15T12:40:58Z</time>
      </trkpt>
      <trkpt lat="46.197869" lon="10.860361">
        <ele>1931.325</ele>
        <time>2020-08-15T12:41:22Z</time>
      </trkpt>
      <trkpt lat="46.198395" lon="10.859532">
        <ele>1914.273</ele>
        <time>2020-08-15T12:42:48Z</time>
      </trkpt>
      <trkpt lat="46.198654" lon="10.858832">
        <ele>1896.364</ele>
        <time>2020-08-15T12:44:13Z</time>
      </trkpt>
      <trkpt lat="46.198798" lon="10.858715">
        <ele>1890.006</ele>
        <time>2020-08-15T12:44:37Z</time>
      </trkpt>
      <trkpt lat="46.198965" lon="10.858771">
        <ele>1884.916</ele>
        <time>2020-08-15T12:45:04Z</time>
      </trkpt>
      <trkpt lat="46.199072" lon="10.858578">
        <ele>1878.508</ele>
        <time>2020-08-15T12:45:31Z</time>
      </trkpt>
      <trkpt lat="46.199206" lon="10.858606">
        <ele>1874.031</ele>
        <time>2020-08-15T12:45:53Z</time>
      </trkpt>
      <trkpt lat="46.199547" lon="10.858815">
        <ele>1865.790</ele>
        <time>2020-08-15T12:46:33Z</time>
      </trkpt>
      <trkpt lat="46.199701" lon="10.859058">
        <ele>1856.223</ele>
        <time>2020-08-15T12:47:18Z</time>
      </trkpt>
      <trkpt lat="46.200059" lon="10.858154">
        <ele>1837.361</ele>
        <time>2020-08-15T12:48:49Z</time>
      </trkpt>
      <trkpt lat="46.200295" lon="10.857833">
        <ele>1827.523</ele>
        <time>2020-08-15T12:49:26Z</time>
      </trkpt>
      <trkpt lat="46.200409" lon="10.858144">
        <ele>1819.069</ele>
        <time>2020-08-15T12:50:06Z</time>
      </trkpt>
      <trkpt lat="46.200406" lon="10.859395">
        <ele>1806.880</ele>
        <time>2020-08-15T12:51:26Z</time>
      </trkpt>
      <trkpt lat="46.200516" lon="10.860330">
        <ele>1794.068</ele>
        <time>2020-08-15T12:52:28Z</time>
      </trkpt>
      <trkpt lat="46.200599" lon="10.860525">
        <ele>1789.034</ele>
        <time>2020-08-15T12:52:45Z</time>
      </trkpt>
      <trkpt lat="46.200683" lon="10.860405">
        <ele>1787.755</ele>
        <time>2020-08-15T12:52:54Z</time>
      </trkpt>
      <trkpt lat="46.200766" lon="10.860045">
        <ele>1778.010</ele>
        <time>2020-08-15T12:53:34Z</time>
      </trkpt>
      <trkpt lat="46.200984" lon="10.860544">
        <ele>1769.408</ele>
        <time>2020-08-15T12:54:08Z</time>
      </trkpt>
      <trkpt lat="46.201243" lon="10.860830">
        <ele>1758.718</ele>
        <time>2020-08-15T12:54:46Z</time>
      </trkpt>
      <trkpt lat="46.201355" lon="10.860572">
        <ele>1755.297</ele>
        <time>2020-08-15T12:55:00Z</time>
      </trkpt>
      <trkpt lat="46.201270" lon="10.859615">
        <ele>1736.290</ele>
        <time>2020-08-15T12:56:22Z</time>
      </trkpt>
      <trkpt lat="46.201502" lon="10.859079">
        <ele>1730.728</ele>
        <time>2020-08-15T12:56:43Z</time>
      </trkpt>
      <trkpt lat="46.201551" lon="10.858741">
        <ele>1725.460</ele>
        <time>2020-08-15T12:57:08Z</time>
      </trkpt>
      <trkpt lat="46.201992" lon="10.858091">
        <ele>1720.446</ele>
        <time>2020-08-15T12:57:37Z</time>
      </trkpt>
      <trkpt lat="46.201928" lon="10.857928">
        <ele>1716.937</ele>
        <time>2020-08-15T12:57:54Z</time>
      </trkpt>
      <trkpt lat="46.201960" lon="10.857728">
        <ele>1711.545</ele>
        <time>2020-08-15T12:58:12Z</time>
      </trkpt>
      <trkpt lat="46.201821" lon="10.857651">
        <ele>1706.167</ele>
        <time>2020-08-15T12:58:33Z</time>
      </trkpt>
      <trkpt lat="46.201819" lon="10.857531">
        <ele>1703.881</ele>
        <time>2020-08-15T12:58:47Z</time>
      </trkpt>
      <trkpt lat="46.202038" lon="10.857073">
        <ele>1691.819</ele>
        <time>2020-08-15T12:59:36Z</time>
      </trkpt>
      <trkpt lat="46.202241" lon="10.856966">
        <ele>1686.808</ele>
        <time>2020-08-15T12:59:54Z</time>
      </trkpt>
      <trkpt lat="46.202333" lon="10.857460">
        <ele>1682.561</ele>
        <time>2020-08-15T13:00:15Z</time>
      </trkpt>
      <trkpt lat="46.202681" lon="10.857131">
        <ele>1665.250</ele>
        <time>2020-08-15T13:01:18Z</time>
      </trkpt>
      <trkpt lat="46.202906" lon="10.856742">
        <ele>1662.463</ele>
        <time>2020-08-15T13:01:36Z</time>
      </trkpt>
      <trkpt lat="46.203031" lon="10.856248">
        <ele>1653.661</ele>
        <time>2020-08-15T13:02:20Z</time>
      </trkpt>
      <trkpt lat="46.202959" lon="10.856173">
        <ele>1649.663</ele>
        <time>2020-08-15T13:02:39Z</time>
      </trkpt>
      <trkpt lat="46.202945" lon="10.855737">
        <ele>1640.579</ele>
        <time>2020-08-15T13:03:15Z</time>
      </trkpt>
      <trkpt lat="46.203091" lon="10.855574">
        <ele>1635.970</ele>
        <time>2020-08-15T13:03:36Z</time>
      </trkpt>
      <trkpt lat="46.203109" lon="10.855275">
        <ele>1628.368</ele>
        <time>2020-08-15T13:04:08Z</time>
      </trkpt>
      <trkpt lat="46.203183" lon="10.855112">
        <ele>1626.898</ele>
        <time>2020-08-15T13:04:21Z</time>
      </trkpt>
      <trkpt lat="46.203556" lon="10.854887">
        <ele>1615.415</ele>
        <time>2020-08-15T13:05:12Z</time>
      </trkpt>
      <trkpt lat="46.203538" lon="10.854764">
        <ele>1612.726</ele>
        <time>2020-08-15T13:05:23Z</time>
      </trkpt>
      <trkpt lat="46.203736" lon="10.854010">
        <ele>1597.308</ele>
        <time>2020-08-15T13:06:26Z</time>
      </trkpt>
      <trkpt lat="46.204149" lon="10.853040">
        <ele>1581.144</ele>
        <time>2020-08-15T13:07:33Z</time>
      </trkpt>
      <trkpt lat="46.204091" lon="10.852790">
        <ele>1574.563</ele>
        <time>2020-08-15T13:08:01Z</time>
      </trkpt>
      <trkpt lat="46.204145" lon="10.852652">
        <ele>1572.626</ele>
        <time>2020-08-15T13:08:12Z</time>
      </trkpt>
      <trkpt lat="46.204579" lon="10.852296">
        <ele>1564.694</ele>
        <time>2020-08-15T13:08:49Z</time>
      </trkpt>
      <trkpt lat="46.205048" lon="10.852237">
        <ele>1557.086</ele>
        <time>2020-08-15T13:09:27Z</time>
      </trkpt>
      <trkpt lat="46.205366" lon="10.852112">
        <ele>1550.952</ele>
        <time>2020-08-15T13:10:07Z</time>
      </trkpt>
      <trkpt lat="46.205557" lon="10.852345">
        <ele>1548.693</ele>
        <time>2020-08-15T13:10:24Z</time>
      </trkpt>
      <trkpt lat="46.205637" lon="10.852337">
        <ele>1548.181</ele>
        <time>2020-08-15T13:10:36Z</time>
      </trkpt>
      <trkpt lat="46.205709" lon="10.852166">
        <ele>1550.375</ele>
        <time>2020-08-15T13:10:59Z</time>
      </trkpt>
      <trkpt lat="46.205813" lon="10.852118">
        <ele>1554.728</ele>
        <time>2020-08-15T13:11:18Z</time>
      </trkpt>
      <trkpt lat="46.206081" lon="10.852118">
        <ele>1556.520</ele>
        <time>2020-08-15T13:11:49Z</time>
      </trkpt>
      <trkpt lat="46.206114" lon="10.852202">
        <ele>1556.108</ele>
        <time>2020-08-15T13:12:07Z</time>
      </trkpt>
      <trkpt lat="46.206123" lon="10.852145">
        <ele>1557.362</ele>
        <time>2020-08-15T13:12:39Z</time>
      </trkpt>
    </trkseg>
  </trk></gpx>