<?xml version="1.0" encoding="UTF-8"?>
<gpx creator="Wikiloc - https://www.wikiloc.com" version="1.1" xmlns="http://www.topografix.com/GPX/1/1" xmlns:xsi="http://www.w3.org/2001/XMLSchema-instance" xsi:schemaLocation="http://www.topografix.com/GPX/1/1 http://www.topografix.com/GPX/1/1/gpx.xsd">
  <metadata>
    <name>Wikiloc - La rotta dei due mari - Tappa 1/6 - Polignano a Mare - Caste...</name>
    <link href="https://www.wikiloc.com/hiking-trails/rotta-dei-due-mari-tappa-1-6-polignano-a-mare-castellana-grotte-235882054">
      <text>La rotta dei due mari - Tappa 1/6 - Polignano a Mare - Caste... on Wikiloc</text>
    </link>
    <time>2025-10-13T11:23:10.512Z</time>
  </metadata>
  <trk>
    <name>La rotta dei due mari - Tappa 1/6 - Polignano a Mare - Caste... - Wikiloc</name>
    <cmt></cmt>
    <desc></desc>
    <trkseg>
      <trkpt lat="40.993218" lon="17.219043">
        <ele>21.723</ele>
        <time>2025-10-13T06:11:59.496Z</time>
      </trkpt>
      <trkpt lat="40.994443" lon="17.220055">
        <ele>26.283</ele>
        <time>2025-10-13T06:16:18.517Z</time>
      </trkpt>
      <trkpt lat="40.994975" lon="17.219586">
        <ele>23.811</ele>
        <time>2025-10-13T06:17:22.516Z</time>
      </trkpt>
      <trkpt lat="40.995408" lon="17.218744">
        <ele>22.809</ele>
        <time>2025-10-13T06:18:30.516Z</time>
      </trkpt>
      <trkpt lat="40.995713" lon="17.217700">
        <ele>22.134</ele>
        <time>2025-10-13T06:19:43.516Z</time>
      </trkpt>
      <trkpt lat="40.996063" lon="17.217299">
        <ele>22.465</ele>
        <time>2025-10-13T06:20:31.517Z</time>
      </trkpt>
      <trkpt lat="40.996532" lon="17.216948">
        <ele>24.497</ele>
        <time>2025-10-13T06:21:15.516Z</time>
      </trkpt>
      <trkpt lat="40.996838" lon="17.217563">
        <ele>22.530</ele>
        <time>2025-10-13T06:21:59.517Z</time>
      </trkpt>
      <trkpt lat="40.997314" lon="17.217091">
        <ele>24.450</ele>
        <time>2025-10-13T06:23:10.517Z</time>
      </trkpt>
      <trkpt lat="40.996947" lon="17.216644">
        <ele>23.114</ele>
        <time>2025-10-13T06:26:12.517Z</time>
      </trkpt>
      <trkpt lat="40.996641" lon="17.216642">
        <ele>24.842</ele>
        <time>2025-10-13T06:26:37.517Z</time>
      </trkpt>
      <trkpt lat="40.995676" lon="17.217581">
        <ele>23.087</ele>
        <time>2025-10-13T06:28:13.518Z</time>
      </trkpt>
      <trkpt lat="40.995489" lon="17.218291">
        <ele>21.386</ele>
        <time>2025-10-13T06:28:58.517Z</time>
      </trkpt>
      <trkpt lat="40.995387" lon="17.218265">
        <ele>20.412</ele>
        <time>2025-10-13T06:29:08.517Z</time>
      </trkpt>
      <trkpt lat="40.995332" lon="17.217918">
        <ele>17.832</ele>
        <time>2025-10-13T06:29:49.517Z</time>
      </trkpt>
      <trkpt lat="40.995441" lon="17.217703">
        <ele>16.605</ele>
        <time>2025-10-13T06:30:07.517Z</time>
      </trkpt>
      <trkpt lat="40.995614" lon="17.217822">
        <ele>16.809</ele>
        <time>2025-10-13T06:30:31.519Z</time>
      </trkpt>
      <trkpt lat="40.995690" lon="17.218096">
        <ele>10.023</ele>
        <time>2025-10-13T06:31:00.519Z</time>
      </trkpt>
      <trkpt lat="40.996271" lon="17.217918">
        <ele>3.224</ele>
        <time>2025-10-13T06:31:59.518Z</time>
      </trkpt>
      <trkpt lat="40.996419" lon="17.218166">
        <ele>1.966</ele>
        <time>2025-10-13T06:32:31.519Z</time>
      </trkpt>
      <trkpt lat="40.996155" lon="17.217996">
        <ele>3.289</ele>
        <time>2025-10-13T06:34:33.518Z</time>
      </trkpt>
      <trkpt lat="40.995704" lon="17.218016">
        <ele>8.269</ele>
        <time>2025-10-13T06:35:12.518Z</time>
      </trkpt>
      <trkpt lat="40.995515" lon="17.217672">
        <ele>20.393</ele>
        <time>2025-10-13T06:35:48.518Z</time>
      </trkpt>
      <trkpt lat="40.995174" lon="17.217595">
        <ele>17.431</ele>
        <time>2025-10-13T06:36:43.518Z</time>
      </trkpt>
      <trkpt lat="40.994980" lon="17.216444">
        <ele>20.016</ele>
        <time>2025-10-13T06:39:28.518Z</time>
      </trkpt>
      <trkpt lat="40.995078" lon="17.216152">
        <ele>23.075</ele>
        <time>2025-10-13T06:40:05.518Z</time>
      </trkpt>
      <trkpt lat="40.994797" lon="17.215805">
        <ele>27.467</ele>
        <time>2025-10-13T06:42:50.519Z</time>
      </trkpt>
      <trkpt lat="40.994547" lon="17.215739">
        <ele>30.981</ele>
        <time>2025-10-13T06:43:20.519Z</time>
      </trkpt>
      <trkpt lat="40.994277" lon="17.215864">
        <ele>32.419</ele>
        <time>2025-10-13T06:43:55.519Z</time>
      </trkpt>
      <trkpt lat="40.994184" lon="17.215740">
        <ele>31.309</ele>
        <time>2025-10-13T06:44:12.519Z</time>
      </trkpt>
      <trkpt lat="40.994068" lon="17.215842">
        <ele>30.638</ele>
        <time>2025-10-13T06:44:28.520Z</time>
      </trkpt>
      <trkpt lat="40.993380" lon="17.215439">
        <ele>31.289</ele>
        <time>2025-10-13T06:45:24.519Z</time>
      </trkpt>
      <trkpt lat="40.992958" lon="17.214943">
        <ele>31.051</ele>
        <time>2025-10-13T06:46:27.519Z</time>
      </trkpt>
      <trkpt lat="40.992620" lon="17.213890">
        <ele>37.084</ele>
        <time>2025-10-13T06:47:41.520Z</time>
      </trkpt>
      <trkpt lat="40.993196" lon="17.212815">
        <ele>38.084</ele>
        <time>2025-10-13T06:49:12.520Z</time>
      </trkpt>
      <trkpt lat="40.993361" lon="17.212692">
        <ele>37.938</ele>
        <time>2025-10-13T06:49:32.519Z</time>
      </trkpt>
      <trkpt lat="40.993834" lon="17.211609">
        <ele>38.776</ele>
        <time>2025-10-13T06:50:49.520Z</time>
      </trkpt>
      <trkpt lat="40.993683" lon="17.211415">
        <ele>36.521</ele>
        <time>2025-10-13T06:51:13.520Z</time>
      </trkpt>
      <trkpt lat="40.993902" lon="17.211084">
        <ele>43.770</ele>
        <time>2025-10-13T06:51:41.520Z</time>
      </trkpt>
      <trkpt lat="40.993573" lon="17.210803">
        <ele>41.513</ele>
        <time>2025-10-13T06:52:15.521Z</time>
      </trkpt>
      <trkpt lat="40.993596" lon="17.210420">
        <ele>40.743</ele>
        <time>2025-10-13T06:52:42.521Z</time>
      </trkpt>
      <trkpt lat="40.993125" lon="17.209767">
        <ele>43.507</ele>
        <time>2025-10-13T06:54:07.520Z</time>
      </trkpt>
      <trkpt lat="40.991701" lon="17.208678">
        <ele>52.509</ele>
        <time>2025-10-13T06:56:15.520Z</time>
      </trkpt>
      <trkpt lat="40.991278" lon="17.208174">
        <ele>56.853</ele>
        <time>2025-10-13T06:57:01.521Z</time>
      </trkpt>
      <trkpt lat="40.990894" lon="17.207370">
        <ele>62.354</ele>
        <time>2025-10-13T06:57:55.520Z</time>
      </trkpt>
      <trkpt lat="40.990584" lon="17.206037">
        <ele>61.746</ele>
        <time>2025-10-13T06:59:17.521Z</time>
      </trkpt>
      <trkpt lat="40.989989" lon="17.205851">
        <ele>59.069</ele>
        <time>2025-10-13T07:00:07.522Z</time>
      </trkpt>
      <trkpt lat="40.989624" lon="17.205935">
        <ele>58.919</ele>
        <time>2025-10-13T07:01:21.521Z</time>
      </trkpt>
      <trkpt lat="40.989499" lon="17.205820">
        <ele>58.733</ele>
        <time>2025-10-13T07:01:40.522Z</time>
      </trkpt>
      <trkpt lat="40.989181" lon="17.204976">
        <ele>61.021</ele>
        <time>2025-10-13T07:02:39.522Z</time>
      </trkpt>
      <trkpt lat="40.988726" lon="17.204350">
        <ele>63.536</ele>
        <time>2025-10-13T07:03:31.521Z</time>
      </trkpt>
      <trkpt lat="40.988188" lon="17.202647">
        <ele>66.035</ele>
        <time>2025-10-13T07:05:27.522Z</time>
      </trkpt>
      <trkpt lat="40.988073" lon="17.202650">
        <ele>66.491</ele>
        <time>2025-10-13T07:05:42.521Z</time>
      </trkpt>
      <trkpt lat="40.988114" lon="17.202498">
        <ele>66.681</ele>
        <time>2025-10-13T07:06:05.522Z</time>
      </trkpt>
      <trkpt lat="40.987466" lon="17.201223">
        <ele>71.319</ele>
        <time>2025-10-13T07:07:42.521Z</time>
      </trkpt>
      <trkpt lat="40.986938" lon="17.200999">
        <ele>73.009</ele>
        <time>2025-10-13T07:08:30.521Z</time>
      </trkpt>
      <trkpt lat="40.986351" lon="17.200541">
        <ele>78.271</ele>
        <time>2025-10-13T07:09:21.521Z</time>
      </trkpt>
      <trkpt lat="40.986062" lon="17.200032">
        <ele>79.592</ele>
        <time>2025-10-13T07:09:57.521Z</time>
      </trkpt>
      <trkpt lat="40.985199" lon="17.199265">
        <ele>82.464</ele>
        <time>2025-10-13T07:11:12.521Z</time>
      </trkpt>
      <trkpt lat="40.983682" lon="17.198509">
        <ele>87.937</ele>
        <time>2025-10-13T07:13:18.521Z</time>
      </trkpt>
      <trkpt lat="40.982890" lon="17.196655">
        <ele>91.427</ele>
        <time>2025-10-13T07:15:24.522Z</time>
      </trkpt>
      <trkpt lat="40.982736" lon="17.193521">
        <ele>95.021</ele>
        <time>2025-10-13T07:18:56.523Z</time>
      </trkpt>
      <trkpt lat="40.982141" lon="17.192985">
        <ele>93.859</ele>
        <time>2025-10-13T07:19:52.522Z</time>
      </trkpt>
      <trkpt lat="40.981047" lon="17.192627">
        <ele>97.594</ele>
        <time>2025-10-13T07:21:20.523Z</time>
      </trkpt>
      <trkpt lat="40.979842" lon="17.191124">
        <ele>107.943</ele>
        <time>2025-10-13T07:23:33.523Z</time>
      </trkpt>
      <trkpt lat="40.979002" lon="17.188793">
        <ele>128.661</ele>
        <time>2025-10-13T07:27:30.522Z</time>
      </trkpt>
      <trkpt lat="40.978762" lon="17.188580">
        <ele>130.621</ele>
        <time>2025-10-13T07:27:54.523Z</time>
      </trkpt>
      <trkpt lat="40.978102" lon="17.188329">
        <ele>135.513</ele>
        <time>2025-10-13T07:28:49.522Z</time>
      </trkpt>
      <trkpt lat="40.977323" lon="17.187415">
        <ele>135.009</ele>
        <time>2025-10-13T07:30:21.523Z</time>
      </trkpt>
      <trkpt lat="40.976685" lon="17.187031">
        <ele>137.658</ele>
        <time>2025-10-13T07:31:13.523Z</time>
      </trkpt>
      <trkpt lat="40.975924" lon="17.186162">
        <ele>143.439</ele>
        <time>2025-10-13T07:32:32.523Z</time>
      </trkpt>
      <trkpt lat="40.975225" lon="17.185985">
        <ele>145.461</ele>
        <time>2025-10-13T07:33:27.524Z</time>
      </trkpt>
      <trkpt lat="40.974816" lon="17.185571">
        <ele>145.454</ele>
        <time>2025-10-13T07:34:07.524Z</time>
      </trkpt>
      <trkpt lat="40.973711" lon="17.185165">
        <ele>147.264</ele>
        <time>2025-10-13T07:35:35.523Z</time>
      </trkpt>
      <trkpt lat="40.973635" lon="17.185030">
        <ele>148.648</ele>
        <time>2025-10-13T07:36:59.523Z</time>
      </trkpt>
      <trkpt lat="40.974044" lon="17.183879">
        <ele>147.026</ele>
        <time>2025-10-13T07:38:17.523Z</time>
      </trkpt>
      <trkpt lat="40.973815" lon="17.183359">
        <ele>148.911</ele>
        <time>2025-10-13T07:38:53.524Z</time>
      </trkpt>
      <trkpt lat="40.973663" lon="17.183164">
        <ele>149.380</ele>
        <time>2025-10-13T07:39:09.523Z</time>
      </trkpt>
      <trkpt lat="40.972654" lon="17.182570">
        <ele>151.719</ele>
        <time>2025-10-13T07:40:37.523Z</time>
      </trkpt>
      <trkpt lat="40.972353" lon="17.182002">
        <ele>153.309</ele>
        <time>2025-10-13T07:41:21.523Z</time>
      </trkpt>
      <trkpt lat="40.970642" lon="17.180700">
        <ele>157.919</ele>
        <time>2025-10-13T07:44:01.523Z</time>
      </trkpt>
      <trkpt lat="40.970290" lon="17.180633">
        <ele>158.009</ele>
        <time>2025-10-13T07:44:29.523Z</time>
      </trkpt>
      <trkpt lat="40.968217" lon="17.180754">
        <ele>160.283</ele>
        <time>2025-10-13T07:47:15.524Z</time>
      </trkpt>
      <trkpt lat="40.967619" lon="17.180652">
        <ele>164.774</ele>
        <time>2025-10-13T07:48:02.523Z</time>
      </trkpt>
      <trkpt lat="40.966947" lon="17.180342">
        <ele>166.536</ele>
        <time>2025-10-13T07:49:16.523Z</time>
      </trkpt>
      <trkpt lat="40.966236" lon="17.179793">
        <ele>167.159</ele>
        <time>2025-10-13T07:50:20.524Z</time>
      </trkpt>
      <trkpt lat="40.965639" lon="17.179577">
        <ele>169.269</ele>
        <time>2025-10-13T07:51:12.524Z</time>
      </trkpt>
      <trkpt lat="40.965347" lon="17.179308">
        <ele>170.023</ele>
        <time>2025-10-13T07:52:51.524Z</time>
      </trkpt>
      <trkpt lat="40.965141" lon="17.178803">
        <ele>171.011</ele>
        <time>2025-10-13T07:53:24.524Z</time>
      </trkpt>
      <trkpt lat="40.963963" lon="17.177916">
        <ele>175.226</ele>
        <time>2025-10-13T07:55:12.523Z</time>
      </trkpt>
      <trkpt lat="40.963402" lon="17.177942">
        <ele>178.255</ele>
        <time>2025-10-13T07:56:03.524Z</time>
      </trkpt>
      <trkpt lat="40.962831" lon="17.177658">
        <ele>176.415</ele>
        <time>2025-10-13T07:57:09.524Z</time>
      </trkpt>
      <trkpt lat="40.962055" lon="17.177671">
        <ele>178.265</ele>
        <time>2025-10-13T07:58:10.524Z</time>
      </trkpt>
      <trkpt lat="40.960845" lon="17.178060">
        <ele>181.511</ele>
        <time>2025-10-13T07:59:55.523Z</time>
      </trkpt>
      <trkpt lat="40.960372" lon="17.178328">
        <ele>181.609</ele>
        <time>2025-10-13T08:00:36.523Z</time>
      </trkpt>
      <trkpt lat="40.960149" lon="17.178247">
        <ele>182.613</ele>
        <time>2025-10-13T08:00:59.523Z</time>
      </trkpt>
      <trkpt lat="40.959803" lon="17.176190">
        <ele>178.574</ele>
        <time>2025-10-13T08:03:58.524Z</time>
      </trkpt>
      <trkpt lat="40.959737" lon="17.176247">
        <ele>179.136</ele>
        <time>2025-10-13T08:04:06.523Z</time>
      </trkpt>
      <trkpt lat="40.959929" lon="17.175263">
        <ele>176.679</ele>
        <time>2025-10-13T08:05:12.524Z</time>
      </trkpt>
      <trkpt lat="40.959906" lon="17.174470">
        <ele>175.079</ele>
        <time>2025-10-13T08:05:55.524Z</time>
      </trkpt>
      <trkpt lat="40.959767" lon="17.174353">
        <ele>177.243</ele>
        <time>2025-10-13T08:06:33.523Z</time>
      </trkpt>
      <trkpt lat="40.959825" lon="17.174261">
        <ele>175.791</ele>
        <time>2025-10-13T08:07:17.523Z</time>
      </trkpt>
      <trkpt lat="40.959485" lon="17.174153">
        <ele>177.586</ele>
        <time>2025-10-13T08:07:53.523Z</time>
      </trkpt>
      <trkpt lat="40.959674" lon="17.174265">
        <ele>176.985</ele>
        <time>2025-10-13T08:08:22.524Z</time>
      </trkpt>
      <trkpt lat="40.959800" lon="17.174178">
        <ele>177.273</ele>
        <time>2025-10-13T08:08:34.523Z</time>
      </trkpt>
      <trkpt lat="40.959628" lon="17.172503">
        <ele>178.485</ele>
        <time>2025-10-13T08:10:25.524Z</time>
      </trkpt>
      <trkpt lat="40.959945" lon="17.171243">
        <ele>179.413</ele>
        <time>2025-10-13T08:11:47.524Z</time>
      </trkpt>
      <trkpt lat="40.959906" lon="17.170901">
        <ele>179.709</ele>
        <time>2025-10-13T08:12:08.523Z</time>
      </trkpt>
      <trkpt lat="40.959684" lon="17.170712">
        <ele>179.059</ele>
        <time>2025-10-13T08:12:28.523Z</time>
      </trkpt>
      <trkpt lat="40.959539" lon="17.170298">
        <ele>177.990</ele>
        <time>2025-10-13T08:12:56.523Z</time>
      </trkpt>
      <trkpt lat="40.959907" lon="17.169150">
        <ele>178.422</ele>
        <time>2025-10-13T08:14:09.523Z</time>
      </trkpt>
      <trkpt lat="40.960009" lon="17.167939">
        <ele>179.985</ele>
        <time>2025-10-13T08:15:21.523Z</time>
      </trkpt>
      <trkpt lat="40.959830" lon="17.164091">
        <ele>184.685</ele>
        <time>2025-10-13T08:19:36.524Z</time>
      </trkpt>
      <trkpt lat="40.958876" lon="17.163647">
        <ele>184.079</ele>
        <time>2025-10-13T08:21:54.523Z</time>
      </trkpt>
      <trkpt lat="40.957347" lon="17.161398">
        <ele>184.687</ele>
        <time>2025-10-13T08:24:55.525Z</time>
      </trkpt>
      <trkpt lat="40.956244" lon="17.160553">
        <ele>183.892</ele>
        <time>2025-10-13T08:26:40.523Z</time>
      </trkpt>
      <trkpt lat="40.955187" lon="17.159449">
        <ele>184.581</ele>
        <time>2025-10-13T08:28:25.523Z</time>
      </trkpt>
      <trkpt lat="40.954424" lon="17.159061">
        <ele>190.556</ele>
        <time>2025-10-13T08:29:51.524Z</time>
      </trkpt>
      <trkpt lat="40.952598" lon="17.157318">
        <ele>192.159</ele>
        <time>2025-10-13T08:33:06.524Z</time>
      </trkpt>
      <trkpt lat="40.951746" lon="17.157031">
        <ele>192.114</ele>
        <time>2025-10-13T08:34:26.523Z</time>
      </trkpt>
      <trkpt lat="40.951236" lon="17.156716">
        <ele>194.809</ele>
        <time>2025-10-13T08:35:11.524Z</time>
      </trkpt>
      <trkpt lat="40.950453" lon="17.155780">
        <ele>197.147</ele>
        <time>2025-10-13T08:36:34.523Z</time>
      </trkpt>
      <trkpt lat="40.949950" lon="17.155449">
        <ele>197.188</ele>
        <time>2025-10-13T08:37:21.523Z</time>
      </trkpt>
      <trkpt lat="40.947945" lon="17.153275">
        <ele>203.120</ele>
        <time>2025-10-13T08:40:41.523Z</time>
      </trkpt>
      <trkpt lat="40.946325" lon="17.151821">
        <ele>206.573</ele>
        <time>2025-10-13T08:43:14.524Z</time>
      </trkpt>
      <trkpt lat="40.946074" lon="17.151710">
        <ele>203.933</ele>
        <time>2025-10-13T08:43:34.524Z</time>
      </trkpt>
      <trkpt lat="40.944211" lon="17.151581">
        <ele>203.447</ele>
        <time>2025-10-13T08:45:57.524Z</time>
      </trkpt>
      <trkpt lat="40.939224" lon="17.149085">
        <ele>202.195</ele>
        <time>2025-10-13T08:53:13.524Z</time>
      </trkpt>
      <trkpt lat="40.938834" lon="17.149243">
        <ele>201.940</ele>
        <time>2025-10-13T08:53:52.524Z</time>
      </trkpt>
      <trkpt lat="40.938623" lon="17.149707">
        <ele>200.959</ele>
        <time>2025-10-13T08:54:47.524Z</time>
      </trkpt>
      <trkpt lat="40.938223" lon="17.150143">
        <ele>198.865</ele>
        <time>2025-10-13T08:55:32.524Z</time>
      </trkpt>
      <trkpt lat="40.937896" lon="17.150214">
        <ele>199.968</ele>
        <time>2025-10-13T08:55:56.524Z</time>
      </trkpt>
      <trkpt lat="40.935674" lon="17.149201">
        <ele>203.614</ele>
        <time>2025-10-13T08:59:08.524Z</time>
      </trkpt>
      <trkpt lat="40.934779" lon="17.148055">
        <ele>204.409</ele>
        <time>2025-10-13T09:00:52.524Z</time>
      </trkpt>
      <trkpt lat="40.934253" lon="17.146559">
        <ele>203.698</ele>
        <time>2025-10-13T09:02:36.525Z</time>
      </trkpt>
      <trkpt lat="40.934317" lon="17.146051">
        <ele>201.719</ele>
        <time>2025-10-13T09:03:08.524Z</time>
      </trkpt>
      <trkpt lat="40.934237" lon="17.145893">
        <ele>201.471</ele>
        <time>2025-10-13T09:03:20.524Z</time>
      </trkpt>
      <trkpt lat="40.933156" lon="17.145192">
        <ele>204.154</ele>
        <time>2025-10-13T09:05:04.524Z</time>
      </trkpt>
      <trkpt lat="40.932492" lon="17.145115">
        <ele>203.934</ele>
        <time>2025-10-13T09:06:47.524Z</time>
      </trkpt>
      <trkpt lat="40.931412" lon="17.144284">
        <ele>202.448</ele>
        <time>2025-10-13T09:08:23.523Z</time>
      </trkpt>
      <trkpt lat="40.930464" lon="17.143991">
        <ele>202.156</ele>
        <time>2025-10-13T09:09:39.523Z</time>
      </trkpt>
      <trkpt lat="40.929762" lon="17.143429">
        <ele>201.491</ele>
        <time>2025-10-13T09:10:50.523Z</time>
      </trkpt>
      <trkpt lat="40.928850" lon="17.143140">
        <ele>203.760</ele>
        <time>2025-10-13T09:12:02.523Z</time>
      </trkpt>
      <trkpt lat="40.928538" lon="17.143305">
        <ele>204.349</ele>
        <time>2025-10-13T09:12:32.523Z</time>
      </trkpt>
      <trkpt lat="40.928391" lon="17.143237">
        <ele>205.802</ele>
        <time>2025-10-13T09:13:08.523Z</time>
      </trkpt>
      <trkpt lat="40.928307" lon="17.143475">
        <ele>204.122</ele>
        <time>2025-10-13T09:13:40.523Z</time>
      </trkpt>
      <trkpt lat="40.928119" lon="17.143298">
        <ele>205.909</ele>
        <time>2025-10-13T09:14:07.523Z</time>
      </trkpt>
      <trkpt lat="40.927475" lon="17.143187">
        <ele>207.476</ele>
        <time>2025-10-13T09:15:09.523Z</time>
      </trkpt>
      <trkpt lat="40.926968" lon="17.144425">
        <ele>205.897</ele>
        <time>2025-10-13T09:17:05.523Z</time>
      </trkpt>
      <trkpt lat="40.924955" lon="17.145071">
        <ele>207.149</ele>
        <time>2025-10-13T09:20:10.523Z</time>
      </trkpt>
      <trkpt lat="40.924244" lon="17.145110">
        <ele>210.972</ele>
        <time>2025-10-13T09:21:07.523Z</time>
      </trkpt>
      <trkpt lat="40.923068" lon="17.145452">
        <ele>211.652</ele>
        <time>2025-10-13T09:22:53.523Z</time>
      </trkpt>
      <trkpt lat="40.922159" lon="17.146019">
        <ele>212.046</ele>
        <time>2025-10-13T09:24:21.524Z</time>
      </trkpt>
      <trkpt lat="40.922428" lon="17.149364">
        <ele>210.754</ele>
        <time>2025-10-13T09:27:59.522Z</time>
      </trkpt>
      <trkpt lat="40.922375" lon="17.149801">
        <ele>211.589</ele>
        <time>2025-10-13T09:28:27.522Z</time>
      </trkpt>
      <trkpt lat="40.920680" lon="17.155219">
        <ele>215.698</ele>
        <time>2025-10-13T09:35:20.522Z</time>
      </trkpt>
      <trkpt lat="40.918475" lon="17.159604">
        <ele>222.597</ele>
        <time>2025-10-13T09:41:27.522Z</time>
      </trkpt>
      <trkpt lat="40.920124" lon="17.162252">
        <ele>215.123</ele>
        <time>2025-10-13T09:45:11.523Z</time>
      </trkpt>
      <trkpt lat="40.920093" lon="17.165072">
        <ele>211.525</ele>
        <time>2025-10-13T09:48:09.523Z</time>
      </trkpt>
      <trkpt lat="40.919966" lon="17.166413">
        <ele>212.109</ele>
        <time>2025-10-13T09:50:40.522Z</time>
      </trkpt>
      <trkpt lat="40.920047" lon="17.167855">
        <ele>212.561</ele>
        <time>2025-10-13T09:52:13.521Z</time>
      </trkpt>
      <trkpt lat="40.919629" lon="17.168011">
        <ele>213.722</ele>
        <time>2025-10-13T10:03:52.521Z</time>
      </trkpt>
      <trkpt lat="40.918121" lon="17.167895">
        <ele>216.814</ele>
        <time>2025-10-13T10:05:54.521Z</time>
      </trkpt>
      <trkpt lat="40.917451" lon="17.168158">
        <ele>217.997</ele>
        <time>2025-10-13T10:06:53.522Z</time>
      </trkpt>
      <trkpt lat="40.917207" lon="17.168387">
        <ele>218.317</ele>
        <time>2025-10-13T10:07:17.522Z</time>
      </trkpt>
      <trkpt lat="40.915751" lon="17.171076">
        <ele>227.761</ele>
        <time>2025-10-13T10:10:46.522Z</time>
      </trkpt>
      <trkpt lat="40.915446" lon="17.172679">
        <ele>232.929</ele>
        <time>2025-10-13T10:12:45.521Z</time>
      </trkpt>
      <trkpt lat="40.915142" lon="17.173471">
        <ele>233.894</ele>
        <time>2025-10-13T10:14:28.520Z</time>
      </trkpt>
      <trkpt lat="40.915407" lon="17.174560">
        <ele>235.773</ele>
        <time>2025-10-13T10:15:44.521Z</time>
      </trkpt>
      <trkpt lat="40.914199" lon="17.176157">
        <ele>244.652</ele>
        <time>2025-10-13T10:18:01.520Z</time>
      </trkpt>
      <trkpt lat="40.914102" lon="17.176108">
        <ele>236.153</ele>
        <time>2025-10-13T10:18:26.520Z</time>
      </trkpt>
      <trkpt lat="40.913507" lon="17.176671">
        <ele>241.408</ele>
        <time>2025-10-13T10:19:26.520Z</time>
      </trkpt>
      <trkpt lat="40.913349" lon="17.176643">
        <ele>241.209</ele>
        <time>2025-10-13T10:19:38.521Z</time>
      </trkpt>
      <trkpt lat="40.912928" lon="17.176167">
        <ele>239.597</ele>
        <time>2025-10-13T10:20:22.520Z</time>
      </trkpt>
      <trkpt lat="40.912794" lon="17.176197">
        <ele>239.798</ele>
        <time>2025-10-13T10:20:34.521Z</time>
      </trkpt>
      <trkpt lat="40.911972" lon="17.177940">
        <ele>242.750</ele>
        <time>2025-10-13T10:22:42.520Z</time>
      </trkpt>
      <trkpt lat="40.911391" lon="17.178843">
        <ele>244.263</ele>
        <time>2025-10-13T10:23:56.520Z</time>
      </trkpt>
      <trkpt lat="40.910542" lon="17.178029">
        <ele>239.773</ele>
        <time>2025-10-13T10:25:29.519Z</time>
      </trkpt>
      <trkpt lat="40.909865" lon="17.177771">
        <ele>234.997</ele>
        <time>2025-10-13T10:26:25.520Z</time>
      </trkpt>
      <trkpt lat="40.909255" lon="17.177344">
        <ele>233.085</ele>
        <time>2025-10-13T10:27:22.519Z</time>
      </trkpt>
      <trkpt lat="40.908959" lon="17.177299">
        <ele>234.020</ele>
        <time>2025-10-13T10:27:46.520Z</time>
      </trkpt>
      <trkpt lat="40.907890" lon="17.177826">
        <ele>242.129</ele>
        <time>2025-10-13T10:29:20.519Z</time>
      </trkpt>
      <trkpt lat="40.907242" lon="17.177738">
        <ele>248.884</ele>
        <time>2025-10-13T10:30:11.519Z</time>
      </trkpt>
      <trkpt lat="40.906897" lon="17.178084">
        <ele>251.407</ele>
        <time>2025-10-13T10:30:48.519Z</time>
      </trkpt>
      <trkpt lat="40.906113" lon="17.178205">
        <ele>253.317</ele>
        <time>2025-10-13T10:31:52.518Z</time>
      </trkpt>
      <trkpt lat="40.905560" lon="17.179732">
        <ele>260.309</ele>
        <time>2025-10-13T10:33:40.518Z</time>
      </trkpt>
      <trkpt lat="40.904595" lon="17.179454">
        <ele>258.760</ele>
        <time>2025-10-13T10:35:05.518Z</time>
      </trkpt>
      <trkpt lat="40.903933" lon="17.178834">
        <ele>255.281</ele>
        <time>2025-10-13T10:36:17.518Z</time>
      </trkpt>
      <trkpt lat="40.902840" lon="17.178099">
        <ele>257.263</ele>
        <time>2025-10-13T10:37:59.518Z</time>
      </trkpt>
      <trkpt lat="40.902019" lon="17.178111">
        <ele>266.016</ele>
        <time>2025-10-13T10:39:20.518Z</time>
      </trkpt>
      <trkpt lat="40.901402" lon="17.177788">
        <ele>270.596</ele>
        <time>2025-10-13T10:40:21.517Z</time>
      </trkpt>
      <trkpt lat="40.901053" lon="17.177736">
        <ele>271.030</ele>
        <time>2025-10-13T10:40:52.517Z</time>
      </trkpt>
      <trkpt lat="40.900306" lon="17.177220">
        <ele>277.618</ele>
        <time>2025-10-13T10:42:10.517Z</time>
      </trkpt>
      <trkpt lat="40.900025" lon="17.177294">
        <ele>279.933</ele>
        <time>2025-10-13T10:42:37.517Z</time>
      </trkpt>
      <trkpt lat="40.899371" lon="17.176496">
        <ele>283.882</ele>
        <time>2025-10-13T10:43:53.518Z</time>
      </trkpt>
      <trkpt lat="40.898485" lon="17.176278">
        <ele>291.038</ele>
        <time>2025-10-13T10:45:07.517Z</time>
      </trkpt>
      <trkpt lat="40.898551" lon="17.175066">
        <ele>289.670</ele>
        <time>2025-10-13T10:46:28.517Z</time>
      </trkpt>
      <trkpt lat="40.897923" lon="17.173521">
        <ele>287.617</ele>
        <time>2025-10-13T10:48:14.516Z</time>
      </trkpt>
      <trkpt lat="40.897804" lon="17.173451">
        <ele>288.709</ele>
        <time>2025-10-13T10:48:40.516Z</time>
      </trkpt>
      <trkpt lat="40.897374" lon="17.173735">
        <ele>286.785</ele>
        <time>2025-10-13T10:49:19.516Z</time>
      </trkpt>
      <trkpt lat="40.896317" lon="17.174008">
        <ele>284.916</ele>
        <time>2025-10-13T10:50:48.517Z</time>
      </trkpt>
      <trkpt lat="40.895434" lon="17.174576">
        <ele>282.918</ele>
        <time>2025-10-13T10:52:10.516Z</time>
      </trkpt>
      <trkpt lat="40.895145" lon="17.174541">
        <ele>283.081</ele>
        <time>2025-10-13T10:52:34.516Z</time>
      </trkpt>
      <trkpt lat="40.894647" lon="17.174180">
        <ele>281.431</ele>
        <time>2025-10-13T10:53:22.515Z</time>
      </trkpt>
      <trkpt lat="40.894069" lon="17.174545">
        <ele>279.555</ele>
        <time>2025-10-13T10:54:16.516Z</time>
      </trkpt>
      <trkpt lat="40.892828" lon="17.173345">
        <ele>279.943</ele>
        <time>2025-10-13T10:56:38.516Z</time>
      </trkpt>
      <trkpt lat="40.892084" lon="17.173096">
        <ele>277.238</ele>
        <time>2025-10-13T10:58:08.515Z</time>
      </trkpt>
      <trkpt lat="40.891416" lon="17.172713">
        <ele>274.897</ele>
        <time>2025-10-13T10:59:20.515Z</time>
      </trkpt>
      <trkpt lat="40.890319" lon="17.172922">
        <ele>276.131</ele>
        <time>2025-10-13T11:00:57.514Z</time>
      </trkpt>
      <trkpt lat="40.889594" lon="17.172889">
        <ele>277.661</ele>
        <time>2025-10-13T11:02:05.515Z</time>
      </trkpt>
      <trkpt lat="40.889127" lon="17.172673">
        <ele>283.007</ele>
        <time>2025-10-13T11:03:28.514Z</time>
      </trkpt>
      <trkpt lat="40.888369" lon="17.172856">
        <ele>289.609</ele>
        <time>2025-10-13T11:04:48.515Z</time>
      </trkpt>
      <trkpt lat="40.888172" lon="17.172799">
        <ele>289.135</ele>
        <time>2025-10-13T11:05:07.515Z</time>
      </trkpt>
      <trkpt lat="40.887677" lon="17.171909">
        <ele>292.846</ele>
        <time>2025-10-13T11:06:24.515Z</time>
      </trkpt>
      <trkpt lat="40.886726" lon="17.170860">
        <ele>291.768</ele>
        <time>2025-10-13T11:08:11.515Z</time>
      </trkpt>
      <trkpt lat="40.886460" lon="17.170675">
        <ele>288.621</ele>
        <time>2025-10-13T11:08:40.514Z</time>
      </trkpt>
      <trkpt lat="40.885837" lon="17.170509">
        <ele>279.871</ele>
        <time>2025-10-13T11:09:36.515Z</time>
      </trkpt>
      <trkpt lat="40.885532" lon="17.170580">
        <ele>277.265</ele>
        <time>2025-10-13T11:10:06.515Z</time>
      </trkpt>
      <trkpt lat="40.885448" lon="17.170380">
        <ele>278.733</ele>
        <time>2025-10-13T11:10:23.516Z</time>
      </trkpt>
      <trkpt lat="40.885102" lon="17.170462">
        <ele>274.798</ele>
        <time>2025-10-13T11:11:39.515Z</time>
      </trkpt>
      <trkpt lat="40.884834" lon="17.169281">
        <ele>276.497</ele>
        <time>2025-10-13T11:13:51.513Z</time>
      </trkpt>
      <trkpt lat="40.884936" lon="17.169160">
        <ele>267.984</ele>
        <time>2025-10-13T11:14:12.514Z</time>
      </trkpt>
      <trkpt lat="40.884865" lon="17.169236">
        <ele>291.307</ele>
        <time>2025-10-13T11:15:11.514Z</time>
      </trkpt>
      <trkpt lat="40.885061" lon="17.169225">
        <ele>290.317</ele>
        <time>2025-10-13T11:15:43.514Z</time>
      </trkpt>
      <trkpt lat="40.885116" lon="17.169050">
        <ele>291.309</ele>
        <time>2025-10-13T11:15:58.515Z</time>
      </trkpt>
      <trkpt lat="40.885277" lon="17.169145">
        <ele>287.620</ele>
        <time>2025-10-13T11:16:49.513Z</time>
      </trkpt>
      <trkpt lat="40.885277" lon="17.169045">
        <ele>286.041</ele>
        <time>2025-10-13T11:17:06.513Z</time>
      </trkpt>
      <trkpt lat="40.885398" lon="17.169047">
        <ele>283.623</ele>
        <time>2025-10-13T11:17:46.513Z</time>
      </trkpt>
      <trkpt lat="40.885171" lon="17.168802">
        <ele>283.186</ele>
        <time>2025-10-13T11:21:18.513Z</time>
      </trkpt>
      <trkpt lat="40.885325" lon="17.168958">
        <ele>280.156</ele>
        <time>2025-10-13T11:22:41.513Z</time>
      </trkpt>
      <trkpt lat="40.885267" lon="17.168716">
        <ele>292.040</ele>
        <time>2025-10-13T11:23:10.512Z</time>
      </trkpt>
    </trkseg>
  </trk></gpx>