<?xml version="1.0" encoding="UTF-8"?>
<gpx creator="Wikiloc - https://www.wikiloc.com" version="1.1" xmlns="http://www.topografix.com/GPX/1/1" xmlns:xsi="http://www.w3.org/2001/XMLSchema-instance" xsi:schemaLocation="http://www.topografix.com/GPX/1/1 http://www.topografix.com/GPX/1/1/gpx.xsd">
  <metadata>
    <name>Wikiloc - Serrasanta</name>
    <link href="https://www.wikiloc.com/hiking-trails/serrasanta-223892603">
      <text>Serrasanta - Wikiloc on Wikiloc</text>
    </link>
    <time>2025-07-27T18:15:23.097Z</time>
  </metadata>
  <trk>
    <name>Serrasanta - Wikiloc</name>
    <cmt></cmt>
    <desc></desc>
    <trkseg>
      <trkpt lat="43.241533" lon="12.813272">
        <ele>1286.369</ele>
        <time>2025-07-27T15:02:27.486Z</time>
      </trkpt>
      <trkpt lat="43.241573" lon="12.813591">
        <ele>1286.704</ele>
        <time>2025-07-27T15:03:57.098Z</time>
      </trkpt>
      <trkpt lat="43.241141" lon="12.814495">
        <ele>1300.424</ele>
        <time>2025-07-27T15:05:22.095Z</time>
      </trkpt>
      <trkpt lat="43.240999" lon="12.815264">
        <ele>1312.509</ele>
        <time>2025-07-27T15:06:27.104Z</time>
      </trkpt>
      <trkpt lat="43.241590" lon="12.817245">
        <ele>1328.748</ele>
        <time>2025-07-27T15:09:48.104Z</time>
      </trkpt>
      <trkpt lat="43.241815" lon="12.817663">
        <ele>1336.358</ele>
        <time>2025-07-27T15:10:22.102Z</time>
      </trkpt>
      <trkpt lat="43.242034" lon="12.818768">
        <ele>1354.169</ele>
        <time>2025-07-27T15:11:52.103Z</time>
      </trkpt>
      <trkpt lat="43.242085" lon="12.819711">
        <ele>1361.414</ele>
        <time>2025-07-27T15:13:03.106Z</time>
      </trkpt>
      <trkpt lat="43.241974" lon="12.820662">
        <ele>1372.395</ele>
        <time>2025-07-27T15:15:20.103Z</time>
      </trkpt>
      <trkpt lat="43.241901" lon="12.820603">
        <ele>1370.498</ele>
        <time>2025-07-27T15:16:43.098Z</time>
      </trkpt>
      <trkpt lat="43.242014" lon="12.820981">
        <ele>1376.512</ele>
        <time>2025-07-27T15:18:17.095Z</time>
      </trkpt>
      <trkpt lat="43.241767" lon="12.822129">
        <ele>1381.446</ele>
        <time>2025-07-27T15:19:47.106Z</time>
      </trkpt>
      <trkpt lat="43.241266" lon="12.823506">
        <ele>1387.129</ele>
        <time>2025-07-27T15:21:29.106Z</time>
      </trkpt>
      <trkpt lat="43.240802" lon="12.823975">
        <ele>1389.957</ele>
        <time>2025-07-27T15:22:55.102Z</time>
      </trkpt>
      <trkpt lat="43.240623" lon="12.824473">
        <ele>1393.200</ele>
        <time>2025-07-27T15:23:31.104Z</time>
      </trkpt>
      <trkpt lat="43.240516" lon="12.825388">
        <ele>1393.620</ele>
        <time>2025-07-27T15:24:31.105Z</time>
      </trkpt>
      <trkpt lat="43.240606" lon="12.826220">
        <ele>1391.409</ele>
        <time>2025-07-27T15:25:20.106Z</time>
      </trkpt>
      <trkpt lat="43.240267" lon="12.828134">
        <ele>1385.127</ele>
        <time>2025-07-27T15:27:26.105Z</time>
      </trkpt>
      <trkpt lat="43.240085" lon="12.828591">
        <ele>1387.337</ele>
        <time>2025-07-27T15:28:03.104Z</time>
      </trkpt>
      <trkpt lat="43.239884" lon="12.828644">
        <ele>1386.158</ele>
        <time>2025-07-27T15:28:37.105Z</time>
      </trkpt>
      <trkpt lat="43.239501" lon="12.828481">
        <ele>1382.843</ele>
        <time>2025-07-27T15:29:15.104Z</time>
      </trkpt>
      <trkpt lat="43.238979" lon="12.827622">
        <ele>1376.944</ele>
        <time>2025-07-27T15:31:05.104Z</time>
      </trkpt>
      <trkpt lat="43.238321" lon="12.827151">
        <ele>1364.587</ele>
        <time>2025-07-27T15:32:10.102Z</time>
      </trkpt>
      <trkpt lat="43.236145" lon="12.826018">
        <ele>1345.961</ele>
        <time>2025-07-27T15:35:45.106Z</time>
      </trkpt>
      <trkpt lat="43.235118" lon="12.825624">
        <ele>1332.235</ele>
        <time>2025-07-27T15:37:25.105Z</time>
      </trkpt>
      <trkpt lat="43.234532" lon="12.825210">
        <ele>1321.758</ele>
        <time>2025-07-27T15:38:28.106Z</time>
      </trkpt>
      <trkpt lat="43.234131" lon="12.825158">
        <ele>1318.638</ele>
        <time>2025-07-27T15:39:08.106Z</time>
      </trkpt>
      <trkpt lat="43.234008" lon="12.825290">
        <ele>1318.370</ele>
        <time>2025-07-27T15:39:45.104Z</time>
      </trkpt>
      <trkpt lat="43.233859" lon="12.826033">
        <ele>1320.417</ele>
        <time>2025-07-27T15:41:06.107Z</time>
      </trkpt>
      <trkpt lat="43.233538" lon="12.826904">
        <ele>1302.809</ele>
        <time>2025-07-27T15:42:05.105Z</time>
      </trkpt>
      <trkpt lat="43.233397" lon="12.828047">
        <ele>1297.565</ele>
        <time>2025-07-27T15:43:50.097Z</time>
      </trkpt>
      <trkpt lat="43.232472" lon="12.830430">
        <ele>1273.555</ele>
        <time>2025-07-27T15:47:41.097Z</time>
      </trkpt>
      <trkpt lat="43.231364" lon="12.832089">
        <ele>1294.946</ele>
        <time>2025-07-27T15:50:47.097Z</time>
      </trkpt>
      <trkpt lat="43.230275" lon="12.833108">
        <ele>1298.711</ele>
        <time>2025-07-27T15:53:34.104Z</time>
      </trkpt>
      <trkpt lat="43.229583" lon="12.833573">
        <ele>1309.492</ele>
        <time>2025-07-27T15:54:44.107Z</time>
      </trkpt>
      <trkpt lat="43.229184" lon="12.834052">
        <ele>1320.985</ele>
        <time>2025-07-27T15:55:34.099Z</time>
      </trkpt>
      <trkpt lat="43.228159" lon="12.834760">
        <ele>1322.989</ele>
        <time>2025-07-27T15:57:21.105Z</time>
      </trkpt>
      <trkpt lat="43.227462" lon="12.835068">
        <ele>1329.373</ele>
        <time>2025-07-27T15:59:11.105Z</time>
      </trkpt>
      <trkpt lat="43.226684" lon="12.835110">
        <ele>1337.566</ele>
        <time>2025-07-27T16:02:09.100Z</time>
      </trkpt>
      <trkpt lat="43.226447" lon="12.835200">
        <ele>1344.771</ele>
        <time>2025-07-27T16:03:44.103Z</time>
      </trkpt>
      <trkpt lat="43.226390" lon="12.835145">
        <ele>1343.241</ele>
        <time>2025-07-27T16:04:07.103Z</time>
      </trkpt>
      <trkpt lat="43.225897" lon="12.835287">
        <ele>1357.315</ele>
        <time>2025-07-27T16:05:57.106Z</time>
      </trkpt>
      <trkpt lat="43.225519" lon="12.835453">
        <ele>1361.409</ele>
        <time>2025-07-27T16:06:47.103Z</time>
      </trkpt>
      <trkpt lat="43.224936" lon="12.836175">
        <ele>1376.919</ele>
        <time>2025-07-27T16:08:15.103Z</time>
      </trkpt>
      <trkpt lat="43.223824" lon="12.836562">
        <ele>1376.659</ele>
        <time>2025-07-27T16:09:41.107Z</time>
      </trkpt>
      <trkpt lat="43.223274" lon="12.836552">
        <ele>1375.130</ele>
        <time>2025-07-27T16:11:11.105Z</time>
      </trkpt>
      <trkpt lat="43.222887" lon="12.836444">
        <ele>1374.825</ele>
        <time>2025-07-27T16:12:03.104Z</time>
      </trkpt>
      <trkpt lat="43.222248" lon="12.836081">
        <ele>1369.066</ele>
        <time>2025-07-27T16:13:09.103Z</time>
      </trkpt>
      <trkpt lat="43.221729" lon="12.835637">
        <ele>1365.129</ele>
        <time>2025-07-27T16:14:03.104Z</time>
      </trkpt>
      <trkpt lat="43.220896" lon="12.835332">
        <ele>1360.873</ele>
        <time>2025-07-27T16:15:37.106Z</time>
      </trkpt>
      <trkpt lat="43.220291" lon="12.835425">
        <ele>1357.067</ele>
        <time>2025-07-27T16:16:29.104Z</time>
      </trkpt>
      <trkpt lat="43.219595" lon="12.835788">
        <ele>1353.510</ele>
        <time>2025-07-27T16:17:40.098Z</time>
      </trkpt>
      <trkpt lat="43.218978" lon="12.835800">
        <ele>1344.291</ele>
        <time>2025-07-27T16:21:07.104Z</time>
      </trkpt>
      <trkpt lat="43.218170" lon="12.836067">
        <ele>1339.781</ele>
        <time>2025-07-27T16:23:39.098Z</time>
      </trkpt>
      <trkpt lat="43.217928" lon="12.836044">
        <ele>1336.819</ele>
        <time>2025-07-27T16:24:09.104Z</time>
      </trkpt>
      <trkpt lat="43.217306" lon="12.835662">
        <ele>1339.909</ele>
        <time>2025-07-27T16:25:17.105Z</time>
      </trkpt>
      <trkpt lat="43.217039" lon="12.835254">
        <ele>1345.051</ele>
        <time>2025-07-27T16:27:26.107Z</time>
      </trkpt>
      <trkpt lat="43.216870" lon="12.834557">
        <ele>1351.551</ele>
        <time>2025-07-27T16:28:37.103Z</time>
      </trkpt>
      <trkpt lat="43.216628" lon="12.834144">
        <ele>1356.932</ele>
        <time>2025-07-27T16:29:18.105Z</time>
      </trkpt>
      <trkpt lat="43.216180" lon="12.833887">
        <ele>1358.567</ele>
        <time>2025-07-27T16:31:33.101Z</time>
      </trkpt>
      <trkpt lat="43.214891" lon="12.832680">
        <ele>1375.478</ele>
        <time>2025-07-27T16:43:25.094Z</time>
      </trkpt>
      <trkpt lat="43.216446" lon="12.834013">
        <ele>1356.421</ele>
        <time>2025-07-27T16:48:02.099Z</time>
      </trkpt>
      <trkpt lat="43.216853" lon="12.834488">
        <ele>1352.715</ele>
        <time>2025-07-27T16:48:53.102Z</time>
      </trkpt>
      <trkpt lat="43.217301" lon="12.835525">
        <ele>1343.149</ele>
        <time>2025-07-27T16:50:22.101Z</time>
      </trkpt>
      <trkpt lat="43.217508" lon="12.835814">
        <ele>1336.512</ele>
        <time>2025-07-27T16:51:19.097Z</time>
      </trkpt>
      <trkpt lat="43.218092" lon="12.836059">
        <ele>1338.836</ele>
        <time>2025-07-27T16:53:27.099Z</time>
      </trkpt>
      <trkpt lat="43.218425" lon="12.835951">
        <ele>1340.617</ele>
        <time>2025-07-27T16:54:12.104Z</time>
      </trkpt>
      <trkpt lat="43.218624" lon="12.835981">
        <ele>1343.418</ele>
        <time>2025-07-27T16:54:31.096Z</time>
      </trkpt>
      <trkpt lat="43.218922" lon="12.835816">
        <ele>1344.009</ele>
        <time>2025-07-27T16:55:11.104Z</time>
      </trkpt>
      <trkpt lat="43.219570" lon="12.835788">
        <ele>1352.915</ele>
        <time>2025-07-27T16:56:19.102Z</time>
      </trkpt>
      <trkpt lat="43.220213" lon="12.835433">
        <ele>1355.515</ele>
        <time>2025-07-27T16:57:36.096Z</time>
      </trkpt>
      <trkpt lat="43.220939" lon="12.835321">
        <ele>1360.826</ele>
        <time>2025-07-27T16:59:00.097Z</time>
      </trkpt>
      <trkpt lat="43.221791" lon="12.835667">
        <ele>1365.481</ele>
        <time>2025-07-27T17:00:59.097Z</time>
      </trkpt>
      <trkpt lat="43.222242" lon="12.836065">
        <ele>1368.942</ele>
        <time>2025-07-27T17:01:48.099Z</time>
      </trkpt>
      <trkpt lat="43.222838" lon="12.836418">
        <ele>1374.445</ele>
        <time>2025-07-27T17:02:52.105Z</time>
      </trkpt>
      <trkpt lat="43.223224" lon="12.836550">
        <ele>1375.439</ele>
        <time>2025-07-27T17:03:23.105Z</time>
      </trkpt>
      <trkpt lat="43.223807" lon="12.836563">
        <ele>1376.513</ele>
        <time>2025-07-27T17:04:14.106Z</time>
      </trkpt>
      <trkpt lat="43.224589" lon="12.836341">
        <ele>1375.716</ele>
        <time>2025-07-27T17:05:35.106Z</time>
      </trkpt>
      <trkpt lat="43.225338" lon="12.835605">
        <ele>1363.864</ele>
        <time>2025-07-27T17:07:04.103Z</time>
      </trkpt>
      <trkpt lat="43.225796" lon="12.835304">
        <ele>1358.606</ele>
        <time>2025-07-27T17:07:57.104Z</time>
      </trkpt>
      <trkpt lat="43.227572" lon="12.835025">
        <ele>1328.316</ele>
        <time>2025-07-27T17:10:54.105Z</time>
      </trkpt>
      <trkpt lat="43.228341" lon="12.834659">
        <ele>1322.909</ele>
        <time>2025-07-27T17:13:11.103Z</time>
      </trkpt>
      <trkpt lat="43.229083" lon="12.834123">
        <ele>1320.988</ele>
        <time>2025-07-27T17:14:24.098Z</time>
      </trkpt>
      <trkpt lat="43.229594" lon="12.833578">
        <ele>1309.398</ele>
        <time>2025-07-27T17:15:58.105Z</time>
      </trkpt>
      <trkpt lat="43.230488" lon="12.832942">
        <ele>1297.439</ele>
        <time>2025-07-27T17:19:19.101Z</time>
      </trkpt>
      <trkpt lat="43.231485" lon="12.831924">
        <ele>1292.694</ele>
        <time>2025-07-27T17:21:07.105Z</time>
      </trkpt>
      <trkpt lat="43.232130" lon="12.830957">
        <ele>1272.845</ele>
        <time>2025-07-27T17:22:30.106Z</time>
      </trkpt>
      <trkpt lat="43.232675" lon="12.830020">
        <ele>1282.278</ele>
        <time>2025-07-27T17:23:46.102Z</time>
      </trkpt>
      <trkpt lat="43.233073" lon="12.829017">
        <ele>1285.782</ele>
        <time>2025-07-27T17:25:56.096Z</time>
      </trkpt>
      <trkpt lat="43.233395" lon="12.828017">
        <ele>1297.526</ele>
        <time>2025-07-27T17:27:31.098Z</time>
      </trkpt>
      <trkpt lat="43.233493" lon="12.827135">
        <ele>1301.219</ele>
        <time>2025-07-27T17:28:34.102Z</time>
      </trkpt>
      <trkpt lat="43.233877" lon="12.825882">
        <ele>1322.288</ele>
        <time>2025-07-27T17:30:15.104Z</time>
      </trkpt>
      <trkpt lat="43.233923" lon="12.825466">
        <ele>1319.224</ele>
        <time>2025-07-27T17:30:49.104Z</time>
      </trkpt>
      <trkpt lat="43.234217" lon="12.825141">
        <ele>1319.326</ele>
        <time>2025-07-27T17:31:32.108Z</time>
      </trkpt>
      <trkpt lat="43.234528" lon="12.825185">
        <ele>1321.309</ele>
        <time>2025-07-27T17:31:59.096Z</time>
      </trkpt>
      <trkpt lat="43.235012" lon="12.825544">
        <ele>1330.070</ele>
        <time>2025-07-27T17:33:05.104Z</time>
      </trkpt>
      <trkpt lat="43.236098" lon="12.825984">
        <ele>1345.160</ele>
        <time>2025-07-27T17:35:21.104Z</time>
      </trkpt>
      <trkpt lat="43.237575" lon="12.826734">
        <ele>1363.051</ele>
        <time>2025-07-27T17:37:53.108Z</time>
      </trkpt>
      <trkpt lat="43.237956" lon="12.827019">
        <ele>1363.696</ele>
        <time>2025-07-27T17:42:25.104Z</time>
      </trkpt>
      <trkpt lat="43.238617" lon="12.827296">
        <ele>1367.997</ele>
        <time>2025-07-27T17:43:47.101Z</time>
      </trkpt>
      <trkpt lat="43.238951" lon="12.827618">
        <ele>1376.430</ele>
        <time>2025-07-27T17:44:23.105Z</time>
      </trkpt>
      <trkpt lat="43.239562" lon="12.828512">
        <ele>1383.264</ele>
        <time>2025-07-27T17:45:53.105Z</time>
      </trkpt>
      <trkpt lat="43.239857" lon="12.828630">
        <ele>1385.938</ele>
        <time>2025-07-27T17:46:28.103Z</time>
      </trkpt>
      <trkpt lat="43.240089" lon="12.828556">
        <ele>1387.261</ele>
        <time>2025-07-27T17:46:55.104Z</time>
      </trkpt>
      <trkpt lat="43.240258" lon="12.828235">
        <ele>1386.512</ele>
        <time>2025-07-27T17:48:14.106Z</time>
      </trkpt>
      <trkpt lat="43.240600" lon="12.826200">
        <ele>1391.632</ele>
        <time>2025-07-27T17:50:47.095Z</time>
      </trkpt>
      <trkpt lat="43.240523" lon="12.825163">
        <ele>1393.005</ele>
        <time>2025-07-27T17:51:56.107Z</time>
      </trkpt>
      <trkpt lat="43.240673" lon="12.824308">
        <ele>1392.809</ele>
        <time>2025-07-27T17:52:50.103Z</time>
      </trkpt>
      <trkpt lat="43.240918" lon="12.823828">
        <ele>1388.733</ele>
        <time>2025-07-27T17:53:34.106Z</time>
      </trkpt>
      <trkpt lat="43.241245" lon="12.823517">
        <ele>1386.953</ele>
        <time>2025-07-27T17:54:17.104Z</time>
      </trkpt>
      <trkpt lat="43.241914" lon="12.821731">
        <ele>1384.384</ele>
        <time>2025-07-27T17:56:56.098Z</time>
      </trkpt>
      <trkpt lat="43.242039" lon="12.820105">
        <ele>1365.459</ele>
        <time>2025-07-27T17:58:56.098Z</time>
      </trkpt>
      <trkpt lat="43.241892" lon="12.819366">
        <ele>1359.370</ele>
        <time>2025-07-27T17:59:52.097Z</time>
      </trkpt>
      <trkpt lat="43.241668" lon="12.818883">
        <ele>1357.083</ele>
        <time>2025-07-27T18:00:29.105Z</time>
      </trkpt>
      <trkpt lat="43.241542" lon="12.818313">
        <ele>1353.727</ele>
        <time>2025-07-27T18:01:38.095Z</time>
      </trkpt>
      <trkpt lat="43.240969" lon="12.816982">
        <ele>1334.311</ele>
        <time>2025-07-27T18:03:44.105Z</time>
      </trkpt>
      <trkpt lat="43.240077" lon="12.815237">
        <ele>1341.664</ele>
        <time>2025-07-27T18:06:55.106Z</time>
      </trkpt>
      <trkpt lat="43.239531" lon="12.814486">
        <ele>1340.791</ele>
        <time>2025-07-27T18:08:23.105Z</time>
      </trkpt>
      <trkpt lat="43.239601" lon="12.814333">
        <ele>1338.681</ele>
        <time>2025-07-27T18:10:16.101Z</time>
      </trkpt>
      <trkpt lat="43.240289" lon="12.814312">
        <ele>1319.419</ele>
        <time>2025-07-27T18:12:24.103Z</time>
      </trkpt>
      <trkpt lat="43.240670" lon="12.814397">
        <ele>1312.409</ele>
        <time>2025-07-27T18:13:31.107Z</time>
      </trkpt>
      <trkpt lat="43.241362" lon="12.813946">
        <ele>1293.461</ele>
        <time>2025-07-27T18:14:44.105Z</time>
      </trkpt>
      <trkpt lat="43.241577" lon="12.813651">
        <ele>1286.811</ele>
        <time>2025-07-27T18:15:09.108Z</time>
      </trkpt>
      <trkpt lat="43.241569" lon="12.813447">
        <ele>1286.512</ele>
        <time>2025-07-27T18:15:23.097Z</time>
      </trkpt>
    </trkseg>
  </trk></gpx>