<?xml version="1.0" encoding="UTF-8"?>
<gpx creator="Wikiloc - https://www.wikiloc.com" version="1.1" xmlns="http://www.topografix.com/GPX/1/1" xmlns:xsi="http://www.w3.org/2001/XMLSchema-instance" xsi:schemaLocation="http://www.topografix.com/GPX/1/1 http://www.topografix.com/GPX/1/1/gpx.xsd">
  <metadata>
    <name>Wikiloc - Valle d’Aosta - Lago di Arpy e Punta della Croce</name>
    <link href="https://www.wikiloc.com/hiking-trails/valle-daosta-lago-di-arpy-e-punta-della-croce-86053099">
      <text>Valle d’Aosta - Lago di Arpy e Punta della Croce - Wikiloc on Wikiloc</text>
    </link>
    <time>2021-10-10T14:11:21Z</time>
  </metadata>
  <trk>
    <name>Valle d’Aosta - Lago di Arpy e Punta della Croce - Wikiloc</name>
    <cmt></cmt>
    <desc></desc>
    <trkseg>
      <trkpt lat="45.743026" lon="6.989540">
        <ele>1946.143</ele>
        <time>2021-10-10T09:35:17Z</time>
      </trkpt>
      <trkpt lat="45.743102" lon="6.989555">
        <ele>1946.564</ele>
        <time>2021-10-10T09:38:21Z</time>
      </trkpt>
      <trkpt lat="45.742857" lon="6.989474">
        <ele>1947.110</ele>
        <time>2021-10-10T09:38:44Z</time>
      </trkpt>
      <trkpt lat="45.742691" lon="6.989210">
        <ele>1947.908</ele>
        <time>2021-10-10T09:39:14Z</time>
      </trkpt>
      <trkpt lat="45.742485" lon="6.989260">
        <ele>1950.922</ele>
        <time>2021-10-10T09:39:31Z</time>
      </trkpt>
      <trkpt lat="45.741875" lon="6.988944">
        <ele>1958.220</ele>
        <time>2021-10-10T09:40:25Z</time>
      </trkpt>
      <trkpt lat="45.741517" lon="6.988180">
        <ele>1966.824</ele>
        <time>2021-10-10T09:41:22Z</time>
      </trkpt>
      <trkpt lat="45.741072" lon="6.987986">
        <ele>1971.259</ele>
        <time>2021-10-10T09:41:53Z</time>
      </trkpt>
      <trkpt lat="45.740657" lon="6.988246">
        <ele>1972.677</ele>
        <time>2021-10-10T09:42:28Z</time>
      </trkpt>
      <trkpt lat="45.740478" lon="6.987911">
        <ele>1974.854</ele>
        <time>2021-10-10T09:42:55Z</time>
      </trkpt>
      <trkpt lat="45.740329" lon="6.987862">
        <ele>1975.963</ele>
        <time>2021-10-10T09:43:04Z</time>
      </trkpt>
      <trkpt lat="45.739676" lon="6.986733">
        <ele>1980.343</ele>
        <time>2021-10-10T09:44:24Z</time>
      </trkpt>
      <trkpt lat="45.739191" lon="6.986901">
        <ele>1980.315</ele>
        <time>2021-10-10T09:45:05Z</time>
      </trkpt>
      <trkpt lat="45.739072" lon="6.987348">
        <ele>1980.565</ele>
        <time>2021-10-10T09:45:32Z</time>
      </trkpt>
      <trkpt lat="45.739254" lon="6.989746">
        <ele>1995.911</ele>
        <time>2021-10-10T09:48:11Z</time>
      </trkpt>
      <trkpt lat="45.739129" lon="6.990566">
        <ele>1996.008</ele>
        <time>2021-10-10T09:49:05Z</time>
      </trkpt>
      <trkpt lat="45.738928" lon="6.990903">
        <ele>1995.879</ele>
        <time>2021-10-10T09:49:30Z</time>
      </trkpt>
      <trkpt lat="45.738550" lon="6.991073">
        <ele>1993.627</ele>
        <time>2021-10-10T09:50:12Z</time>
      </trkpt>
      <trkpt lat="45.738362" lon="6.990941">
        <ele>1992.341</ele>
        <time>2021-10-10T09:50:29Z</time>
      </trkpt>
      <trkpt lat="45.738038" lon="6.990968">
        <ele>1992.756</ele>
        <time>2021-10-10T09:50:53Z</time>
      </trkpt>
      <trkpt lat="45.737798" lon="6.990840">
        <ele>1993.074</ele>
        <time>2021-10-10T09:51:10Z</time>
      </trkpt>
      <trkpt lat="45.737537" lon="6.990951">
        <ele>1993.181</ele>
        <time>2021-10-10T09:51:28Z</time>
      </trkpt>
      <trkpt lat="45.737318" lon="6.991238">
        <ele>1994.170</ele>
        <time>2021-10-10T09:51:50Z</time>
      </trkpt>
      <trkpt lat="45.737157" lon="6.992110">
        <ele>1994.910</ele>
        <time>2021-10-10T09:52:38Z</time>
      </trkpt>
      <trkpt lat="45.737199" lon="6.992391">
        <ele>1995.059</ele>
        <time>2021-10-10T09:52:52Z</time>
      </trkpt>
      <trkpt lat="45.737015" lon="6.992650">
        <ele>1996.103</ele>
        <time>2021-10-10T09:53:11Z</time>
      </trkpt>
      <trkpt lat="45.736813" lon="6.992641">
        <ele>1996.423</ele>
        <time>2021-10-10T09:53:27Z</time>
      </trkpt>
      <trkpt lat="45.736528" lon="6.992353">
        <ele>1997.308</ele>
        <time>2021-10-10T09:53:57Z</time>
      </trkpt>
      <trkpt lat="45.736364" lon="6.992468">
        <ele>1998.533</ele>
        <time>2021-10-10T09:54:14Z</time>
      </trkpt>
      <trkpt lat="45.736434" lon="6.992249">
        <ele>2000.881</ele>
        <time>2021-10-10T09:54:34Z</time>
      </trkpt>
      <trkpt lat="45.736672" lon="6.992128">
        <ele>2003.855</ele>
        <time>2021-10-10T09:54:55Z</time>
      </trkpt>
      <trkpt lat="45.736540" lon="6.991884">
        <ele>2006.820</ele>
        <time>2021-10-10T09:55:14Z</time>
      </trkpt>
      <trkpt lat="45.736402" lon="6.991840">
        <ele>2008.378</ele>
        <time>2021-10-10T09:55:24Z</time>
      </trkpt>
      <trkpt lat="45.736119" lon="6.991953">
        <ele>2010.515</ele>
        <time>2021-10-10T09:55:45Z</time>
      </trkpt>
      <trkpt lat="45.735848" lon="6.992300">
        <ele>2013.164</ele>
        <time>2021-10-10T09:56:17Z</time>
      </trkpt>
      <trkpt lat="45.735301" lon="6.992312">
        <ele>2012.194</ele>
        <time>2021-10-10T09:57:08Z</time>
      </trkpt>
      <trkpt lat="45.734894" lon="6.993275">
        <ele>2015.617</ele>
        <time>2021-10-10T09:58:18Z</time>
      </trkpt>
      <trkpt lat="45.734703" lon="6.994252">
        <ele>2020.387</ele>
        <time>2021-10-10T09:59:18Z</time>
      </trkpt>
      <trkpt lat="45.734249" lon="6.994667">
        <ele>2022.815</ele>
        <time>2021-10-10T10:00:02Z</time>
      </trkpt>
      <trkpt lat="45.733819" lon="6.995377">
        <ele>2023.908</ele>
        <time>2021-10-10T10:00:55Z</time>
      </trkpt>
      <trkpt lat="45.733326" lon="6.995705">
        <ele>2028.039</ele>
        <time>2021-10-10T10:01:45Z</time>
      </trkpt>
      <trkpt lat="45.733197" lon="6.995859">
        <ele>2027.717</ele>
        <time>2021-10-10T10:01:54Z</time>
      </trkpt>
      <trkpt lat="45.733294" lon="6.995940">
        <ele>2027.351</ele>
        <time>2021-10-10T10:02:12Z</time>
      </trkpt>
      <trkpt lat="45.732728" lon="6.996597">
        <ele>2028.326</ele>
        <time>2021-10-10T10:03:32Z</time>
      </trkpt>
      <trkpt lat="45.732569" lon="6.996585">
        <ele>2028.984</ele>
        <time>2021-10-10T10:03:48Z</time>
      </trkpt>
      <trkpt lat="45.732473" lon="6.996434">
        <ele>2030.071</ele>
        <time>2021-10-10T10:03:59Z</time>
      </trkpt>
      <trkpt lat="45.731856" lon="6.996354">
        <ele>2030.540</ele>
        <time>2021-10-10T10:04:48Z</time>
      </trkpt>
      <trkpt lat="45.731679" lon="6.996213">
        <ele>2030.760</ele>
        <time>2021-10-10T10:05:07Z</time>
      </trkpt>
      <trkpt lat="45.730985" lon="6.996567">
        <ele>2034.629</ele>
        <time>2021-10-10T10:06:12Z</time>
      </trkpt>
      <trkpt lat="45.730424" lon="6.996416">
        <ele>2036.800</ele>
        <time>2021-10-10T10:07:02Z</time>
      </trkpt>
      <trkpt lat="45.730152" lon="6.996828">
        <ele>2037.020</ele>
        <time>2021-10-10T10:07:37Z</time>
      </trkpt>
      <trkpt lat="45.729798" lon="6.997102">
        <ele>2036.508</ele>
        <time>2021-10-10T10:08:13Z</time>
      </trkpt>
      <trkpt lat="45.729092" lon="6.997170">
        <ele>2036.750</ele>
        <time>2021-10-10T10:09:53Z</time>
      </trkpt>
      <trkpt lat="45.728824" lon="6.997357">
        <ele>2037.018</ele>
        <time>2021-10-10T10:10:18Z</time>
      </trkpt>
      <trkpt lat="45.728574" lon="6.997304">
        <ele>2037.822</ele>
        <time>2021-10-10T10:10:41Z</time>
      </trkpt>
      <trkpt lat="45.728132" lon="6.996803">
        <ele>2045.277</ele>
        <time>2021-10-10T10:11:36Z</time>
      </trkpt>
      <trkpt lat="45.727563" lon="6.996643">
        <ele>2050.685</ele>
        <time>2021-10-10T10:12:51Z</time>
      </trkpt>
      <trkpt lat="45.726336" lon="6.997184">
        <ele>2052.932</ele>
        <time>2021-10-10T10:14:43Z</time>
      </trkpt>
      <trkpt lat="45.726073" lon="6.997398">
        <ele>2054.861</ele>
        <time>2021-10-10T10:15:12Z</time>
      </trkpt>
      <trkpt lat="45.725349" lon="6.997537">
        <ele>2055.511</ele>
        <time>2021-10-10T10:16:15Z</time>
      </trkpt>
      <trkpt lat="45.725022" lon="6.997887">
        <ele>2056.026</ele>
        <time>2021-10-10T10:16:49Z</time>
      </trkpt>
      <trkpt lat="45.724872" lon="6.998393">
        <ele>2057.147</ele>
        <time>2021-10-10T10:17:34Z</time>
      </trkpt>
      <trkpt lat="45.724819" lon="6.998353">
        <ele>2057.111</ele>
        <time>2021-10-10T10:18:56Z</time>
      </trkpt>
      <trkpt lat="45.724892" lon="6.998402">
        <ele>2057.408</ele>
        <time>2021-10-10T10:21:17Z</time>
      </trkpt>
      <trkpt lat="45.724807" lon="6.999142">
        <ele>2060.960</ele>
        <time>2021-10-10T10:22:14Z</time>
      </trkpt>
      <trkpt lat="45.724913" lon="6.999815">
        <ele>2069.988</ele>
        <time>2021-10-10T10:23:04Z</time>
      </trkpt>
      <trkpt lat="45.724721" lon="7.000197">
        <ele>2076.322</ele>
        <time>2021-10-10T10:23:51Z</time>
      </trkpt>
      <trkpt lat="45.724823" lon="7.000616">
        <ele>2077.027</ele>
        <time>2021-10-10T10:24:38Z</time>
      </trkpt>
      <trkpt lat="45.724898" lon="7.000569">
        <ele>2076.595</ele>
        <time>2021-10-10T10:25:42Z</time>
      </trkpt>
      <trkpt lat="45.724821" lon="7.000382">
        <ele>2076.292</ele>
        <time>2021-10-10T10:25:58Z</time>
      </trkpt>
      <trkpt lat="45.724326" lon="7.000098">
        <ele>2075.041</ele>
        <time>2021-10-10T10:31:46Z</time>
      </trkpt>
      <trkpt lat="45.723650" lon="6.998961">
        <ele>2072.361</ele>
        <time>2021-10-10T10:33:27Z</time>
      </trkpt>
      <trkpt lat="45.723374" lon="6.998865">
        <ele>2073.638</ele>
        <time>2021-10-10T10:34:16Z</time>
      </trkpt>
      <trkpt lat="45.723239" lon="6.998581">
        <ele>2076.670</ele>
        <time>2021-10-10T10:34:46Z</time>
      </trkpt>
      <trkpt lat="45.723122" lon="6.997829">
        <ele>2083.617</ele>
        <time>2021-10-10T10:35:43Z</time>
      </trkpt>
      <trkpt lat="45.721919" lon="6.996237">
        <ele>2100.208</ele>
        <time>2021-10-10T10:39:29Z</time>
      </trkpt>
      <trkpt lat="45.721909" lon="6.996007">
        <ele>2102.671</ele>
        <time>2021-10-10T10:39:52Z</time>
      </trkpt>
      <trkpt lat="45.721670" lon="6.996005">
        <ele>2106.559</ele>
        <time>2021-10-10T10:40:23Z</time>
      </trkpt>
      <trkpt lat="45.721687" lon="6.995902">
        <ele>2107.763</ele>
        <time>2021-10-10T10:43:54Z</time>
      </trkpt>
      <trkpt lat="45.721520" lon="6.995848">
        <ele>2108.498</ele>
        <time>2021-10-10T10:45:02Z</time>
      </trkpt>
      <trkpt lat="45.720789" lon="6.994574">
        <ele>2127.426</ele>
        <time>2021-10-10T10:47:21Z</time>
      </trkpt>
      <trkpt lat="45.720243" lon="6.993997">
        <ele>2145.153</ele>
        <time>2021-10-10T10:49:18Z</time>
      </trkpt>
      <trkpt lat="45.720369" lon="6.993792">
        <ele>2150.772</ele>
        <time>2021-10-10T10:49:50Z</time>
      </trkpt>
      <trkpt lat="45.720504" lon="6.993800">
        <ele>2152.872</ele>
        <time>2021-10-10T10:51:25Z</time>
      </trkpt>
      <trkpt lat="45.720332" lon="6.993270">
        <ele>2159.997</ele>
        <time>2021-10-10T10:52:11Z</time>
      </trkpt>
      <trkpt lat="45.720432" lon="6.992989">
        <ele>2161.223</ele>
        <time>2021-10-10T10:53:12Z</time>
      </trkpt>
      <trkpt lat="45.720599" lon="6.993048">
        <ele>2164.425</ele>
        <time>2021-10-10T10:54:05Z</time>
      </trkpt>
      <trkpt lat="45.720567" lon="6.992782">
        <ele>2170.808</ele>
        <time>2021-10-10T10:54:40Z</time>
      </trkpt>
      <trkpt lat="45.720692" lon="6.992616">
        <ele>2174.727</ele>
        <time>2021-10-10T10:55:45Z</time>
      </trkpt>
      <trkpt lat="45.720571" lon="6.992269">
        <ele>2180.945</ele>
        <time>2021-10-10T10:56:43Z</time>
      </trkpt>
      <trkpt lat="45.720767" lon="6.992297">
        <ele>2185.619</ele>
        <time>2021-10-10T10:57:39Z</time>
      </trkpt>
      <trkpt lat="45.720958" lon="6.991820">
        <ele>2200.464</ele>
        <time>2021-10-10T10:59:13Z</time>
      </trkpt>
      <trkpt lat="45.720681" lon="6.991010">
        <ele>2217.052</ele>
        <time>2021-10-10T11:01:30Z</time>
      </trkpt>
      <trkpt lat="45.720589" lon="6.990981">
        <ele>2219.329</ele>
        <time>2021-10-10T11:02:07Z</time>
      </trkpt>
      <trkpt lat="45.720594" lon="6.990779">
        <ele>2222.068</ele>
        <time>2021-10-10T11:02:33Z</time>
      </trkpt>
      <trkpt lat="45.720669" lon="6.990860">
        <ele>2223.498</ele>
        <time>2021-10-10T11:02:54Z</time>
      </trkpt>
      <trkpt lat="45.720910" lon="6.990785">
        <ele>2229.452</ele>
        <time>2021-10-10T11:04:28Z</time>
      </trkpt>
      <trkpt lat="45.720843" lon="6.990364">
        <ele>2239.053</ele>
        <time>2021-10-10T11:05:11Z</time>
      </trkpt>
      <trkpt lat="45.721087" lon="6.990365">
        <ele>2244.108</ele>
        <time>2021-10-10T11:07:47Z</time>
      </trkpt>
      <trkpt lat="45.721011" lon="6.990014">
        <ele>2248.508</ele>
        <time>2021-10-10T11:08:21Z</time>
      </trkpt>
      <trkpt lat="45.721289" lon="6.990003">
        <ele>2256.753</ele>
        <time>2021-10-10T11:09:27Z</time>
      </trkpt>
      <trkpt lat="45.721335" lon="6.989821">
        <ele>2260.791</ele>
        <time>2021-10-10T11:09:50Z</time>
      </trkpt>
      <trkpt lat="45.720858" lon="6.988255">
        <ele>2277.735</ele>
        <time>2021-10-10T11:12:15Z</time>
      </trkpt>
      <trkpt lat="45.721220" lon="6.988597">
        <ele>2285.770</ele>
        <time>2021-10-10T11:16:01Z</time>
      </trkpt>
      <trkpt lat="45.721097" lon="6.987913">
        <ele>2293.528</ele>
        <time>2021-10-10T11:17:00Z</time>
      </trkpt>
      <trkpt lat="45.720667" lon="6.987188">
        <ele>2308.875</ele>
        <time>2021-10-10T11:18:44Z</time>
      </trkpt>
      <trkpt lat="45.720555" lon="6.986215">
        <ele>2313.694</ele>
        <time>2021-10-10T11:20:20Z</time>
      </trkpt>
      <trkpt lat="45.720146" lon="6.985299">
        <ele>2326.764</ele>
        <time>2021-10-10T11:22:09Z</time>
      </trkpt>
      <trkpt lat="45.720005" lon="6.984134">
        <ele>2345.713</ele>
        <time>2021-10-10T11:26:35Z</time>
      </trkpt>
      <trkpt lat="45.719706" lon="6.983515">
        <ele>2360.443</ele>
        <time>2021-10-10T11:28:22Z</time>
      </trkpt>
      <trkpt lat="45.720279" lon="6.983884">
        <ele>2370.207</ele>
        <time>2021-10-10T11:29:47Z</time>
      </trkpt>
      <trkpt lat="45.720032" lon="6.983285">
        <ele>2374.008</ele>
        <time>2021-10-10T11:32:57Z</time>
      </trkpt>
      <trkpt lat="45.720170" lon="6.982658">
        <ele>2378.119</ele>
        <time>2021-10-10T11:35:44Z</time>
      </trkpt>
      <trkpt lat="45.720364" lon="6.982870">
        <ele>2377.537</ele>
        <time>2021-10-10T11:38:05Z</time>
      </trkpt>
      <trkpt lat="45.720317" lon="6.983307">
        <ele>2381.931</ele>
        <time>2021-10-10T11:43:08Z</time>
      </trkpt>
      <trkpt lat="45.721368" lon="6.984274">
        <ele>2394.066</ele>
        <time>2021-10-10T11:45:43Z</time>
      </trkpt>
      <trkpt lat="45.721826" lon="6.984379">
        <ele>2406.584</ele>
        <time>2021-10-10T11:47:04Z</time>
      </trkpt>
      <trkpt lat="45.722219" lon="6.984627">
        <ele>2416.521</ele>
        <time>2021-10-10T11:48:23Z</time>
      </trkpt>
      <trkpt lat="45.722411" lon="6.984605">
        <ele>2422.480</ele>
        <time>2021-10-10T11:48:56Z</time>
      </trkpt>
      <trkpt lat="45.722933" lon="6.985234">
        <ele>2435.410</ele>
        <time>2021-10-10T11:52:02Z</time>
      </trkpt>
      <trkpt lat="45.723114" lon="6.985112">
        <ele>2439.371</ele>
        <time>2021-10-10T11:52:32Z</time>
      </trkpt>
      <trkpt lat="45.723221" lon="6.984800">
        <ele>2446.541</ele>
        <time>2021-10-10T11:55:35Z</time>
      </trkpt>
      <trkpt lat="45.723110" lon="6.984862">
        <ele>2448.115</ele>
        <time>2021-10-10T12:29:35Z</time>
      </trkpt>
      <trkpt lat="45.723059" lon="6.985084">
        <ele>2446.208</ele>
        <time>2021-10-10T12:30:03Z</time>
      </trkpt>
      <trkpt lat="45.722880" lon="6.985177">
        <ele>2440.465</ele>
        <time>2021-10-10T12:30:23Z</time>
      </trkpt>
      <trkpt lat="45.722415" lon="6.984597">
        <ele>2427.073</ele>
        <time>2021-10-10T12:31:27Z</time>
      </trkpt>
      <trkpt lat="45.722229" lon="6.984619">
        <ele>2425.067</ele>
        <time>2021-10-10T12:31:47Z</time>
      </trkpt>
      <trkpt lat="45.721680" lon="6.984289">
        <ele>2409.582</ele>
        <time>2021-10-10T12:32:51Z</time>
      </trkpt>
      <trkpt lat="45.721502" lon="6.984385">
        <ele>2405.490</ele>
        <time>2021-10-10T12:33:10Z</time>
      </trkpt>
      <trkpt lat="45.720519" lon="6.983503">
        <ele>2386.957</ele>
        <time>2021-10-10T12:34:59Z</time>
      </trkpt>
      <trkpt lat="45.720195" lon="6.983047">
        <ele>2380.576</ele>
        <time>2021-10-10T12:35:37Z</time>
      </trkpt>
      <trkpt lat="45.720099" lon="6.983005">
        <ele>2379.566</ele>
        <time>2021-10-10T12:35:45Z</time>
      </trkpt>
      <trkpt lat="45.720031" lon="6.983098">
        <ele>2377.799</ele>
        <time>2021-10-10T12:37:24Z</time>
      </trkpt>
      <trkpt lat="45.720115" lon="6.983521">
        <ele>2374.907</ele>
        <time>2021-10-10T12:37:56Z</time>
      </trkpt>
      <trkpt lat="45.721191" lon="6.985214">
        <ele>2373.327</ele>
        <time>2021-10-10T12:40:09Z</time>
      </trkpt>
      <trkpt lat="45.721687" lon="6.986736">
        <ele>2370.708</ele>
        <time>2021-10-10T12:41:57Z</time>
      </trkpt>
      <trkpt lat="45.722249" lon="6.986979">
        <ele>2365.397</ele>
        <time>2021-10-10T12:42:54Z</time>
      </trkpt>
      <trkpt lat="45.722854" lon="6.987628">
        <ele>2360.675</ele>
        <time>2021-10-10T12:44:04Z</time>
      </trkpt>
      <trkpt lat="45.723269" lon="6.988371">
        <ele>2356.029</ele>
        <time>2021-10-10T12:45:02Z</time>
      </trkpt>
      <trkpt lat="45.723686" lon="6.990019">
        <ele>2343.354</ele>
        <time>2021-10-10T12:46:54Z</time>
      </trkpt>
      <trkpt lat="45.723562" lon="6.990932">
        <ele>2337.062</ele>
        <time>2021-10-10T12:47:48Z</time>
      </trkpt>
      <trkpt lat="45.723643" lon="6.991499">
        <ele>2333.869</ele>
        <time>2021-10-10T12:48:23Z</time>
      </trkpt>
      <trkpt lat="45.724027" lon="6.992376">
        <ele>2328.218</ele>
        <time>2021-10-10T12:50:05Z</time>
      </trkpt>
      <trkpt lat="45.724232" lon="6.992391">
        <ele>2326.858</ele>
        <time>2021-10-10T12:50:22Z</time>
      </trkpt>
      <trkpt lat="45.724419" lon="6.992667">
        <ele>2323.763</ele>
        <time>2021-10-10T12:50:51Z</time>
      </trkpt>
      <trkpt lat="45.724912" lon="6.992435">
        <ele>2319.044</ele>
        <time>2021-10-10T12:52:08Z</time>
      </trkpt>
      <trkpt lat="45.725601" lon="6.992339">
        <ele>2310.918</ele>
        <time>2021-10-10T12:53:10Z</time>
      </trkpt>
      <trkpt lat="45.725890" lon="6.992587">
        <ele>2306.108</ele>
        <time>2021-10-10T12:53:46Z</time>
      </trkpt>
      <trkpt lat="45.726175" lon="6.992534">
        <ele>2301.194</ele>
        <time>2021-10-10T12:54:16Z</time>
      </trkpt>
      <trkpt lat="45.726297" lon="6.992638">
        <ele>2299.372</ele>
        <time>2021-10-10T12:58:46Z</time>
      </trkpt>
      <trkpt lat="45.726533" lon="6.992372">
        <ele>2296.296</ele>
        <time>2021-10-10T13:07:42Z</time>
      </trkpt>
      <trkpt lat="45.727122" lon="6.992010">
        <ele>2291.871</ele>
        <time>2021-10-10T13:08:34Z</time>
      </trkpt>
      <trkpt lat="45.727462" lon="6.991955">
        <ele>2289.019</ele>
        <time>2021-10-10T13:09:02Z</time>
      </trkpt>
      <trkpt lat="45.727593" lon="6.992063">
        <ele>2288.176</ele>
        <time>2021-10-10T13:09:15Z</time>
      </trkpt>
      <trkpt lat="45.727800" lon="6.991863">
        <ele>2285.645</ele>
        <time>2021-10-10T13:09:43Z</time>
      </trkpt>
      <trkpt lat="45.728032" lon="6.991870">
        <ele>2283.245</ele>
        <time>2021-10-10T13:10:04Z</time>
      </trkpt>
      <trkpt lat="45.728138" lon="6.991726">
        <ele>2282.097</ele>
        <time>2021-10-10T13:10:19Z</time>
      </trkpt>
      <trkpt lat="45.728206" lon="6.991810">
        <ele>2281.223</ele>
        <time>2021-10-10T13:10:29Z</time>
      </trkpt>
      <trkpt lat="45.728355" lon="6.991782">
        <ele>2279.125</ele>
        <time>2021-10-10T13:10:46Z</time>
      </trkpt>
      <trkpt lat="45.728443" lon="6.991613">
        <ele>2277.708</ele>
        <time>2021-10-10T13:11:02Z</time>
      </trkpt>
      <trkpt lat="45.728914" lon="6.991285">
        <ele>2271.867</ele>
        <time>2021-10-10T13:11:43Z</time>
      </trkpt>
      <trkpt lat="45.729598" lon="6.991223">
        <ele>2264.885</ele>
        <time>2021-10-10T13:12:40Z</time>
      </trkpt>
      <trkpt lat="45.729756" lon="6.991395">
        <ele>2263.689</ele>
        <time>2021-10-10T13:13:05Z</time>
      </trkpt>
      <trkpt lat="45.729607" lon="6.991256">
        <ele>2259.274</ele>
        <time>2021-10-10T13:13:23Z</time>
      </trkpt>
      <trkpt lat="45.728889" lon="6.991637">
        <ele>2252.922</ele>
        <time>2021-10-10T13:16:15Z</time>
      </trkpt>
      <trkpt lat="45.728640" lon="6.992099">
        <ele>2250.379</ele>
        <time>2021-10-10T13:16:53Z</time>
      </trkpt>
      <trkpt lat="45.727760" lon="6.993165">
        <ele>2239.628</ele>
        <time>2021-10-10T13:18:33Z</time>
      </trkpt>
      <trkpt lat="45.728955" lon="6.992317">
        <ele>2225.588</ele>
        <time>2021-10-10T13:20:27Z</time>
      </trkpt>
      <trkpt lat="45.730415" lon="6.992409">
        <ele>2208.161</ele>
        <time>2021-10-10T13:23:06Z</time>
      </trkpt>
      <trkpt lat="45.731395" lon="6.991670">
        <ele>2196.321</ele>
        <time>2021-10-10T13:24:51Z</time>
      </trkpt>
      <trkpt lat="45.731844" lon="6.991976">
        <ele>2191.613</ele>
        <time>2021-10-10T13:25:41Z</time>
      </trkpt>
      <trkpt lat="45.732156" lon="6.992014">
        <ele>2187.508</ele>
        <time>2021-10-10T13:26:20Z</time>
      </trkpt>
      <trkpt lat="45.732734" lon="6.991769">
        <ele>2180.354</ele>
        <time>2021-10-10T13:27:21Z</time>
      </trkpt>
      <trkpt lat="45.732389" lon="6.992197">
        <ele>2174.112</ele>
        <time>2021-10-10T13:28:14Z</time>
      </trkpt>
      <trkpt lat="45.732151" lon="6.992293">
        <ele>2170.976</ele>
        <time>2021-10-10T13:28:40Z</time>
      </trkpt>
      <trkpt lat="45.731991" lon="6.992664">
        <ele>2168.831</ele>
        <time>2021-10-10T13:29:08Z</time>
      </trkpt>
      <trkpt lat="45.731794" lon="6.992843">
        <ele>2165.579</ele>
        <time>2021-10-10T13:29:35Z</time>
      </trkpt>
      <trkpt lat="45.731642" lon="6.992844">
        <ele>2162.936</ele>
        <time>2021-10-10T13:29:53Z</time>
      </trkpt>
      <trkpt lat="45.731641" lon="6.993039">
        <ele>2161.365</ele>
        <time>2021-10-10T13:30:06Z</time>
      </trkpt>
      <trkpt lat="45.731737" lon="6.993094">
        <ele>2160.045</ele>
        <time>2021-10-10T13:30:23Z</time>
      </trkpt>
      <trkpt lat="45.732398" lon="6.992906">
        <ele>2151.417</ele>
        <time>2021-10-10T13:31:31Z</time>
      </trkpt>
      <trkpt lat="45.732814" lon="6.992929">
        <ele>2146.787</ele>
        <time>2021-10-10T13:32:12Z</time>
      </trkpt>
      <trkpt lat="45.733155" lon="6.993073">
        <ele>2142.915</ele>
        <time>2021-10-10T13:32:51Z</time>
      </trkpt>
      <trkpt lat="45.733388" lon="6.992855">
        <ele>2140.308</ele>
        <time>2021-10-10T13:33:18Z</time>
      </trkpt>
      <trkpt lat="45.733402" lon="6.992924">
        <ele>2139.839</ele>
        <time>2021-10-10T13:33:28Z</time>
      </trkpt>
      <trkpt lat="45.733163" lon="6.993161">
        <ele>2136.737</ele>
        <time>2021-10-10T13:34:00Z</time>
      </trkpt>
      <trkpt lat="45.732189" lon="6.993323">
        <ele>2130.911</ele>
        <time>2021-10-10T13:36:28Z</time>
      </trkpt>
      <trkpt lat="45.731769" lon="6.993963">
        <ele>2127.086</ele>
        <time>2021-10-10T13:37:26Z</time>
      </trkpt>
      <trkpt lat="45.731751" lon="6.994181">
        <ele>2125.874</ele>
        <time>2021-10-10T13:37:39Z</time>
      </trkpt>
      <trkpt lat="45.731979" lon="6.994153">
        <ele>2122.161</ele>
        <time>2021-10-10T13:38:06Z</time>
      </trkpt>
      <trkpt lat="45.732287" lon="6.993821">
        <ele>2117.410</ele>
        <time>2021-10-10T13:38:46Z</time>
      </trkpt>
      <trkpt lat="45.732820" lon="6.993786">
        <ele>2111.440</ele>
        <time>2021-10-10T13:39:40Z</time>
      </trkpt>
      <trkpt lat="45.733392" lon="6.994189">
        <ele>2106.654</ele>
        <time>2021-10-10T13:40:42Z</time>
      </trkpt>
      <trkpt lat="45.733593" lon="6.994013">
        <ele>2104.556</ele>
        <time>2021-10-10T13:41:01Z</time>
      </trkpt>
      <trkpt lat="45.733643" lon="6.993746">
        <ele>2102.911</ele>
        <time>2021-10-10T13:41:27Z</time>
      </trkpt>
      <trkpt lat="45.733980" lon="6.993189">
        <ele>2097.608</ele>
        <time>2021-10-10T13:42:10Z</time>
      </trkpt>
      <trkpt lat="45.734436" lon="6.991578">
        <ele>2082.313</ele>
        <time>2021-10-10T13:44:20Z</time>
      </trkpt>
      <trkpt lat="45.734697" lon="6.991407">
        <ele>2081.081</ele>
        <time>2021-10-10T13:44:46Z</time>
      </trkpt>
      <trkpt lat="45.735090" lon="6.989889">
        <ele>2069.875</ele>
        <time>2021-10-10T13:46:41Z</time>
      </trkpt>
      <trkpt lat="45.735196" lon="6.990157">
        <ele>2066.480</ele>
        <time>2021-10-10T13:47:15Z</time>
      </trkpt>
      <trkpt lat="45.735274" lon="6.990157">
        <ele>2064.798</ele>
        <time>2021-10-10T13:47:24Z</time>
      </trkpt>
      <trkpt lat="45.735518" lon="6.988531">
        <ele>2051.345</ele>
        <time>2021-10-10T13:49:22Z</time>
      </trkpt>
      <trkpt lat="45.735702" lon="6.988622">
        <ele>2048.584</ele>
        <time>2021-10-10T13:50:48Z</time>
      </trkpt>
      <trkpt lat="45.735806" lon="6.988842">
        <ele>2047.444</ele>
        <time>2021-10-10T13:51:01Z</time>
      </trkpt>
      <trkpt lat="45.735809" lon="6.989557">
        <ele>2046.845</ele>
        <time>2021-10-10T13:51:47Z</time>
      </trkpt>
      <trkpt lat="45.736021" lon="6.989737">
        <ele>2045.447</ele>
        <time>2021-10-10T13:52:07Z</time>
      </trkpt>
      <trkpt lat="45.736092" lon="6.989983">
        <ele>2043.411</ele>
        <time>2021-10-10T13:52:27Z</time>
      </trkpt>
      <trkpt lat="45.736344" lon="6.990091">
        <ele>2041.308</ele>
        <time>2021-10-10T13:52:50Z</time>
      </trkpt>
      <trkpt lat="45.736555" lon="6.989889">
        <ele>2039.672</ele>
        <time>2021-10-10T13:53:12Z</time>
      </trkpt>
      <trkpt lat="45.736806" lon="6.989905">
        <ele>2036.830</ele>
        <time>2021-10-10T13:53:39Z</time>
      </trkpt>
      <trkpt lat="45.737090" lon="6.988694">
        <ele>2027.244</ele>
        <time>2021-10-10T13:55:09Z</time>
      </trkpt>
      <trkpt lat="45.737162" lon="6.988527">
        <ele>2025.439</ele>
        <time>2021-10-10T13:55:25Z</time>
      </trkpt>
      <trkpt lat="45.737301" lon="6.988491">
        <ele>2023.197</ele>
        <time>2021-10-10T13:55:42Z</time>
      </trkpt>
      <trkpt lat="45.737756" lon="6.989033">
        <ele>2018.424</ele>
        <time>2021-10-10T13:56:56Z</time>
      </trkpt>
      <trkpt lat="45.738347" lon="6.990245">
        <ele>2013.043</ele>
        <time>2021-10-10T13:58:38Z</time>
      </trkpt>
      <trkpt lat="45.738752" lon="6.990657">
        <ele>2010.783</ele>
        <time>2021-10-10T13:59:24Z</time>
      </trkpt>
      <trkpt lat="45.738898" lon="6.990663">
        <ele>2009.774</ele>
        <time>2021-10-10T13:59:37Z</time>
      </trkpt>
      <trkpt lat="45.739078" lon="6.990522">
        <ele>2008.156</ele>
        <time>2021-10-10T13:59:56Z</time>
      </trkpt>
      <trkpt lat="45.739284" lon="6.989716">
        <ele>2002.621</ele>
        <time>2021-10-10T14:01:07Z</time>
      </trkpt>
      <trkpt lat="45.739168" lon="6.987318">
        <ele>1988.308</ele>
        <time>2021-10-10T14:03:43Z</time>
      </trkpt>
      <trkpt lat="45.739247" lon="6.987052">
        <ele>1986.845</ele>
        <time>2021-10-10T14:04:04Z</time>
      </trkpt>
      <trkpt lat="45.739624" lon="6.986866">
        <ele>1986.913</ele>
        <time>2021-10-10T14:04:43Z</time>
      </trkpt>
      <trkpt lat="45.740688" lon="6.988398">
        <ele>1980.757</ele>
        <time>2021-10-10T14:06:59Z</time>
      </trkpt>
      <trkpt lat="45.741157" lon="6.988218">
        <ele>1977.972</ele>
        <time>2021-10-10T14:07:41Z</time>
      </trkpt>
      <trkpt lat="45.741385" lon="6.988291">
        <ele>1976.330</ele>
        <time>2021-10-10T14:08:09Z</time>
      </trkpt>
      <trkpt lat="45.741571" lon="6.988455">
        <ele>1973.977</ele>
        <time>2021-10-10T14:08:33Z</time>
      </trkpt>
      <trkpt lat="45.741740" lon="6.988939">
        <ele>1969.596</ele>
        <time>2021-10-10T14:09:15Z</time>
      </trkpt>
      <trkpt lat="45.741985" lon="6.989197">
        <ele>1966.256</ele>
        <time>2021-10-10T14:09:45Z</time>
      </trkpt>
      <trkpt lat="45.742847" lon="6.989442">
        <ele>1955.764</ele>
        <time>2021-10-10T14:11:21Z</time>
      </trkpt>
    </trkseg>
  </trk></gpx>