<?xml version="1.0" encoding="UTF-8"?>
<gpx creator="Wikiloc - https://www.wikiloc.com" version="1.1" xmlns="http://www.topografix.com/GPX/1/1" xmlns:xsi="http://www.w3.org/2001/XMLSchema-instance" xsi:schemaLocation="http://www.topografix.com/GPX/1/1 http://www.topografix.com/GPX/1/1/gpx.xsd">
  <metadata>
    <name>Wikiloc - Via degli Dei tappa 4 di 7: Madonna dei Fornelli - Monte di ...</name>
    <link href="https://www.wikiloc.com/hiking-trails/via-degli-dei-tappa-4-di-7-madonna-dei-fornelli-monte-di-fo-116680665">
      <text>Via degli Dei tappa 4 di 7: Madonna dei Fornelli - Monte di ... on Wikiloc</text>
    </link>
    <time>2022-10-18T15:24:17Z</time>
  </metadata>
  <trk>
    <name>Via degli Dei tappa 4 di 7: Madonna dei Fornelli - Monte di ... - Wikiloc</name>
    <cmt></cmt>
    <desc></desc>
    <trkseg>
      <trkpt lat="44.200451" lon="11.260445">
        <ele>796.848</ele>
        <time>2022-10-18T07:56:11Z</time>
      </trkpt>
      <trkpt lat="44.199831" lon="11.260926">
        <ele>803.061</ele>
        <time>2022-10-18T08:00:17Z</time>
      </trkpt>
      <trkpt lat="44.199149" lon="11.260351">
        <ele>812.817</ele>
        <time>2022-10-18T08:02:01Z</time>
      </trkpt>
      <trkpt lat="44.199057" lon="11.260484">
        <ele>816.309</ele>
        <time>2022-10-18T08:02:16Z</time>
      </trkpt>
      <trkpt lat="44.199096" lon="11.260967">
        <ele>814.115</ele>
        <time>2022-10-18T08:02:59Z</time>
      </trkpt>
      <trkpt lat="44.198204" lon="11.259824">
        <ele>837.125</ele>
        <time>2022-10-18T08:05:28Z</time>
      </trkpt>
      <trkpt lat="44.198210" lon="11.260293">
        <ele>838.790</ele>
        <time>2022-10-18T08:06:06Z</time>
      </trkpt>
      <trkpt lat="44.197959" lon="11.259973">
        <ele>842.720</ele>
        <time>2022-10-18T08:07:08Z</time>
      </trkpt>
      <trkpt lat="44.197709" lon="11.260263">
        <ele>853.862</ele>
        <time>2022-10-18T08:08:22Z</time>
      </trkpt>
      <trkpt lat="44.197171" lon="11.260429">
        <ele>869.144</ele>
        <time>2022-10-18T08:11:51Z</time>
      </trkpt>
      <trkpt lat="44.196857" lon="11.260380">
        <ele>875.120</ele>
        <time>2022-10-18T08:13:10Z</time>
      </trkpt>
      <trkpt lat="44.195861" lon="11.261069">
        <ele>892.530</ele>
        <time>2022-10-18T08:15:45Z</time>
      </trkpt>
      <trkpt lat="44.195485" lon="11.261133">
        <ele>904.069</ele>
        <time>2022-10-18T08:16:46Z</time>
      </trkpt>
      <trkpt lat="44.195081" lon="11.261670">
        <ele>914.693</ele>
        <time>2022-10-18T08:18:20Z</time>
      </trkpt>
      <trkpt lat="44.194781" lon="11.261289">
        <ele>918.365</ele>
        <time>2022-10-18T08:19:47Z</time>
      </trkpt>
      <trkpt lat="44.194498" lon="11.261207">
        <ele>921.121</ele>
        <time>2022-10-18T08:21:01Z</time>
      </trkpt>
      <trkpt lat="44.193914" lon="11.260676">
        <ele>928.409</ele>
        <time>2022-10-18T08:22:23Z</time>
      </trkpt>
      <trkpt lat="44.192920" lon="11.258827">
        <ele>944.120</ele>
        <time>2022-10-18T08:26:11Z</time>
      </trkpt>
      <trkpt lat="44.191986" lon="11.259129">
        <ele>947.480</ele>
        <time>2022-10-18T08:28:17Z</time>
      </trkpt>
      <trkpt lat="44.191527" lon="11.259539">
        <ele>951.585</ele>
        <time>2022-10-18T08:29:15Z</time>
      </trkpt>
      <trkpt lat="44.191379" lon="11.259524">
        <ele>951.735</ele>
        <time>2022-10-18T08:29:28Z</time>
      </trkpt>
      <trkpt lat="44.191291" lon="11.258487">
        <ele>958.387</ele>
        <time>2022-10-18T08:31:02Z</time>
      </trkpt>
      <trkpt lat="44.190857" lon="11.257929">
        <ele>971.969</ele>
        <time>2022-10-18T08:32:09Z</time>
      </trkpt>
      <trkpt lat="44.190819" lon="11.257130">
        <ele>973.145</ele>
        <time>2022-10-18T08:34:17Z</time>
      </trkpt>
      <trkpt lat="44.190238" lon="11.257362">
        <ele>989.025</ele>
        <time>2022-10-18T08:35:51Z</time>
      </trkpt>
      <trkpt lat="44.189484" lon="11.257289">
        <ele>997.024</ele>
        <time>2022-10-18T08:37:56Z</time>
      </trkpt>
      <trkpt lat="44.189259" lon="11.257068">
        <ele>1000.892</ele>
        <time>2022-10-18T08:38:42Z</time>
      </trkpt>
      <trkpt lat="44.189119" lon="11.257091">
        <ele>1004.273</ele>
        <time>2022-10-18T08:39:04Z</time>
      </trkpt>
      <trkpt lat="44.189016" lon="11.256869">
        <ele>1007.520</ele>
        <time>2022-10-18T08:39:33Z</time>
      </trkpt>
      <trkpt lat="44.187065" lon="11.256108">
        <ele>1040.809</ele>
        <time>2022-10-18T08:46:07Z</time>
      </trkpt>
      <trkpt lat="44.186534" lon="11.255718">
        <ele>1043.180</ele>
        <time>2022-10-18T08:48:15Z</time>
      </trkpt>
      <trkpt lat="44.186102" lon="11.254971">
        <ele>1049.340</ele>
        <time>2022-10-18T08:50:08Z</time>
      </trkpt>
      <trkpt lat="44.185344" lon="11.254619">
        <ele>1062.075</ele>
        <time>2022-10-18T08:52:02Z</time>
      </trkpt>
      <trkpt lat="44.185397" lon="11.254464">
        <ele>1061.215</ele>
        <time>2022-10-18T08:54:20Z</time>
      </trkpt>
      <trkpt lat="44.184255" lon="11.254435">
        <ele>1074.217</ele>
        <time>2022-10-18T08:57:16Z</time>
      </trkpt>
      <trkpt lat="44.183739" lon="11.254670">
        <ele>1078.419</ele>
        <time>2022-10-18T08:58:15Z</time>
      </trkpt>
      <trkpt lat="44.183454" lon="11.254945">
        <ele>1080.125</ele>
        <time>2022-10-18T08:59:52Z</time>
      </trkpt>
      <trkpt lat="44.183171" lon="11.254827">
        <ele>1085.795</ele>
        <time>2022-10-18T09:00:30Z</time>
      </trkpt>
      <trkpt lat="44.183026" lon="11.254405">
        <ele>1087.644</ele>
        <time>2022-10-18T09:01:51Z</time>
      </trkpt>
      <trkpt lat="44.182722" lon="11.254170">
        <ele>1096.446</ele>
        <time>2022-10-18T09:02:19Z</time>
      </trkpt>
      <trkpt lat="44.182663" lon="11.253925">
        <ele>1097.788</ele>
        <time>2022-10-18T09:02:36Z</time>
      </trkpt>
      <trkpt lat="44.182804" lon="11.253756">
        <ele>1091.016</ele>
        <time>2022-10-18T09:02:58Z</time>
      </trkpt>
      <trkpt lat="44.181922" lon="11.253656">
        <ele>1106.209</ele>
        <time>2022-10-18T09:05:54Z</time>
      </trkpt>
      <trkpt lat="44.181633" lon="11.254997">
        <ele>1125.315</ele>
        <time>2022-10-18T09:08:36Z</time>
      </trkpt>
      <trkpt lat="44.181436" lon="11.255196">
        <ele>1128.065</ele>
        <time>2022-10-18T09:09:07Z</time>
      </trkpt>
      <trkpt lat="44.180611" lon="11.255359">
        <ele>1135.440</ele>
        <time>2022-10-18T09:10:36Z</time>
      </trkpt>
      <trkpt lat="44.179922" lon="11.254777">
        <ele>1130.460</ele>
        <time>2022-10-18T09:11:59Z</time>
      </trkpt>
      <trkpt lat="44.178655" lon="11.254270">
        <ele>1126.532</ele>
        <time>2022-10-18T09:14:04Z</time>
      </trkpt>
      <trkpt lat="44.178331" lon="11.253873">
        <ele>1133.144</ele>
        <time>2022-10-18T09:14:53Z</time>
      </trkpt>
      <trkpt lat="44.177738" lon="11.253532">
        <ele>1138.630</ele>
        <time>2022-10-18T09:16:08Z</time>
      </trkpt>
      <trkpt lat="44.177385" lon="11.253076">
        <ele>1140.410</ele>
        <time>2022-10-18T09:17:00Z</time>
      </trkpt>
      <trkpt lat="44.176933" lon="11.253288">
        <ele>1143.639</ele>
        <time>2022-10-18T09:19:11Z</time>
      </trkpt>
      <trkpt lat="44.176612" lon="11.253717">
        <ele>1144.327</ele>
        <time>2022-10-18T09:20:00Z</time>
      </trkpt>
      <trkpt lat="44.176230" lon="11.253762">
        <ele>1141.268</ele>
        <time>2022-10-18T09:21:15Z</time>
      </trkpt>
      <trkpt lat="44.175702" lon="11.254323">
        <ele>1138.214</ele>
        <time>2022-10-18T09:23:02Z</time>
      </trkpt>
      <trkpt lat="44.174962" lon="11.254388">
        <ele>1128.409</ele>
        <time>2022-10-18T09:24:14Z</time>
      </trkpt>
      <trkpt lat="44.174759" lon="11.254189">
        <ele>1122.763</ele>
        <time>2022-10-18T09:24:43Z</time>
      </trkpt>
      <trkpt lat="44.174424" lon="11.254217">
        <ele>1120.283</ele>
        <time>2022-10-18T09:25:20Z</time>
      </trkpt>
      <trkpt lat="44.174205" lon="11.254053">
        <ele>1114.298</ele>
        <time>2022-10-18T09:25:46Z</time>
      </trkpt>
      <trkpt lat="44.174066" lon="11.254147">
        <ele>1113.028</ele>
        <time>2022-10-18T09:26:00Z</time>
      </trkpt>
      <trkpt lat="44.173944" lon="11.254995">
        <ele>1113.910</ele>
        <time>2022-10-18T09:27:12Z</time>
      </trkpt>
      <trkpt lat="44.173141" lon="11.255779">
        <ele>1098.562</ele>
        <time>2022-10-18T09:29:02Z</time>
      </trkpt>
      <trkpt lat="44.172363" lon="11.255835">
        <ele>1095.018</ele>
        <time>2022-10-18T09:30:21Z</time>
      </trkpt>
      <trkpt lat="44.171858" lon="11.257091">
        <ele>1085.858</ele>
        <time>2022-10-18T09:32:12Z</time>
      </trkpt>
      <trkpt lat="44.171282" lon="11.257896">
        <ele>1083.977</ele>
        <time>2022-10-18T09:33:33Z</time>
      </trkpt>
      <trkpt lat="44.170764" lon="11.257988">
        <ele>1079.249</ele>
        <time>2022-10-18T09:41:31Z</time>
      </trkpt>
      <trkpt lat="44.170477" lon="11.258193">
        <ele>1072.602</ele>
        <time>2022-10-18T09:41:55Z</time>
      </trkpt>
      <trkpt lat="44.170539" lon="11.258310">
        <ele>1072.022</ele>
        <time>2022-10-18T09:42:40Z</time>
      </trkpt>
      <trkpt lat="44.170231" lon="11.258136">
        <ele>1068.909</ele>
        <time>2022-10-18T09:43:26Z</time>
      </trkpt>
      <trkpt lat="44.169503" lon="11.258407">
        <ele>1068.215</ele>
        <time>2022-10-18T09:44:28Z</time>
      </trkpt>
      <trkpt lat="44.169195" lon="11.258330">
        <ele>1067.995</ele>
        <time>2022-10-18T09:44:49Z</time>
      </trkpt>
      <trkpt lat="44.168555" lon="11.259103">
        <ele>1063.960</ele>
        <time>2022-10-18T09:46:28Z</time>
      </trkpt>
      <trkpt lat="44.168121" lon="11.259122">
        <ele>1067.660</ele>
        <time>2022-10-18T09:47:18Z</time>
      </trkpt>
      <trkpt lat="44.167757" lon="11.259476">
        <ele>1073.242</ele>
        <time>2022-10-18T09:48:06Z</time>
      </trkpt>
      <trkpt lat="44.167069" lon="11.259711">
        <ele>1076.874</ele>
        <time>2022-10-18T09:49:06Z</time>
      </trkpt>
      <trkpt lat="44.166420" lon="11.260184">
        <ele>1081.970</ele>
        <time>2022-10-18T09:50:10Z</time>
      </trkpt>
      <trkpt lat="44.165827" lon="11.260286">
        <ele>1084.090</ele>
        <time>2022-10-18T09:51:12Z</time>
      </trkpt>
      <trkpt lat="44.165369" lon="11.260589">
        <ele>1085.559</ele>
        <time>2022-10-18T09:51:57Z</time>
      </trkpt>
      <trkpt lat="44.164516" lon="11.260672">
        <ele>1091.151</ele>
        <time>2022-10-18T09:53:21Z</time>
      </trkpt>
      <trkpt lat="44.164159" lon="11.261196">
        <ele>1096.001</ele>
        <time>2022-10-18T09:54:08Z</time>
      </trkpt>
      <trkpt lat="44.163506" lon="11.261509">
        <ele>1100.811</ele>
        <time>2022-10-18T09:55:18Z</time>
      </trkpt>
      <trkpt lat="44.162815" lon="11.261720">
        <ele>1103.809</ele>
        <time>2022-10-18T09:56:29Z</time>
      </trkpt>
      <trkpt lat="44.161849" lon="11.261605">
        <ele>1106.816</ele>
        <time>2022-10-18T09:57:54Z</time>
      </trkpt>
      <trkpt lat="44.161674" lon="11.261816">
        <ele>1106.986</ele>
        <time>2022-10-18T09:59:08Z</time>
      </trkpt>
      <trkpt lat="44.161600" lon="11.261658">
        <ele>1107.441</ele>
        <time>2022-10-18T10:05:19Z</time>
      </trkpt>
      <trkpt lat="44.161388" lon="11.262396">
        <ele>1111.011</ele>
        <time>2022-10-18T10:06:53Z</time>
      </trkpt>
      <trkpt lat="44.161116" lon="11.262661">
        <ele>1114.333</ele>
        <time>2022-10-18T10:08:05Z</time>
      </trkpt>
      <trkpt lat="44.160586" lon="11.262457">
        <ele>1120.195</ele>
        <time>2022-10-18T10:09:09Z</time>
      </trkpt>
      <trkpt lat="44.160124" lon="11.262749">
        <ele>1124.151</ele>
        <time>2022-10-18T10:10:10Z</time>
      </trkpt>
      <trkpt lat="44.159776" lon="11.262670">
        <ele>1125.321</ele>
        <time>2022-10-18T10:11:28Z</time>
      </trkpt>
      <trkpt lat="44.158696" lon="11.261956">
        <ele>1132.320</ele>
        <time>2022-10-18T10:13:56Z</time>
      </trkpt>
      <trkpt lat="44.158276" lon="11.261874">
        <ele>1137.835</ele>
        <time>2022-10-18T10:15:01Z</time>
      </trkpt>
      <trkpt lat="44.157932" lon="11.261515">
        <ele>1140.386</ele>
        <time>2022-10-18T10:15:54Z</time>
      </trkpt>
      <trkpt lat="44.157009" lon="11.261131">
        <ele>1144.714</ele>
        <time>2022-10-18T10:18:08Z</time>
      </trkpt>
      <trkpt lat="44.156573" lon="11.261241">
        <ele>1142.809</ele>
        <time>2022-10-18T10:19:07Z</time>
      </trkpt>
      <trkpt lat="44.156046" lon="11.261589">
        <ele>1139.384</ele>
        <time>2022-10-18T10:20:06Z</time>
      </trkpt>
      <trkpt lat="44.156068" lon="11.261954">
        <ele>1145.724</ele>
        <time>2022-10-18T10:21:11Z</time>
      </trkpt>
      <trkpt lat="44.155826" lon="11.262202">
        <ele>1147.559</ele>
        <time>2022-10-18T10:22:08Z</time>
      </trkpt>
      <trkpt lat="44.155535" lon="11.262234">
        <ele>1142.759</ele>
        <time>2022-10-18T10:23:14Z</time>
      </trkpt>
      <trkpt lat="44.155555" lon="11.262317">
        <ele>1143.611</ele>
        <time>2022-10-18T10:23:16Z</time>
      </trkpt>
      <trkpt lat="44.155051" lon="11.262273">
        <ele>1133.823</ele>
        <time>2022-10-18T10:24:43Z</time>
      </trkpt>
      <trkpt lat="44.154810" lon="11.262017">
        <ele>1126.189</ele>
        <time>2022-10-18T10:25:54Z</time>
      </trkpt>
      <trkpt lat="44.154510" lon="11.262252">
        <ele>1121.589</ele>
        <time>2022-10-18T10:27:02Z</time>
      </trkpt>
      <trkpt lat="44.154124" lon="11.262189">
        <ele>1112.828</ele>
        <time>2022-10-18T10:28:31Z</time>
      </trkpt>
      <trkpt lat="44.153936" lon="11.262389">
        <ele>1109.978</ele>
        <time>2022-10-18T10:29:02Z</time>
      </trkpt>
      <trkpt lat="44.153107" lon="11.262415">
        <ele>1099.633</ele>
        <time>2022-10-18T10:30:20Z</time>
      </trkpt>
      <trkpt lat="44.152731" lon="11.262646">
        <ele>1097.426</ele>
        <time>2022-10-18T10:31:09Z</time>
      </trkpt>
      <trkpt lat="44.152438" lon="11.262665">
        <ele>1097.809</ele>
        <time>2022-10-18T10:31:37Z</time>
      </trkpt>
      <trkpt lat="44.151559" lon="11.262045">
        <ele>1088.818</ele>
        <time>2022-10-18T10:33:21Z</time>
      </trkpt>
      <trkpt lat="44.151023" lon="11.261870">
        <ele>1091.258</ele>
        <time>2022-10-18T10:34:32Z</time>
      </trkpt>
      <trkpt lat="44.150067" lon="11.262020">
        <ele>1094.123</ele>
        <time>2022-10-18T10:36:05Z</time>
      </trkpt>
      <trkpt lat="44.148098" lon="11.261507">
        <ele>1081.653</ele>
        <time>2022-10-18T10:40:10Z</time>
      </trkpt>
      <trkpt lat="44.147940" lon="11.261269">
        <ele>1078.175</ele>
        <time>2022-10-18T10:40:50Z</time>
      </trkpt>
      <trkpt lat="44.147840" lon="11.260047">
        <ele>1066.677</ele>
        <time>2022-10-18T10:43:14Z</time>
      </trkpt>
      <trkpt lat="44.146749" lon="11.261063">
        <ele>1060.613</ele>
        <time>2022-10-18T10:48:15Z</time>
      </trkpt>
      <trkpt lat="44.146792" lon="11.261573">
        <ele>1065.443</ele>
        <time>2022-10-18T10:48:56Z</time>
      </trkpt>
      <trkpt lat="44.146163" lon="11.262642">
        <ele>1063.142</ele>
        <time>2022-10-18T10:50:39Z</time>
      </trkpt>
      <trkpt lat="44.145852" lon="11.262898">
        <ele>1061.996</ele>
        <time>2022-10-18T10:51:32Z</time>
      </trkpt>
      <trkpt lat="44.145389" lon="11.263861">
        <ele>1060.431</ele>
        <time>2022-10-18T10:52:48Z</time>
      </trkpt>
      <trkpt lat="44.144807" lon="11.263876">
        <ele>1047.224</ele>
        <time>2022-10-18T10:53:59Z</time>
      </trkpt>
      <trkpt lat="44.144357" lon="11.264298">
        <ele>1050.409</ele>
        <time>2022-10-18T10:54:56Z</time>
      </trkpt>
      <trkpt lat="44.144374" lon="11.264836">
        <ele>1052.490</ele>
        <time>2022-10-18T10:55:41Z</time>
      </trkpt>
      <trkpt lat="44.143691" lon="11.265152">
        <ele>1042.960</ele>
        <time>2022-10-18T10:57:11Z</time>
      </trkpt>
      <trkpt lat="44.142961" lon="11.265954">
        <ele>1038.185</ele>
        <time>2022-10-18T10:58:32Z</time>
      </trkpt>
      <trkpt lat="44.142549" lon="11.266222">
        <ele>1038.775</ele>
        <time>2022-10-18T10:59:13Z</time>
      </trkpt>
      <trkpt lat="44.142225" lon="11.266113">
        <ele>1043.927</ele>
        <time>2022-10-18T10:59:46Z</time>
      </trkpt>
      <trkpt lat="44.141893" lon="11.266253">
        <ele>1043.649</ele>
        <time>2022-10-18T11:00:18Z</time>
      </trkpt>
      <trkpt lat="44.141754" lon="11.266728">
        <ele>1037.315</ele>
        <time>2022-10-18T11:01:19Z</time>
      </trkpt>
      <trkpt lat="44.140952" lon="11.267631">
        <ele>1043.235</ele>
        <time>2022-10-18T11:03:00Z</time>
      </trkpt>
      <trkpt lat="44.140748" lon="11.268821">
        <ele>1044.424</ele>
        <time>2022-10-18T11:04:22Z</time>
      </trkpt>
      <trkpt lat="44.140879" lon="11.269485">
        <ele>1045.686</ele>
        <time>2022-10-18T11:05:20Z</time>
      </trkpt>
      <trkpt lat="44.140746" lon="11.269762">
        <ele>1042.960</ele>
        <time>2022-10-18T11:05:48Z</time>
      </trkpt>
      <trkpt lat="44.140288" lon="11.270011">
        <ele>1031.626</ele>
        <time>2022-10-18T11:06:56Z</time>
      </trkpt>
      <trkpt lat="44.140227" lon="11.270296">
        <ele>1024.609</ele>
        <time>2022-10-18T11:07:18Z</time>
      </trkpt>
      <trkpt lat="44.140386" lon="11.270318">
        <ele>1022.339</ele>
        <time>2022-10-18T11:07:39Z</time>
      </trkpt>
      <trkpt lat="44.140298" lon="11.270579">
        <ele>1019.129</ele>
        <time>2022-10-18T11:08:22Z</time>
      </trkpt>
      <trkpt lat="44.140016" lon="11.270844">
        <ele>1017.654</ele>
        <time>2022-10-18T11:08:59Z</time>
      </trkpt>
      <trkpt lat="44.139875" lon="11.271396">
        <ele>1008.814</ele>
        <time>2022-10-18T11:09:41Z</time>
      </trkpt>
      <trkpt lat="44.139558" lon="11.271685">
        <ele>1013.356</ele>
        <time>2022-10-18T11:22:04Z</time>
      </trkpt>
      <trkpt lat="44.139474" lon="11.272219">
        <ele>1018.538</ele>
        <time>2022-10-18T11:22:46Z</time>
      </trkpt>
      <trkpt lat="44.139589" lon="11.272240">
        <ele>1016.744</ele>
        <time>2022-10-18T11:23:02Z</time>
      </trkpt>
      <trkpt lat="44.139433" lon="11.272519">
        <ele>1019.494</ele>
        <time>2022-10-18T11:24:58Z</time>
      </trkpt>
      <trkpt lat="44.139518" lon="11.273137">
        <ele>1013.713</ele>
        <time>2022-10-18T11:26:36Z</time>
      </trkpt>
      <trkpt lat="44.139372" lon="11.273198">
        <ele>1019.488</ele>
        <time>2022-10-18T11:26:56Z</time>
      </trkpt>
      <trkpt lat="44.138811" lon="11.274991">
        <ele>1039.524</ele>
        <time>2022-10-18T11:32:19Z</time>
      </trkpt>
      <trkpt lat="44.138468" lon="11.274988">
        <ele>1045.826</ele>
        <time>2022-10-18T11:33:03Z</time>
      </trkpt>
      <trkpt lat="44.138116" lon="11.274542">
        <ele>1047.409</ele>
        <time>2022-10-18T11:34:24Z</time>
      </trkpt>
      <trkpt lat="44.138069" lon="11.273907">
        <ele>1045.599</ele>
        <time>2022-10-18T11:35:01Z</time>
      </trkpt>
      <trkpt lat="44.137835" lon="11.273668">
        <ele>1050.359</ele>
        <time>2022-10-18T11:35:44Z</time>
      </trkpt>
      <trkpt lat="44.137281" lon="11.273601">
        <ele>1059.814</ele>
        <time>2022-10-18T11:36:46Z</time>
      </trkpt>
      <trkpt lat="44.136415" lon="11.272950">
        <ele>1061.974</ele>
        <time>2022-10-18T11:39:03Z</time>
      </trkpt>
      <trkpt lat="44.135862" lon="11.273137">
        <ele>1071.146</ele>
        <time>2022-10-18T11:40:37Z</time>
      </trkpt>
      <trkpt lat="44.135873" lon="11.273445">
        <ele>1079.238</ele>
        <time>2022-10-18T11:41:33Z</time>
      </trkpt>
      <trkpt lat="44.136201" lon="11.273524">
        <ele>1082.614</ele>
        <time>2022-10-18T11:42:18Z</time>
      </trkpt>
      <trkpt lat="44.136278" lon="11.273799">
        <ele>1088.174</ele>
        <time>2022-10-18T11:42:56Z</time>
      </trkpt>
      <trkpt lat="44.136202" lon="11.274008">
        <ele>1091.723</ele>
        <time>2022-10-18T11:43:29Z</time>
      </trkpt>
      <trkpt lat="44.136577" lon="11.274212">
        <ele>1091.523</ele>
        <time>2022-10-18T11:44:21Z</time>
      </trkpt>
      <trkpt lat="44.136570" lon="11.274753">
        <ele>1103.283</ele>
        <time>2022-10-18T11:45:30Z</time>
      </trkpt>
      <trkpt lat="44.136303" lon="11.275146">
        <ele>1116.411</ele>
        <time>2022-10-18T11:47:02Z</time>
      </trkpt>
      <trkpt lat="44.136243" lon="11.275633">
        <ele>1125.909</ele>
        <time>2022-10-18T11:48:37Z</time>
      </trkpt>
      <trkpt lat="44.135830" lon="11.275816">
        <ele>1134.713</ele>
        <time>2022-10-18T11:50:09Z</time>
      </trkpt>
      <trkpt lat="44.135567" lon="11.275749">
        <ele>1136.633</ele>
        <time>2022-10-18T11:50:39Z</time>
      </trkpt>
      <trkpt lat="44.135377" lon="11.275961">
        <ele>1142.738</ele>
        <time>2022-10-18T11:51:32Z</time>
      </trkpt>
      <trkpt lat="44.134963" lon="11.276115">
        <ele>1150.798</ele>
        <time>2022-10-18T11:53:10Z</time>
      </trkpt>
      <trkpt lat="44.134563" lon="11.276635">
        <ele>1157.170</ele>
        <time>2022-10-18T11:54:10Z</time>
      </trkpt>
      <trkpt lat="44.133839" lon="11.276754">
        <ele>1159.142</ele>
        <time>2022-10-18T11:55:38Z</time>
      </trkpt>
      <trkpt lat="44.133066" lon="11.277181">
        <ele>1167.398</ele>
        <time>2022-10-18T11:57:14Z</time>
      </trkpt>
      <trkpt lat="44.132655" lon="11.277712">
        <ele>1177.878</ele>
        <time>2022-10-18T11:59:55Z</time>
      </trkpt>
      <trkpt lat="44.132726" lon="11.278203">
        <ele>1180.297</ele>
        <time>2022-10-18T12:00:51Z</time>
      </trkpt>
      <trkpt lat="44.132564" lon="11.278477">
        <ele>1188.712</ele>
        <time>2022-10-18T12:01:20Z</time>
      </trkpt>
      <trkpt lat="44.132200" lon="11.278693">
        <ele>1195.832</ele>
        <time>2022-10-18T12:02:04Z</time>
      </trkpt>
      <trkpt lat="44.132285" lon="11.278699">
        <ele>1194.905</ele>
        <time>2022-10-18T12:02:40Z</time>
      </trkpt>
      <trkpt lat="44.132208" lon="11.278814">
        <ele>1195.309</ele>
        <time>2022-10-18T12:02:54Z</time>
      </trkpt>
      <trkpt lat="44.131559" lon="11.278859">
        <ele>1198.542</ele>
        <time>2022-10-18T12:03:54Z</time>
      </trkpt>
      <trkpt lat="44.131386" lon="11.279090">
        <ele>1197.882</ele>
        <time>2022-10-18T12:04:19Z</time>
      </trkpt>
      <trkpt lat="44.130811" lon="11.279041">
        <ele>1201.097</ele>
        <time>2022-10-18T12:08:42Z</time>
      </trkpt>
      <trkpt lat="44.130840" lon="11.279350">
        <ele>1200.347</ele>
        <time>2022-10-18T12:09:13Z</time>
      </trkpt>
      <trkpt lat="44.130738" lon="11.278989">
        <ele>1201.089</ele>
        <time>2022-10-18T12:41:49Z</time>
      </trkpt>
      <trkpt lat="44.129986" lon="11.278865">
        <ele>1199.541</ele>
        <time>2022-10-18T12:43:04Z</time>
      </trkpt>
      <trkpt lat="44.129644" lon="11.278476">
        <ele>1189.457</ele>
        <time>2022-10-18T12:44:10Z</time>
      </trkpt>
      <trkpt lat="44.128884" lon="11.278627">
        <ele>1187.687</ele>
        <time>2022-10-18T12:46:17Z</time>
      </trkpt>
      <trkpt lat="44.128467" lon="11.278441">
        <ele>1185.126</ele>
        <time>2022-10-18T12:46:57Z</time>
      </trkpt>
      <trkpt lat="44.128265" lon="11.278195">
        <ele>1186.891</ele>
        <time>2022-10-18T12:47:28Z</time>
      </trkpt>
      <trkpt lat="44.127661" lon="11.278118">
        <ele>1186.781</ele>
        <time>2022-10-18T12:48:28Z</time>
      </trkpt>
      <trkpt lat="44.126755" lon="11.277761">
        <ele>1184.619</ele>
        <time>2022-10-18T12:50:00Z</time>
      </trkpt>
      <trkpt lat="44.126513" lon="11.277743">
        <ele>1184.109</ele>
        <time>2022-10-18T12:50:38Z</time>
      </trkpt>
      <trkpt lat="44.126455" lon="11.277859">
        <ele>1182.320</ele>
        <time>2022-10-18T12:50:46Z</time>
      </trkpt>
      <trkpt lat="44.126068" lon="11.277937">
        <ele>1177.930</ele>
        <time>2022-10-18T12:51:24Z</time>
      </trkpt>
      <trkpt lat="44.125990" lon="11.277760">
        <ele>1177.195</ele>
        <time>2022-10-18T12:51:39Z</time>
      </trkpt>
      <trkpt lat="44.126133" lon="11.276794">
        <ele>1170.035</ele>
        <time>2022-10-18T12:53:49Z</time>
      </trkpt>
      <trkpt lat="44.126018" lon="11.276523">
        <ele>1167.587</ele>
        <time>2022-10-18T12:54:18Z</time>
      </trkpt>
      <trkpt lat="44.125786" lon="11.276431">
        <ele>1163.579</ele>
        <time>2022-10-18T12:55:33Z</time>
      </trkpt>
      <trkpt lat="44.125591" lon="11.276622">
        <ele>1157.285</ele>
        <time>2022-10-18T12:55:59Z</time>
      </trkpt>
      <trkpt lat="44.125143" lon="11.276366">
        <ele>1149.855</ele>
        <time>2022-10-18T12:56:55Z</time>
      </trkpt>
      <trkpt lat="44.125025" lon="11.276166">
        <ele>1149.124</ele>
        <time>2022-10-18T12:57:14Z</time>
      </trkpt>
      <trkpt lat="44.124696" lon="11.276004">
        <ele>1150.057</ele>
        <time>2022-10-18T12:57:49Z</time>
      </trkpt>
      <trkpt lat="44.124490" lon="11.275648">
        <ele>1153.800</ele>
        <time>2022-10-18T12:58:26Z</time>
      </trkpt>
      <trkpt lat="44.123949" lon="11.275917">
        <ele>1147.520</ele>
        <time>2022-10-18T12:59:51Z</time>
      </trkpt>
      <trkpt lat="44.123656" lon="11.275841">
        <ele>1142.909</ele>
        <time>2022-10-18T13:00:23Z</time>
      </trkpt>
      <trkpt lat="44.123416" lon="11.275186">
        <ele>1140.966</ele>
        <time>2022-10-18T13:01:14Z</time>
      </trkpt>
      <trkpt lat="44.123078" lon="11.274963">
        <ele>1135.876</ele>
        <time>2022-10-18T13:01:58Z</time>
      </trkpt>
      <trkpt lat="44.123001" lon="11.274722">
        <ele>1136.441</ele>
        <time>2022-10-18T13:02:14Z</time>
      </trkpt>
      <trkpt lat="44.122509" lon="11.274202">
        <ele>1128.821</ele>
        <time>2022-10-18T13:03:19Z</time>
      </trkpt>
      <trkpt lat="44.122373" lon="11.273789">
        <ele>1132.423</ele>
        <time>2022-10-18T13:03:57Z</time>
      </trkpt>
      <trkpt lat="44.121761" lon="11.273519">
        <ele>1127.535</ele>
        <time>2022-10-18T13:05:09Z</time>
      </trkpt>
      <trkpt lat="44.121211" lon="11.273511">
        <ele>1120.221</ele>
        <time>2022-10-18T13:06:00Z</time>
      </trkpt>
      <trkpt lat="44.121079" lon="11.273036">
        <ele>1123.451</ele>
        <time>2022-10-18T13:08:11Z</time>
      </trkpt>
      <trkpt lat="44.120668" lon="11.273014">
        <ele>1124.380</ele>
        <time>2022-10-18T13:08:45Z</time>
      </trkpt>
      <trkpt lat="44.120111" lon="11.272660">
        <ele>1115.529</ele>
        <time>2022-10-18T13:09:41Z</time>
      </trkpt>
      <trkpt lat="44.119713" lon="11.272686">
        <ele>1119.000</ele>
        <time>2022-10-18T13:10:49Z</time>
      </trkpt>
      <trkpt lat="44.119480" lon="11.272538">
        <ele>1119.720</ele>
        <time>2022-10-18T13:11:25Z</time>
      </trkpt>
      <trkpt lat="44.119376" lon="11.272711">
        <ele>1120.809</ele>
        <time>2022-10-18T13:11:40Z</time>
      </trkpt>
      <trkpt lat="44.119083" lon="11.272721">
        <ele>1117.813</ele>
        <time>2022-10-18T13:12:12Z</time>
      </trkpt>
      <trkpt lat="44.118833" lon="11.272945">
        <ele>1111.183</ele>
        <time>2022-10-18T13:12:46Z</time>
      </trkpt>
      <trkpt lat="44.117686" lon="11.272899">
        <ele>1106.148</ele>
        <time>2022-10-18T13:14:49Z</time>
      </trkpt>
      <trkpt lat="44.117468" lon="11.273055">
        <ele>1102.318</ele>
        <time>2022-10-18T13:15:12Z</time>
      </trkpt>
      <trkpt lat="44.117157" lon="11.272829">
        <ele>1100.910</ele>
        <time>2022-10-18T13:15:53Z</time>
      </trkpt>
      <trkpt lat="44.116715" lon="11.272861">
        <ele>1099.592</ele>
        <time>2022-10-18T13:16:47Z</time>
      </trkpt>
      <trkpt lat="44.116330" lon="11.272676">
        <ele>1095.378</ele>
        <time>2022-10-18T13:17:22Z</time>
      </trkpt>
      <trkpt lat="44.115657" lon="11.272933">
        <ele>1097.688</ele>
        <time>2022-10-18T13:18:27Z</time>
      </trkpt>
      <trkpt lat="44.115022" lon="11.272839">
        <ele>1089.357</ele>
        <time>2022-10-18T13:19:27Z</time>
      </trkpt>
      <trkpt lat="44.114486" lon="11.273268">
        <ele>1086.547</ele>
        <time>2022-10-18T13:20:39Z</time>
      </trkpt>
      <trkpt lat="44.113027" lon="11.273657">
        <ele>1074.229</ele>
        <time>2022-10-18T13:23:02Z</time>
      </trkpt>
      <trkpt lat="44.112667" lon="11.273651">
        <ele>1068.921</ele>
        <time>2022-10-18T13:23:45Z</time>
      </trkpt>
      <trkpt lat="44.112142" lon="11.273950">
        <ele>1067.209</ele>
        <time>2022-10-18T13:24:47Z</time>
      </trkpt>
      <trkpt lat="44.111964" lon="11.273788">
        <ele>1062.025</ele>
        <time>2022-10-18T13:25:24Z</time>
      </trkpt>
      <trkpt lat="44.112110" lon="11.273335">
        <ele>1053.895</ele>
        <time>2022-10-18T13:26:13Z</time>
      </trkpt>
      <trkpt lat="44.112020" lon="11.273190">
        <ele>1047.720</ele>
        <time>2022-10-18T13:26:46Z</time>
      </trkpt>
      <trkpt lat="44.110738" lon="11.273877">
        <ele>1043.270</ele>
        <time>2022-10-18T13:29:41Z</time>
      </trkpt>
      <trkpt lat="44.110286" lon="11.273612">
        <ele>1031.032</ele>
        <time>2022-10-18T13:30:32Z</time>
      </trkpt>
      <trkpt lat="44.109485" lon="11.273825">
        <ele>1031.554</ele>
        <time>2022-10-18T13:31:55Z</time>
      </trkpt>
      <trkpt lat="44.108056" lon="11.273772">
        <ele>1034.840</ele>
        <time>2022-10-18T13:34:33Z</time>
      </trkpt>
      <trkpt lat="44.107353" lon="11.274069">
        <ele>1039.860</ele>
        <time>2022-10-18T13:35:48Z</time>
      </trkpt>
      <trkpt lat="44.106690" lon="11.273708">
        <ele>1029.469</ele>
        <time>2022-10-18T13:37:44Z</time>
      </trkpt>
      <trkpt lat="44.106531" lon="11.273388">
        <ele>1019.715</ele>
        <time>2022-10-18T13:38:16Z</time>
      </trkpt>
      <trkpt lat="44.106145" lon="11.273286">
        <ele>1014.365</ele>
        <time>2022-10-18T13:39:06Z</time>
      </trkpt>
      <trkpt lat="44.105970" lon="11.273396">
        <ele>1013.511</ele>
        <time>2022-10-18T13:39:48Z</time>
      </trkpt>
      <trkpt lat="44.105764" lon="11.273135">
        <ele>1004.309</ele>
        <time>2022-10-18T13:40:28Z</time>
      </trkpt>
      <trkpt lat="44.105496" lon="11.273022">
        <ele>1001.162</ele>
        <time>2022-10-18T13:41:02Z</time>
      </trkpt>
      <trkpt lat="44.105254" lon="11.272631">
        <ele>992.232</ele>
        <time>2022-10-18T13:41:55Z</time>
      </trkpt>
      <trkpt lat="44.105160" lon="11.271804">
        <ele>973.347</ele>
        <time>2022-10-18T13:43:34Z</time>
      </trkpt>
      <trkpt lat="44.104785" lon="11.271900">
        <ele>976.087</ele>
        <time>2022-10-18T13:44:17Z</time>
      </trkpt>
      <trkpt lat="44.104108" lon="11.271391">
        <ele>971.029</ele>
        <time>2022-10-18T13:45:36Z</time>
      </trkpt>
      <trkpt lat="44.103158" lon="11.271331">
        <ele>962.941</ele>
        <time>2022-10-18T13:47:19Z</time>
      </trkpt>
      <trkpt lat="44.102927" lon="11.271626">
        <ele>961.737</ele>
        <time>2022-10-18T13:48:40Z</time>
      </trkpt>
      <trkpt lat="44.102587" lon="11.271563">
        <ele>964.327</ele>
        <time>2022-10-18T13:49:18Z</time>
      </trkpt>
      <trkpt lat="44.102170" lon="11.271736">
        <ele>961.456</ele>
        <time>2022-10-18T13:50:05Z</time>
      </trkpt>
      <trkpt lat="44.101932" lon="11.271704">
        <ele>965.079</ele>
        <time>2022-10-18T13:50:27Z</time>
      </trkpt>
      <trkpt lat="44.101157" lon="11.272143">
        <ele>963.005</ele>
        <time>2022-10-18T13:51:46Z</time>
      </trkpt>
      <trkpt lat="44.100525" lon="11.271375">
        <ele>964.825</ele>
        <time>2022-10-18T13:53:34Z</time>
      </trkpt>
      <trkpt lat="44.099263" lon="11.271592">
        <ele>957.809</ele>
        <time>2022-10-18T13:55:34Z</time>
      </trkpt>
      <trkpt lat="44.098747" lon="11.272218">
        <ele>945.598</ele>
        <time>2022-10-18T13:57:06Z</time>
      </trkpt>
      <trkpt lat="44.097674" lon="11.272207">
        <ele>935.528</ele>
        <time>2022-10-18T13:58:44Z</time>
      </trkpt>
      <trkpt lat="44.097230" lon="11.272609">
        <ele>934.153</ele>
        <time>2022-10-18T13:59:43Z</time>
      </trkpt>
      <trkpt lat="44.097232" lon="11.272116">
        <ele>937.743</ele>
        <time>2022-10-18T14:00:16Z</time>
      </trkpt>
      <trkpt lat="44.097358" lon="11.271832">
        <ele>938.395</ele>
        <time>2022-10-18T14:00:45Z</time>
      </trkpt>
      <trkpt lat="44.096966" lon="11.272730">
        <ele>934.297</ele>
        <time>2022-10-18T14:02:32Z</time>
      </trkpt>
      <trkpt lat="44.096755" lon="11.273027">
        <ele>932.983</ele>
        <time>2022-10-18T14:02:58Z</time>
      </trkpt>
      <trkpt lat="44.096425" lon="11.273186">
        <ele>933.333</ele>
        <time>2022-10-18T14:03:30Z</time>
      </trkpt>
      <trkpt lat="44.095887" lon="11.273948">
        <ele>926.592</ele>
        <time>2022-10-18T14:04:41Z</time>
      </trkpt>
      <trkpt lat="44.095437" lon="11.274204">
        <ele>923.057</ele>
        <time>2022-10-18T14:05:25Z</time>
      </trkpt>
      <trkpt lat="44.095110" lon="11.274074">
        <ele>921.700</ele>
        <time>2022-10-18T14:06:20Z</time>
      </trkpt>
      <trkpt lat="44.095100" lon="11.273902">
        <ele>922.720</ele>
        <time>2022-10-18T14:06:36Z</time>
      </trkpt>
      <trkpt lat="44.094759" lon="11.274163">
        <ele>915.609</ele>
        <time>2022-10-18T14:08:18Z</time>
      </trkpt>
      <trkpt lat="44.094578" lon="11.274515">
        <ele>912.436</ele>
        <time>2022-10-18T14:08:51Z</time>
      </trkpt>
      <trkpt lat="44.094614" lon="11.275106">
        <ele>909.366</ele>
        <time>2022-10-18T14:10:02Z</time>
      </trkpt>
      <trkpt lat="44.094421" lon="11.275554">
        <ele>902.851</ele>
        <time>2022-10-18T14:10:43Z</time>
      </trkpt>
      <trkpt lat="44.094351" lon="11.275655">
        <ele>901.921</ele>
        <time>2022-10-18T14:10:54Z</time>
      </trkpt>
      <trkpt lat="44.094206" lon="11.275595">
        <ele>901.313</ele>
        <time>2022-10-18T14:11:37Z</time>
      </trkpt>
      <trkpt lat="44.094113" lon="11.275182">
        <ele>900.995</ele>
        <time>2022-10-18T14:12:16Z</time>
      </trkpt>
      <trkpt lat="44.094000" lon="11.275489">
        <ele>898.891</ele>
        <time>2022-10-18T14:12:52Z</time>
      </trkpt>
      <trkpt lat="44.093669" lon="11.275773">
        <ele>890.851</ele>
        <time>2022-10-18T14:13:44Z</time>
      </trkpt>
      <trkpt lat="44.093360" lon="11.276987">
        <ele>885.550</ele>
        <time>2022-10-18T14:15:33Z</time>
      </trkpt>
      <trkpt lat="44.093143" lon="11.277144">
        <ele>882.447</ele>
        <time>2022-10-18T14:15:57Z</time>
      </trkpt>
      <trkpt lat="44.092183" lon="11.276256">
        <ele>865.329</ele>
        <time>2022-10-18T14:18:24Z</time>
      </trkpt>
      <trkpt lat="44.091414" lon="11.276208">
        <ele>851.921</ele>
        <time>2022-10-18T14:20:03Z</time>
      </trkpt>
      <trkpt lat="44.090635" lon="11.275632">
        <ele>840.709</ele>
        <time>2022-10-18T14:21:54Z</time>
      </trkpt>
      <trkpt lat="44.090562" lon="11.275773">
        <ele>840.045</ele>
        <time>2022-10-18T14:30:28Z</time>
      </trkpt>
      <trkpt lat="44.090891" lon="11.276262">
        <ele>840.655</ele>
        <time>2022-10-18T14:31:13Z</time>
      </trkpt>
      <trkpt lat="44.090910" lon="11.276572">
        <ele>837.480</ele>
        <time>2022-10-18T14:31:39Z</time>
      </trkpt>
      <trkpt lat="44.090609" lon="11.277772">
        <ele>828.760</ele>
        <time>2022-10-18T14:33:34Z</time>
      </trkpt>
      <trkpt lat="44.090702" lon="11.278018">
        <ele>830.952</ele>
        <time>2022-10-18T14:33:53Z</time>
      </trkpt>
      <trkpt lat="44.090635" lon="11.278498">
        <ele>835.064</ele>
        <time>2022-10-18T14:34:31Z</time>
      </trkpt>
      <trkpt lat="44.090481" lon="11.278660">
        <ele>836.310</ele>
        <time>2022-10-18T14:34:51Z</time>
      </trkpt>
      <trkpt lat="44.090183" lon="11.278700">
        <ele>836.520</ele>
        <time>2022-10-18T14:35:19Z</time>
      </trkpt>
      <trkpt lat="44.089793" lon="11.278439">
        <ele>834.959</ele>
        <time>2022-10-18T14:36:23Z</time>
      </trkpt>
      <trkpt lat="44.089140" lon="11.279171">
        <ele>842.153</ele>
        <time>2022-10-18T14:37:52Z</time>
      </trkpt>
      <trkpt lat="44.088426" lon="11.279520">
        <ele>838.704</ele>
        <time>2022-10-18T14:39:01Z</time>
      </trkpt>
      <trkpt lat="44.087916" lon="11.279584">
        <ele>840.014</ele>
        <time>2022-10-18T14:39:54Z</time>
      </trkpt>
      <trkpt lat="44.087709" lon="11.279417">
        <ele>840.109</ele>
        <time>2022-10-18T14:40:22Z</time>
      </trkpt>
      <trkpt lat="44.087178" lon="11.279558">
        <ele>848.746</ele>
        <time>2022-10-18T14:41:19Z</time>
      </trkpt>
      <trkpt lat="44.086486" lon="11.279401">
        <ele>851.076</ele>
        <time>2022-10-18T14:42:41Z</time>
      </trkpt>
      <trkpt lat="44.085140" lon="11.279756">
        <ele>861.161</ele>
        <time>2022-10-18T14:45:42Z</time>
      </trkpt>
      <trkpt lat="44.084857" lon="11.279377">
        <ele>862.471</ele>
        <time>2022-10-18T14:46:33Z</time>
      </trkpt>
      <trkpt lat="44.084583" lon="11.279264">
        <ele>865.593</ele>
        <time>2022-10-18T14:47:03Z</time>
      </trkpt>
      <trkpt lat="44.084244" lon="11.278535">
        <ele>855.895</ele>
        <time>2022-10-18T14:48:07Z</time>
      </trkpt>
      <trkpt lat="44.082773" lon="11.277209">
        <ele>861.931</ele>
        <time>2022-10-18T14:50:58Z</time>
      </trkpt>
      <trkpt lat="44.082479" lon="11.276405">
        <ele>861.191</ele>
        <time>2022-10-18T14:52:05Z</time>
      </trkpt>
      <trkpt lat="44.081495" lon="11.276466">
        <ele>855.390</ele>
        <time>2022-10-18T14:53:55Z</time>
      </trkpt>
      <trkpt lat="44.080841" lon="11.276867">
        <ele>858.352</ele>
        <time>2022-10-18T14:55:02Z</time>
      </trkpt>
      <trkpt lat="44.080135" lon="11.276565">
        <ele>860.553</ele>
        <time>2022-10-18T14:56:16Z</time>
      </trkpt>
      <trkpt lat="44.079376" lon="11.275789">
        <ele>859.708</ele>
        <time>2022-10-18T14:58:17Z</time>
      </trkpt>
      <trkpt lat="44.078986" lon="11.275631">
        <ele>861.209</ele>
        <time>2022-10-18T14:58:51Z</time>
      </trkpt>
      <trkpt lat="44.078805" lon="11.275747">
        <ele>858.916</ele>
        <time>2022-10-18T14:59:21Z</time>
      </trkpt>
      <trkpt lat="44.078945" lon="11.275566">
        <ele>861.076</ele>
        <time>2022-10-18T15:00:04Z</time>
      </trkpt>
      <trkpt lat="44.079096" lon="11.275578">
        <ele>861.191</ele>
        <time>2022-10-18T15:00:20Z</time>
      </trkpt>
      <trkpt lat="44.078684" lon="11.275698">
        <ele>856.181</ele>
        <time>2022-10-18T15:02:03Z</time>
      </trkpt>
      <trkpt lat="44.078289" lon="11.275324">
        <ele>844.813</ele>
        <time>2022-10-18T15:03:06Z</time>
      </trkpt>
      <trkpt lat="44.078240" lon="11.275135">
        <ele>845.165</ele>
        <time>2022-10-18T15:03:34Z</time>
      </trkpt>
      <trkpt lat="44.077743" lon="11.274861">
        <ele>825.671</ele>
        <time>2022-10-18T15:04:57Z</time>
      </trkpt>
      <trkpt lat="44.077536" lon="11.274333">
        <ele>822.391</ele>
        <time>2022-10-18T15:05:59Z</time>
      </trkpt>
      <trkpt lat="44.077107" lon="11.273869">
        <ele>813.660</ele>
        <time>2022-10-18T15:07:43Z</time>
      </trkpt>
      <trkpt lat="44.077059" lon="11.273584">
        <ele>811.658</ele>
        <time>2022-10-18T15:08:04Z</time>
      </trkpt>
      <trkpt lat="44.076878" lon="11.273400">
        <ele>805.952</ele>
        <time>2022-10-18T15:08:54Z</time>
      </trkpt>
      <trkpt lat="44.077167" lon="11.273657">
        <ele>814.717</ele>
        <time>2022-10-18T15:10:42Z</time>
      </trkpt>
      <trkpt lat="44.077041" lon="11.273847">
        <ele>811.709</ele>
        <time>2022-10-18T15:11:22Z</time>
      </trkpt>
      <trkpt lat="44.076940" lon="11.275303">
        <ele>791.326</ele>
        <time>2022-10-18T15:12:59Z</time>
      </trkpt>
      <trkpt lat="44.076648" lon="11.276118">
        <ele>775.536</ele>
        <time>2022-10-18T15:14:07Z</time>
      </trkpt>
      <trkpt lat="44.076767" lon="11.277563">
        <ele>781.411</ele>
        <time>2022-10-18T15:15:54Z</time>
      </trkpt>
      <trkpt lat="44.076263" lon="11.279191">
        <ele>772.251</ele>
        <time>2022-10-18T15:17:58Z</time>
      </trkpt>
      <trkpt lat="44.076226" lon="11.279856">
        <ele>774.623</ele>
        <time>2022-10-18T15:18:41Z</time>
      </trkpt>
      <trkpt lat="44.076349" lon="11.280056">
        <ele>776.275</ele>
        <time>2022-10-18T15:18:58Z</time>
      </trkpt>
      <trkpt lat="44.076909" lon="11.280310">
        <ele>772.451</ele>
        <time>2022-10-18T15:22:04Z</time>
      </trkpt>
      <trkpt lat="44.077099" lon="11.280836">
        <ele>765.021</ele>
        <time>2022-10-18T15:22:58Z</time>
      </trkpt>
      <trkpt lat="44.077561" lon="11.281367">
        <ele>765.750</ele>
        <time>2022-10-18T15:24:01Z</time>
      </trkpt>
      <trkpt lat="44.077624" lon="11.281304">
        <ele>766.522</ele>
        <time>2022-10-18T15:24:17Z</time>
      </trkpt>
    </trkseg>
  </trk></gpx>