<?xml version="1.0" encoding="UTF-8"?>
<gpx creator="Wikiloc - https://www.wikiloc.com" version="1.1" xmlns="http://www.topografix.com/GPX/1/1" xmlns:xsi="http://www.w3.org/2001/XMLSchema-instance" xsi:schemaLocation="http://www.topografix.com/GPX/1/1 http://www.topografix.com/GPX/1/1/gpx.xsd">
  <metadata>
    <name>Wikiloc - Arni, Fatonero, passo e monte Fiocca, passo Sella, marmifera...</name>
    <link href="https://www.wikiloc.com/hiking-trails/arni-fatonero-passo-e-monte-fiocca-passo-sella-marmifera-110320777">
      <text>Arni, Fatonero, passo e monte Fiocca, passo Sella, marmifera... on Wikiloc</text>
    </link>
    <time>2022-08-11T13:21:31Z</time>
  </metadata>
  <trk>
    <name>Arni, Fatonero, passo e monte Fiocca, passo Sella, marmifera... - Wikiloc</name>
    <cmt></cmt>
    <desc></desc>
    <trkseg>
      <trkpt lat="44.067368" lon="10.248590">
        <ele>926.627</ele>
        <time>2022-08-11T07:41:32Z</time>
      </trkpt>
      <trkpt lat="44.067583" lon="10.248524">
        <ele>926.668</ele>
        <time>2022-08-11T07:42:07Z</time>
      </trkpt>
      <trkpt lat="44.067586" lon="10.248288">
        <ele>926.614</ele>
        <time>2022-08-11T07:42:33Z</time>
      </trkpt>
      <trkpt lat="44.067484" lon="10.248245">
        <ele>926.609</ele>
        <time>2022-08-11T07:43:37Z</time>
      </trkpt>
      <trkpt lat="44.067669" lon="10.248476">
        <ele>926.663</ele>
        <time>2022-08-11T07:44:30Z</time>
      </trkpt>
      <trkpt lat="44.067560" lon="10.248929">
        <ele>930.043</ele>
        <time>2022-08-11T07:45:03Z</time>
      </trkpt>
      <trkpt lat="44.067633" lon="10.249386">
        <ele>933.772</ele>
        <time>2022-08-11T07:45:40Z</time>
      </trkpt>
      <trkpt lat="44.067140" lon="10.249330">
        <ele>945.375</ele>
        <time>2022-08-11T07:46:24Z</time>
      </trkpt>
      <trkpt lat="44.066796" lon="10.249703">
        <ele>938.214</ele>
        <time>2022-08-11T07:46:54Z</time>
      </trkpt>
      <trkpt lat="44.066323" lon="10.249908">
        <ele>943.562</ele>
        <time>2022-08-11T07:48:01Z</time>
      </trkpt>
      <trkpt lat="44.066653" lon="10.250000">
        <ele>943.529</ele>
        <time>2022-08-11T07:48:34Z</time>
      </trkpt>
      <trkpt lat="44.066944" lon="10.249919">
        <ele>955.599</ele>
        <time>2022-08-11T07:49:00Z</time>
      </trkpt>
      <trkpt lat="44.067078" lon="10.249997">
        <ele>957.149</ele>
        <time>2022-08-11T07:49:18Z</time>
      </trkpt>
      <trkpt lat="44.066979" lon="10.250121">
        <ele>957.431</ele>
        <time>2022-08-11T07:49:52Z</time>
      </trkpt>
      <trkpt lat="44.066893" lon="10.251270">
        <ele>1000.961</ele>
        <time>2022-08-11T07:53:39Z</time>
      </trkpt>
      <trkpt lat="44.066750" lon="10.251427">
        <ele>1004.407</ele>
        <time>2022-08-11T07:54:44Z</time>
      </trkpt>
      <trkpt lat="44.066891" lon="10.251750">
        <ele>1018.509</ele>
        <time>2022-08-11T07:55:50Z</time>
      </trkpt>
      <trkpt lat="44.066752" lon="10.252092">
        <ele>1032.844</ele>
        <time>2022-08-11T07:57:00Z</time>
      </trkpt>
      <trkpt lat="44.066608" lon="10.253403">
        <ele>1065.964</ele>
        <time>2022-08-11T08:01:46Z</time>
      </trkpt>
      <trkpt lat="44.066237" lon="10.253991">
        <ele>1089.583</ele>
        <time>2022-08-11T08:03:57Z</time>
      </trkpt>
      <trkpt lat="44.066585" lon="10.254303">
        <ele>1115.186</ele>
        <time>2022-08-11T08:06:26Z</time>
      </trkpt>
      <trkpt lat="44.066427" lon="10.254557">
        <ele>1126.745</ele>
        <time>2022-08-11T08:07:19Z</time>
      </trkpt>
      <trkpt lat="44.066469" lon="10.254663">
        <ele>1133.573</ele>
        <time>2022-08-11T08:10:02Z</time>
      </trkpt>
      <trkpt lat="44.066650" lon="10.254632">
        <ele>1133.860</ele>
        <time>2022-08-11T08:10:41Z</time>
      </trkpt>
      <trkpt lat="44.066682" lon="10.254753">
        <ele>1153.330</ele>
        <time>2022-08-11T08:11:26Z</time>
      </trkpt>
      <trkpt lat="44.066878" lon="10.254821">
        <ele>1160.850</ele>
        <time>2022-08-11T08:12:11Z</time>
      </trkpt>
      <trkpt lat="44.066975" lon="10.254710">
        <ele>1173.527</ele>
        <time>2022-08-11T08:15:17Z</time>
      </trkpt>
      <trkpt lat="44.067295" lon="10.254781">
        <ele>1180.268</ele>
        <time>2022-08-11T08:17:31Z</time>
      </trkpt>
      <trkpt lat="44.067880" lon="10.254626">
        <ele>1200.314</ele>
        <time>2022-08-11T08:19:27Z</time>
      </trkpt>
      <trkpt lat="44.068309" lon="10.254906">
        <ele>1208.809</ele>
        <time>2022-08-11T08:20:33Z</time>
      </trkpt>
      <trkpt lat="44.068608" lon="10.255559">
        <ele>1228.083</ele>
        <time>2022-08-11T08:25:19Z</time>
      </trkpt>
      <trkpt lat="44.068640" lon="10.255884">
        <ele>1235.073</ele>
        <time>2022-08-11T08:26:08Z</time>
      </trkpt>
      <trkpt lat="44.069050" lon="10.256272">
        <ele>1262.732</ele>
        <time>2022-08-11T08:30:09Z</time>
      </trkpt>
      <trkpt lat="44.069689" lon="10.257249">
        <ele>1295.175</ele>
        <time>2022-08-11T08:34:37Z</time>
      </trkpt>
      <trkpt lat="44.069752" lon="10.258001">
        <ele>1319.264</ele>
        <time>2022-08-11T08:36:18Z</time>
      </trkpt>
      <trkpt lat="44.069574" lon="10.258379">
        <ele>1326.682</ele>
        <time>2022-08-11T08:37:16Z</time>
      </trkpt>
      <trkpt lat="44.069224" lon="10.258615">
        <ele>1336.119</ele>
        <time>2022-08-11T08:40:48Z</time>
      </trkpt>
      <trkpt lat="44.068997" lon="10.259981">
        <ele>1365.429</ele>
        <time>2022-08-11T08:50:09Z</time>
      </trkpt>
      <trkpt lat="44.069012" lon="10.260332">
        <ele>1368.939</ele>
        <time>2022-08-11T08:51:34Z</time>
      </trkpt>
      <trkpt lat="44.069276" lon="10.260971">
        <ele>1383.453</ele>
        <time>2022-08-11T08:53:10Z</time>
      </trkpt>
      <trkpt lat="44.068943" lon="10.262708">
        <ele>1424.404</ele>
        <time>2022-08-11T09:00:45Z</time>
      </trkpt>
      <trkpt lat="44.069330" lon="10.263699">
        <ele>1420.714</ele>
        <time>2022-08-11T09:02:45Z</time>
      </trkpt>
      <trkpt lat="44.069583" lon="10.263974">
        <ele>1425.209</ele>
        <time>2022-08-11T09:08:20Z</time>
      </trkpt>
      <trkpt lat="44.069814" lon="10.263464">
        <ele>1423.016</ele>
        <time>2022-08-11T09:09:59Z</time>
      </trkpt>
      <trkpt lat="44.070145" lon="10.263234">
        <ele>1433.216</ele>
        <time>2022-08-11T09:12:55Z</time>
      </trkpt>
      <trkpt lat="44.070508" lon="10.263438">
        <ele>1438.165</ele>
        <time>2022-08-11T09:13:55Z</time>
      </trkpt>
      <trkpt lat="44.070673" lon="10.263425">
        <ele>1439.218</ele>
        <time>2022-08-11T09:14:38Z</time>
      </trkpt>
      <trkpt lat="44.070929" lon="10.263233">
        <ele>1450.337</ele>
        <time>2022-08-11T09:16:55Z</time>
      </trkpt>
      <trkpt lat="44.071304" lon="10.263311">
        <ele>1454.175</ele>
        <time>2022-08-11T09:17:58Z</time>
      </trkpt>
      <trkpt lat="44.072077" lon="10.263167">
        <ele>1456.812</ele>
        <time>2022-08-11T09:19:31Z</time>
      </trkpt>
      <trkpt lat="44.072766" lon="10.262347">
        <ele>1468.772</ele>
        <time>2022-08-11T09:22:36Z</time>
      </trkpt>
      <trkpt lat="44.073817" lon="10.262077">
        <ele>1477.552</ele>
        <time>2022-08-11T09:24:20Z</time>
      </trkpt>
      <trkpt lat="44.074033" lon="10.261758">
        <ele>1479.764</ele>
        <time>2022-08-11T09:25:43Z</time>
      </trkpt>
      <trkpt lat="44.074228" lon="10.261769">
        <ele>1482.906</ele>
        <time>2022-08-11T09:27:25Z</time>
      </trkpt>
      <trkpt lat="44.074393" lon="10.262183">
        <ele>1479.716</ele>
        <time>2022-08-11T09:28:25Z</time>
      </trkpt>
      <trkpt lat="44.074762" lon="10.262469">
        <ele>1480.509</ele>
        <time>2022-08-11T09:28:52Z</time>
      </trkpt>
      <trkpt lat="44.075067" lon="10.262577">
        <ele>1476.467</ele>
        <time>2022-08-11T09:29:26Z</time>
      </trkpt>
      <trkpt lat="44.075466" lon="10.263462">
        <ele>1462.447</ele>
        <time>2022-08-11T09:31:32Z</time>
      </trkpt>
      <trkpt lat="44.075832" lon="10.263821">
        <ele>1469.946</ele>
        <time>2022-08-11T09:32:34Z</time>
      </trkpt>
      <trkpt lat="44.075745" lon="10.264699">
        <ele>1468.019</ele>
        <time>2022-08-11T09:34:15Z</time>
      </trkpt>
      <trkpt lat="44.075934" lon="10.265169">
        <ele>1478.148</ele>
        <time>2022-08-11T09:35:01Z</time>
      </trkpt>
      <trkpt lat="44.075743" lon="10.266411">
        <ele>1470.166</ele>
        <time>2022-08-11T09:36:20Z</time>
      </trkpt>
      <trkpt lat="44.075434" lon="10.267052">
        <ele>1469.973</ele>
        <time>2022-08-11T09:39:31Z</time>
      </trkpt>
      <trkpt lat="44.075359" lon="10.267776">
        <ele>1469.773</ele>
        <time>2022-08-11T09:40:50Z</time>
      </trkpt>
      <trkpt lat="44.075067" lon="10.268401">
        <ele>1461.643</ele>
        <time>2022-08-11T09:42:06Z</time>
      </trkpt>
      <trkpt lat="44.074483" lon="10.269158">
        <ele>1462.895</ele>
        <time>2022-08-11T09:45:16Z</time>
      </trkpt>
      <trkpt lat="44.074470" lon="10.269288">
        <ele>1463.049</ele>
        <time>2022-08-11T09:45:24Z</time>
      </trkpt>
      <trkpt lat="44.074908" lon="10.269221">
        <ele>1480.223</ele>
        <time>2022-08-11T09:49:24Z</time>
      </trkpt>
      <trkpt lat="44.075660" lon="10.269515">
        <ele>1496.609</ele>
        <time>2022-08-11T09:51:17Z</time>
      </trkpt>
      <trkpt lat="44.075615" lon="10.269402">
        <ele>1505.430</ele>
        <time>2022-08-11T09:51:38Z</time>
      </trkpt>
      <trkpt lat="44.075727" lon="10.269277">
        <ele>1515.150</ele>
        <time>2022-08-11T09:52:41Z</time>
      </trkpt>
      <trkpt lat="44.075675" lon="10.269158">
        <ele>1515.389</ele>
        <time>2022-08-11T09:52:56Z</time>
      </trkpt>
      <trkpt lat="44.075749" lon="10.269012">
        <ele>1522.062</ele>
        <time>2022-08-11T09:53:30Z</time>
      </trkpt>
      <trkpt lat="44.076289" lon="10.268762">
        <ele>1522.981</ele>
        <time>2022-08-11T09:55:09Z</time>
      </trkpt>
      <trkpt lat="44.076430" lon="10.268587">
        <ele>1522.769</ele>
        <time>2022-08-11T09:55:40Z</time>
      </trkpt>
      <trkpt lat="44.076928" lon="10.268848">
        <ele>1524.496</ele>
        <time>2022-08-11T09:58:20Z</time>
      </trkpt>
      <trkpt lat="44.077839" lon="10.268590">
        <ele>1545.526</ele>
        <time>2022-08-11T10:02:52Z</time>
      </trkpt>
      <trkpt lat="44.077572" lon="10.268107">
        <ele>1548.146</ele>
        <time>2022-08-11T10:09:15Z</time>
      </trkpt>
      <trkpt lat="44.077410" lon="10.267346">
        <ele>1564.564</ele>
        <time>2022-08-11T10:11:02Z</time>
      </trkpt>
      <trkpt lat="44.077508" lon="10.266886">
        <ele>1578.606</ele>
        <time>2022-08-11T10:11:37Z</time>
      </trkpt>
      <trkpt lat="44.077486" lon="10.266355">
        <ele>1590.416</ele>
        <time>2022-08-11T10:12:36Z</time>
      </trkpt>
      <trkpt lat="44.077893" lon="10.264193">
        <ele>1604.309</ele>
        <time>2022-08-11T10:15:43Z</time>
      </trkpt>
      <trkpt lat="44.077737" lon="10.263594">
        <ele>1599.817</ele>
        <time>2022-08-11T10:16:49Z</time>
      </trkpt>
      <trkpt lat="44.077758" lon="10.262758">
        <ele>1604.597</ele>
        <time>2022-08-11T10:17:56Z</time>
      </trkpt>
      <trkpt lat="44.077477" lon="10.260949">
        <ele>1641.036</ele>
        <time>2022-08-11T10:21:25Z</time>
      </trkpt>
      <trkpt lat="44.077708" lon="10.259631">
        <ele>1688.579</ele>
        <time>2022-08-11T10:26:26Z</time>
      </trkpt>
      <trkpt lat="44.077574" lon="10.259368">
        <ele>1701.888</ele>
        <time>2022-08-11T10:27:33Z</time>
      </trkpt>
      <trkpt lat="44.077648" lon="10.259290">
        <ele>1701.836</ele>
        <time>2022-08-11T10:30:37Z</time>
      </trkpt>
      <trkpt lat="44.077597" lon="10.259419">
        <ele>1701.873</ele>
        <time>2022-08-11T10:30:39Z</time>
      </trkpt>
      <trkpt lat="44.077558" lon="10.259276">
        <ele>1701.833</ele>
        <time>2022-08-11T10:36:06Z</time>
      </trkpt>
      <trkpt lat="44.077666" lon="10.259567">
        <ele>1703.173</ele>
        <time>2022-08-11T10:44:22Z</time>
      </trkpt>
      <trkpt lat="44.077591" lon="10.259774">
        <ele>1691.485</ele>
        <time>2022-08-11T10:45:20Z</time>
      </trkpt>
      <trkpt lat="44.077632" lon="10.260370">
        <ele>1670.289</ele>
        <time>2022-08-11T10:46:40Z</time>
      </trkpt>
      <trkpt lat="44.077481" lon="10.260833">
        <ele>1653.117</ele>
        <time>2022-08-11T10:47:56Z</time>
      </trkpt>
      <trkpt lat="44.077738" lon="10.262762">
        <ele>1610.709</ele>
        <time>2022-08-11T10:51:29Z</time>
      </trkpt>
      <trkpt lat="44.077711" lon="10.263455">
        <ele>1599.359</ele>
        <time>2022-08-11T10:52:22Z</time>
      </trkpt>
      <trkpt lat="44.078129" lon="10.263932">
        <ele>1580.789</ele>
        <time>2022-08-11T10:55:05Z</time>
      </trkpt>
      <trkpt lat="44.078250" lon="10.263839">
        <ele>1574.038</ele>
        <time>2022-08-11T10:55:44Z</time>
      </trkpt>
      <trkpt lat="44.078344" lon="10.263497">
        <ele>1566.251</ele>
        <time>2022-08-11T10:56:19Z</time>
      </trkpt>
      <trkpt lat="44.078298" lon="10.262733">
        <ele>1556.590</ele>
        <time>2022-08-11T10:57:32Z</time>
      </trkpt>
      <trkpt lat="44.078431" lon="10.262757">
        <ele>1552.148</ele>
        <time>2022-08-11T10:58:22Z</time>
      </trkpt>
      <trkpt lat="44.078778" lon="10.262588">
        <ele>1538.255</ele>
        <time>2022-08-11T10:59:02Z</time>
      </trkpt>
      <trkpt lat="44.079298" lon="10.261731">
        <ele>1526.835</ele>
        <time>2022-08-11T11:01:29Z</time>
      </trkpt>
      <trkpt lat="44.079592" lon="10.261645">
        <ele>1524.575</ele>
        <time>2022-08-11T11:02:04Z</time>
      </trkpt>
      <trkpt lat="44.079831" lon="10.261412">
        <ele>1526.576</ele>
        <time>2022-08-11T11:02:57Z</time>
      </trkpt>
      <trkpt lat="44.080061" lon="10.260589">
        <ele>1514.390</ele>
        <time>2022-08-11T11:04:24Z</time>
      </trkpt>
      <trkpt lat="44.080597" lon="10.259698">
        <ele>1506.119</ele>
        <time>2022-08-11T11:06:19Z</time>
      </trkpt>
      <trkpt lat="44.080550" lon="10.257690">
        <ele>1492.409</ele>
        <time>2022-08-11T11:10:29Z</time>
      </trkpt>
      <trkpt lat="44.080295" lon="10.257507">
        <ele>1487.628</ele>
        <time>2022-08-11T11:12:33Z</time>
      </trkpt>
      <trkpt lat="44.080220" lon="10.256721">
        <ele>1475.068</ele>
        <time>2022-08-11T11:14:05Z</time>
      </trkpt>
      <trkpt lat="44.080468" lon="10.256296">
        <ele>1473.357</ele>
        <time>2022-08-11T11:15:19Z</time>
      </trkpt>
      <trkpt lat="44.080657" lon="10.256254">
        <ele>1464.970</ele>
        <time>2022-08-11T11:15:52Z</time>
      </trkpt>
      <trkpt lat="44.080918" lon="10.256029">
        <ele>1466.049</ele>
        <time>2022-08-11T11:16:30Z</time>
      </trkpt>
      <trkpt lat="44.081375" lon="10.255411">
        <ele>1470.627</ele>
        <time>2022-08-11T11:17:55Z</time>
      </trkpt>
      <trkpt lat="44.081643" lon="10.255335">
        <ele>1474.794</ele>
        <time>2022-08-11T11:19:51Z</time>
      </trkpt>
      <trkpt lat="44.082078" lon="10.254859">
        <ele>1463.394</ele>
        <time>2022-08-11T11:22:28Z</time>
      </trkpt>
      <trkpt lat="44.082389" lon="10.254693">
        <ele>1462.864</ele>
        <time>2022-08-11T11:25:08Z</time>
      </trkpt>
      <trkpt lat="44.082539" lon="10.254407">
        <ele>1462.881</ele>
        <time>2022-08-11T11:25:17Z</time>
      </trkpt>
      <trkpt lat="44.082595" lon="10.253991">
        <ele>1453.961</ele>
        <time>2022-08-11T11:26:06Z</time>
      </trkpt>
      <trkpt lat="44.082761" lon="10.253668">
        <ele>1442.317</ele>
        <time>2022-08-11T11:27:10Z</time>
      </trkpt>
      <trkpt lat="44.082732" lon="10.252907">
        <ele>1444.009</ele>
        <time>2022-08-11T11:29:46Z</time>
      </trkpt>
      <trkpt lat="44.082509" lon="10.252525">
        <ele>1453.579</ele>
        <time>2022-08-11T11:31:42Z</time>
      </trkpt>
      <trkpt lat="44.082403" lon="10.251960">
        <ele>1470.469</ele>
        <time>2022-08-11T11:33:15Z</time>
      </trkpt>
      <trkpt lat="44.082196" lon="10.251814">
        <ele>1478.098</ele>
        <time>2022-08-11T11:34:34Z</time>
      </trkpt>
      <trkpt lat="44.082105" lon="10.251591">
        <ele>1486.051</ele>
        <time>2022-08-11T11:35:50Z</time>
      </trkpt>
      <trkpt lat="44.082089" lon="10.251265">
        <ele>1499.960</ele>
        <time>2022-08-11T11:37:31Z</time>
      </trkpt>
      <trkpt lat="44.081917" lon="10.251037">
        <ele>1512.728</ele>
        <time>2022-08-11T11:39:40Z</time>
      </trkpt>
      <trkpt lat="44.081935" lon="10.250897">
        <ele>1516.985</ele>
        <time>2022-08-11T11:40:44Z</time>
      </trkpt>
      <trkpt lat="44.082840" lon="10.250085">
        <ele>1521.135</ele>
        <time>2022-08-11T11:43:23Z</time>
      </trkpt>
      <trkpt lat="44.083042" lon="10.249510">
        <ele>1518.445</ele>
        <time>2022-08-11T11:44:14Z</time>
      </trkpt>
      <trkpt lat="44.083487" lon="10.248747">
        <ele>1506.197</ele>
        <time>2022-08-11T11:45:28Z</time>
      </trkpt>
      <trkpt lat="44.084256" lon="10.247978">
        <ele>1498.023</ele>
        <time>2022-08-11T11:53:35Z</time>
      </trkpt>
      <trkpt lat="44.084566" lon="10.246810">
        <ele>1490.825</ele>
        <time>2022-08-11T11:56:00Z</time>
      </trkpt>
      <trkpt lat="44.084481" lon="10.246861">
        <ele>1491.109</ele>
        <time>2022-08-11T11:57:23Z</time>
      </trkpt>
      <trkpt lat="44.084456" lon="10.246796">
        <ele>1486.560</ele>
        <time>2022-08-11T12:00:26Z</time>
      </trkpt>
      <trkpt lat="44.084581" lon="10.246779">
        <ele>1481.730</ele>
        <time>2022-08-11T12:08:20Z</time>
      </trkpt>
      <trkpt lat="44.084451" lon="10.246576">
        <ele>1474.139</ele>
        <time>2022-08-11T12:09:07Z</time>
      </trkpt>
      <trkpt lat="44.084406" lon="10.246620">
        <ele>1474.172</ele>
        <time>2022-08-11T12:09:15Z</time>
      </trkpt>
      <trkpt lat="44.084452" lon="10.246793">
        <ele>1474.541</ele>
        <time>2022-08-11T12:09:22Z</time>
      </trkpt>
      <trkpt lat="44.084526" lon="10.246664">
        <ele>1479.339</ele>
        <time>2022-08-11T12:09:47Z</time>
      </trkpt>
      <trkpt lat="44.084602" lon="10.246741">
        <ele>1480.826</ele>
        <time>2022-08-11T12:10:08Z</time>
      </trkpt>
      <trkpt lat="44.084527" lon="10.246649">
        <ele>1483.556</ele>
        <time>2022-08-11T12:10:19Z</time>
      </trkpt>
      <trkpt lat="44.084451" lon="10.246875">
        <ele>1491.596</ele>
        <time>2022-08-11T12:12:52Z</time>
      </trkpt>
      <trkpt lat="44.084391" lon="10.246756">
        <ele>1491.592</ele>
        <time>2022-08-11T12:13:03Z</time>
      </trkpt>
      <trkpt lat="44.084320" lon="10.245782">
        <ele>1474.373</ele>
        <time>2022-08-11T12:14:09Z</time>
      </trkpt>
      <trkpt lat="44.083995" lon="10.246484">
        <ele>1458.120</ele>
        <time>2022-08-11T12:15:44Z</time>
      </trkpt>
      <trkpt lat="44.083697" lon="10.246786">
        <ele>1452.609</ele>
        <time>2022-08-11T12:16:12Z</time>
      </trkpt>
      <trkpt lat="44.082859" lon="10.246717">
        <ele>1435.970</ele>
        <time>2022-08-11T12:17:37Z</time>
      </trkpt>
      <trkpt lat="44.082843" lon="10.246519">
        <ele>1435.870</ele>
        <time>2022-08-11T12:17:50Z</time>
      </trkpt>
      <trkpt lat="44.083183" lon="10.246455">
        <ele>1436.779</ele>
        <time>2022-08-11T12:20:49Z</time>
      </trkpt>
      <trkpt lat="44.083126" lon="10.246290">
        <ele>1428.992</ele>
        <time>2022-08-11T12:21:07Z</time>
      </trkpt>
      <trkpt lat="44.082771" lon="10.246157">
        <ele>1414.121</ele>
        <time>2022-08-11T12:21:45Z</time>
      </trkpt>
      <trkpt lat="44.082589" lon="10.246250">
        <ele>1407.129</ele>
        <time>2022-08-11T12:22:04Z</time>
      </trkpt>
      <trkpt lat="44.082154" lon="10.246107">
        <ele>1396.386</ele>
        <time>2022-08-11T12:22:44Z</time>
      </trkpt>
      <trkpt lat="44.082173" lon="10.246167">
        <ele>1393.156</ele>
        <time>2022-08-11T12:22:48Z</time>
      </trkpt>
      <trkpt lat="44.081889" lon="10.245910">
        <ele>1383.346</ele>
        <time>2022-08-11T12:24:10Z</time>
      </trkpt>
      <trkpt lat="44.081734" lon="10.245929">
        <ele>1384.918</ele>
        <time>2022-08-11T12:24:26Z</time>
      </trkpt>
      <trkpt lat="44.081418" lon="10.246127">
        <ele>1378.998</ele>
        <time>2022-08-11T12:24:59Z</time>
      </trkpt>
      <trkpt lat="44.081019" lon="10.246225">
        <ele>1362.917</ele>
        <time>2022-08-11T12:26:07Z</time>
      </trkpt>
      <trkpt lat="44.080413" lon="10.246706">
        <ele>1353.409</ele>
        <time>2022-08-11T12:27:59Z</time>
      </trkpt>
      <trkpt lat="44.080201" lon="10.247009">
        <ele>1347.172</ele>
        <time>2022-08-11T12:28:24Z</time>
      </trkpt>
      <trkpt lat="44.080149" lon="10.247396">
        <ele>1339.882</ele>
        <time>2022-08-11T12:29:20Z</time>
      </trkpt>
      <trkpt lat="44.080041" lon="10.246501">
        <ele>1329.941</ele>
        <time>2022-08-11T12:31:21Z</time>
      </trkpt>
      <trkpt lat="44.080343" lon="10.245984">
        <ele>1317.944</ele>
        <time>2022-08-11T12:32:57Z</time>
      </trkpt>
      <trkpt lat="44.080721" lon="10.245671">
        <ele>1314.473</ele>
        <time>2022-08-11T12:33:50Z</time>
      </trkpt>
      <trkpt lat="44.081085" lon="10.245621">
        <ele>1304.931</ele>
        <time>2022-08-11T12:34:19Z</time>
      </trkpt>
      <trkpt lat="44.081240" lon="10.245361">
        <ele>1302.198</ele>
        <time>2022-08-11T12:34:39Z</time>
      </trkpt>
      <trkpt lat="44.081380" lon="10.245299">
        <ele>1299.158</ele>
        <time>2022-08-11T12:34:52Z</time>
      </trkpt>
      <trkpt lat="44.081402" lon="10.245160">
        <ele>1297.648</ele>
        <time>2022-08-11T12:35:02Z</time>
      </trkpt>
      <trkpt lat="44.081189" lon="10.245102">
        <ele>1293.791</ele>
        <time>2022-08-11T12:35:45Z</time>
      </trkpt>
      <trkpt lat="44.080043" lon="10.245402">
        <ele>1279.581</ele>
        <time>2022-08-11T12:38:17Z</time>
      </trkpt>
      <trkpt lat="44.079727" lon="10.245275">
        <ele>1274.319</ele>
        <time>2022-08-11T12:39:07Z</time>
      </trkpt>
      <trkpt lat="44.079289" lon="10.245598">
        <ele>1256.809</ele>
        <time>2022-08-11T12:40:18Z</time>
      </trkpt>
      <trkpt lat="44.079180" lon="10.245909">
        <ele>1242.240</ele>
        <time>2022-08-11T12:40:42Z</time>
      </trkpt>
      <trkpt lat="44.079243" lon="10.246148">
        <ele>1238.150</ele>
        <time>2022-08-11T12:41:10Z</time>
      </trkpt>
      <trkpt lat="44.078908" lon="10.245907">
        <ele>1241.849</ele>
        <time>2022-08-11T12:41:47Z</time>
      </trkpt>
      <trkpt lat="44.078608" lon="10.246016">
        <ele>1242.012</ele>
        <time>2022-08-11T12:42:16Z</time>
      </trkpt>
      <trkpt lat="44.078264" lon="10.245967">
        <ele>1238.751</ele>
        <time>2022-08-11T12:42:49Z</time>
      </trkpt>
      <trkpt lat="44.077679" lon="10.246551">
        <ele>1221.439</ele>
        <time>2022-08-11T12:44:19Z</time>
      </trkpt>
      <trkpt lat="44.077370" lon="10.246540">
        <ele>1218.946</ele>
        <time>2022-08-11T12:44:50Z</time>
      </trkpt>
      <trkpt lat="44.077239" lon="10.246964">
        <ele>1200.046</ele>
        <time>2022-08-11T12:45:54Z</time>
      </trkpt>
      <trkpt lat="44.076671" lon="10.247457">
        <ele>1181.626</ele>
        <time>2022-08-11T12:46:57Z</time>
      </trkpt>
      <trkpt lat="44.076388" lon="10.248139">
        <ele>1176.991</ele>
        <time>2022-08-11T12:47:58Z</time>
      </trkpt>
      <trkpt lat="44.076245" lon="10.248280">
        <ele>1179.681</ele>
        <time>2022-08-11T12:48:49Z</time>
      </trkpt>
      <trkpt lat="44.075992" lon="10.248218">
        <ele>1186.019</ele>
        <time>2022-08-11T12:49:10Z</time>
      </trkpt>
      <trkpt lat="44.075801" lon="10.248021">
        <ele>1194.709</ele>
        <time>2022-08-11T12:49:28Z</time>
      </trkpt>
      <trkpt lat="44.075407" lon="10.247941">
        <ele>1198.180</ele>
        <time>2022-08-11T12:50:11Z</time>
      </trkpt>
      <trkpt lat="44.075032" lon="10.247485">
        <ele>1189.710</ele>
        <time>2022-08-11T12:51:05Z</time>
      </trkpt>
      <trkpt lat="44.074885" lon="10.247495">
        <ele>1181.529</ele>
        <time>2022-08-11T12:51:19Z</time>
      </trkpt>
      <trkpt lat="44.074714" lon="10.247927">
        <ele>1160.252</ele>
        <time>2022-08-11T12:51:56Z</time>
      </trkpt>
      <trkpt lat="44.074685" lon="10.248908">
        <ele>1152.541</ele>
        <time>2022-08-11T12:53:16Z</time>
      </trkpt>
      <trkpt lat="44.074521" lon="10.248800">
        <ele>1153.499</ele>
        <time>2022-08-11T12:54:03Z</time>
      </trkpt>
      <trkpt lat="44.074335" lon="10.248208">
        <ele>1132.216</ele>
        <time>2022-08-11T12:55:51Z</time>
      </trkpt>
      <trkpt lat="44.074124" lon="10.247889">
        <ele>1130.136</ele>
        <time>2022-08-11T12:56:24Z</time>
      </trkpt>
      <trkpt lat="44.074371" lon="10.247275">
        <ele>1119.836</ele>
        <time>2022-08-11T12:57:09Z</time>
      </trkpt>
      <trkpt lat="44.074311" lon="10.246981">
        <ele>1113.765</ele>
        <time>2022-08-11T12:57:54Z</time>
      </trkpt>
      <trkpt lat="44.074550" lon="10.246648">
        <ele>1107.668</ele>
        <time>2022-08-11T12:58:21Z</time>
      </trkpt>
      <trkpt lat="44.074463" lon="10.246719">
        <ele>1107.314</ele>
        <time>2022-08-11T12:58:36Z</time>
      </trkpt>
      <trkpt lat="44.074530" lon="10.246373">
        <ele>1093.409</ele>
        <time>2022-08-11T12:59:01Z</time>
      </trkpt>
      <trkpt lat="44.074770" lon="10.246299">
        <ele>1084.057</ele>
        <time>2022-08-11T12:59:18Z</time>
      </trkpt>
      <trkpt lat="44.074870" lon="10.246099">
        <ele>1084.667</ele>
        <time>2022-08-11T13:00:17Z</time>
      </trkpt>
      <trkpt lat="44.074752" lon="10.245990">
        <ele>1085.186</ele>
        <time>2022-08-11T13:01:33Z</time>
      </trkpt>
      <trkpt lat="44.073900" lon="10.246025">
        <ele>1061.229</ele>
        <time>2022-08-11T13:03:21Z</time>
      </trkpt>
      <trkpt lat="44.073761" lon="10.246641">
        <ele>1050.878</ele>
        <time>2022-08-11T13:04:47Z</time>
      </trkpt>
      <trkpt lat="44.073546" lon="10.245933">
        <ele>1054.176</ele>
        <time>2022-08-11T13:06:08Z</time>
      </trkpt>
      <trkpt lat="44.073770" lon="10.245789">
        <ele>1051.973</ele>
        <time>2022-08-11T13:06:38Z</time>
      </trkpt>
      <trkpt lat="44.073816" lon="10.245599">
        <ele>1048.663</ele>
        <time>2022-08-11T13:06:53Z</time>
      </trkpt>
      <trkpt lat="44.073729" lon="10.245440">
        <ele>1044.113</ele>
        <time>2022-08-11T13:07:03Z</time>
      </trkpt>
      <trkpt lat="44.073474" lon="10.245385">
        <ele>1038.314</ele>
        <time>2022-08-11T13:07:30Z</time>
      </trkpt>
      <trkpt lat="44.073292" lon="10.245480">
        <ele>1034.554</ele>
        <time>2022-08-11T13:07:47Z</time>
      </trkpt>
      <trkpt lat="44.073265" lon="10.245601">
        <ele>1034.509</ele>
        <time>2022-08-11T13:08:01Z</time>
      </trkpt>
      <trkpt lat="44.073254" lon="10.245506">
        <ele>1034.609</ele>
        <time>2022-08-11T13:08:18Z</time>
      </trkpt>
      <trkpt lat="44.072989" lon="10.246218">
        <ele>1015.412</ele>
        <time>2022-08-11T13:09:16Z</time>
      </trkpt>
      <trkpt lat="44.072616" lon="10.246589">
        <ele>1009.332</ele>
        <time>2022-08-11T13:09:57Z</time>
      </trkpt>
      <trkpt lat="44.072092" lon="10.246739">
        <ele>1000.671</ele>
        <time>2022-08-11T13:10:42Z</time>
      </trkpt>
      <trkpt lat="44.071633" lon="10.246739">
        <ele>998.184</ele>
        <time>2022-08-11T13:11:21Z</time>
      </trkpt>
      <trkpt lat="44.071438" lon="10.246517">
        <ele>989.743</ele>
        <time>2022-08-11T13:11:46Z</time>
      </trkpt>
      <trkpt lat="44.071295" lon="10.246139">
        <ele>986.641</ele>
        <time>2022-08-11T13:12:23Z</time>
      </trkpt>
      <trkpt lat="44.071142" lon="10.246126">
        <ele>987.338</ele>
        <time>2022-08-11T13:12:34Z</time>
      </trkpt>
      <trkpt lat="44.071083" lon="10.246379">
        <ele>983.088</ele>
        <time>2022-08-11T13:13:13Z</time>
      </trkpt>
      <trkpt lat="44.071321" lon="10.246912">
        <ele>978.188</ele>
        <time>2022-08-11T13:13:57Z</time>
      </trkpt>
      <trkpt lat="44.071234" lon="10.247123">
        <ele>976.792</ele>
        <time>2022-08-11T13:14:17Z</time>
      </trkpt>
      <trkpt lat="44.070760" lon="10.246741">
        <ele>965.673</ele>
        <time>2022-08-11T13:15:15Z</time>
      </trkpt>
      <trkpt lat="44.070500" lon="10.246740">
        <ele>962.520</ele>
        <time>2022-08-11T13:15:34Z</time>
      </trkpt>
      <trkpt lat="44.069493" lon="10.247388">
        <ele>951.109</ele>
        <time>2022-08-11T13:17:02Z</time>
      </trkpt>
      <trkpt lat="44.067970" lon="10.247903">
        <ele>928.160</ele>
        <time>2022-08-11T13:20:00Z</time>
      </trkpt>
      <trkpt lat="44.067087" lon="10.248853">
        <ele>927.920</ele>
        <time>2022-08-11T13:21:31Z</time>
      </trkpt>
    </trkseg>
  </trk></gpx>