<?xml version="1.0" encoding="UTF-8"?>
<gpx creator="Wikiloc - https://www.wikiloc.com" version="1.1" xmlns="http://www.topografix.com/GPX/1/1" xmlns:xsi="http://www.w3.org/2001/XMLSchema-instance" xsi:schemaLocation="http://www.topografix.com/GPX/1/1 http://www.topografix.com/GPX/1/1/gpx.xsd">
  <metadata>
    <name>Wikiloc - Da Passo della Calla all'Eremo di Camaldoli, percorrendo il ...</name>
    <link href="https://www.wikiloc.com/hiking-trails/da-passo-della-calla-alleremo-di-camaldoli-percorrendo-il-sentiero-00-180660413">
      <text>Da Passo della Calla all'Eremo di Camaldoli, percorrendo il ... on Wikiloc</text>
    </link>
    <time>2024-08-11T16:28:18.321Z</time>
  </metadata>
  <trk>
    <name>Da Passo della Calla all'Eremo di Camaldoli, percorrendo il ... - Wikiloc</name>
    <cmt></cmt>
    <desc></desc>
    <trkseg>
      <trkpt lat="43.860167" lon="11.744373">
        <ele>1234.483</ele>
        <time>2024-08-11T07:43:47Z</time>
      </trkpt>
      <trkpt lat="43.859765" lon="11.744547">
        <ele>1235.025</ele>
        <time>2024-08-11T07:45:58.001Z</time>
      </trkpt>
      <trkpt lat="43.858995" lon="11.745257">
        <ele>1238.017</ele>
        <time>2024-08-11T07:48:46.002Z</time>
      </trkpt>
      <trkpt lat="43.858612" lon="11.746069">
        <ele>1246.109</ele>
        <time>2024-08-11T07:49:59.002Z</time>
      </trkpt>
      <trkpt lat="43.858565" lon="11.745958">
        <ele>1246.559</ele>
        <time>2024-08-11T07:50:25.004Z</time>
      </trkpt>
      <trkpt lat="43.858599" lon="11.746199">
        <ele>1247.786</ele>
        <time>2024-08-11T07:50:41.004Z</time>
      </trkpt>
      <trkpt lat="43.858033" lon="11.747444">
        <ele>1252.358</ele>
        <time>2024-08-11T07:52:29.006Z</time>
      </trkpt>
      <trkpt lat="43.857738" lon="11.748937">
        <ele>1255.644</ele>
        <time>2024-08-11T07:54:16.006Z</time>
      </trkpt>
      <trkpt lat="43.857935" lon="11.749456">
        <ele>1263.344</ele>
        <time>2024-08-11T07:55:08.008Z</time>
      </trkpt>
      <trkpt lat="43.858069" lon="11.750803">
        <ele>1328.668</ele>
        <time>2024-08-11T07:56:35.010Z</time>
      </trkpt>
      <trkpt lat="43.857798" lon="11.751630">
        <ele>1331.232</ele>
        <time>2024-08-11T07:57:38.010Z</time>
      </trkpt>
      <trkpt lat="43.857388" lon="11.752106">
        <ele>1341.699</ele>
        <time>2024-08-11T07:58:46.012Z</time>
      </trkpt>
      <trkpt lat="43.857532" lon="11.753007">
        <ele>1361.171</ele>
        <time>2024-08-11T08:00:28.012Z</time>
      </trkpt>
      <trkpt lat="43.857386" lon="11.753288">
        <ele>1364.855</ele>
        <time>2024-08-11T08:00:54.014Z</time>
      </trkpt>
      <trkpt lat="43.857621" lon="11.753635">
        <ele>1371.907</ele>
        <time>2024-08-11T08:01:48.014Z</time>
      </trkpt>
      <trkpt lat="43.857603" lon="11.754208">
        <ele>1381.217</ele>
        <time>2024-08-11T08:02:41.014Z</time>
      </trkpt>
      <trkpt lat="43.856832" lon="11.755682">
        <ele>1384.509</ele>
        <time>2024-08-11T08:04:56.018Z</time>
      </trkpt>
      <trkpt lat="43.856632" lon="11.757404">
        <ele>1406.996</ele>
        <time>2024-08-11T08:07:33.020Z</time>
      </trkpt>
      <trkpt lat="43.856401" lon="11.758019">
        <ele>1416.193</ele>
        <time>2024-08-11T08:08:37.020Z</time>
      </trkpt>
      <trkpt lat="43.856075" lon="11.758338">
        <ele>1423.545</ele>
        <time>2024-08-11T08:09:28.022Z</time>
      </trkpt>
      <trkpt lat="43.854828" lon="11.758917">
        <ele>1421.041</ele>
        <time>2024-08-11T08:12:12.024Z</time>
      </trkpt>
      <trkpt lat="43.854500" lon="11.759258">
        <ele>1421.611</ele>
        <time>2024-08-11T08:13:06.024Z</time>
      </trkpt>
      <trkpt lat="43.853776" lon="11.761844">
        <ele>1407.745</ele>
        <time>2024-08-11T08:17:08.027Z</time>
      </trkpt>
      <trkpt lat="43.853766" lon="11.762264">
        <ele>1409.549</ele>
        <time>2024-08-11T08:17:36.029Z</time>
      </trkpt>
      <trkpt lat="43.853858" lon="11.762159">
        <ele>1410.186</ele>
        <time>2024-08-11T08:17:45.029Z</time>
      </trkpt>
      <trkpt lat="43.853779" lon="11.761994">
        <ele>1410.278</ele>
        <time>2024-08-11T08:18:24.029Z</time>
      </trkpt>
      <trkpt lat="43.853400" lon="11.762938">
        <ele>1413.056</ele>
        <time>2024-08-11T08:20:22.031Z</time>
      </trkpt>
      <trkpt lat="43.852951" lon="11.763601">
        <ele>1419.059</ele>
        <time>2024-08-11T08:21:28.031Z</time>
      </trkpt>
      <trkpt lat="43.852351" lon="11.767219">
        <ele>1416.414</ele>
        <time>2024-08-11T08:25:34.035Z</time>
      </trkpt>
      <trkpt lat="43.851808" lon="11.767885">
        <ele>1407.609</ele>
        <time>2024-08-11T08:26:49.037Z</time>
      </trkpt>
      <trkpt lat="43.851296" lon="11.767987">
        <ele>1407.776</ele>
        <time>2024-08-11T08:27:41.037Z</time>
      </trkpt>
      <trkpt lat="43.850999" lon="11.768644">
        <ele>1407.423</ele>
        <time>2024-08-11T08:28:36.039Z</time>
      </trkpt>
      <trkpt lat="43.850919" lon="11.769268">
        <ele>1403.095</ele>
        <time>2024-08-11T08:29:31.039Z</time>
      </trkpt>
      <trkpt lat="43.850624" lon="11.769970">
        <ele>1398.261</ele>
        <time>2024-08-11T08:30:14.041Z</time>
      </trkpt>
      <trkpt lat="43.850578" lon="11.770687">
        <ele>1394.541</ele>
        <time>2024-08-11T08:30:54.041Z</time>
      </trkpt>
      <trkpt lat="43.850669" lon="11.771363">
        <ele>1397.295</ele>
        <time>2024-08-11T08:31:46.041Z</time>
      </trkpt>
      <trkpt lat="43.851191" lon="11.772392">
        <ele>1409.019</ele>
        <time>2024-08-11T08:34:10.042Z</time>
      </trkpt>
      <trkpt lat="43.851100" lon="11.772868">
        <ele>1410.156</ele>
        <time>2024-08-11T08:35:13.044Z</time>
      </trkpt>
      <trkpt lat="43.850946" lon="11.773304">
        <ele>1411.478</ele>
        <time>2024-08-11T08:35:45.044Z</time>
      </trkpt>
      <trkpt lat="43.850706" lon="11.773392">
        <ele>1415.446</ele>
        <time>2024-08-11T08:36:15.044Z</time>
      </trkpt>
      <trkpt lat="43.850327" lon="11.774467">
        <ele>1421.788</ele>
        <time>2024-08-11T08:37:43.046Z</time>
      </trkpt>
      <trkpt lat="43.850142" lon="11.775174">
        <ele>1426.816</ele>
        <time>2024-08-11T08:38:47.048Z</time>
      </trkpt>
      <trkpt lat="43.850244" lon="11.775310">
        <ele>1427.809</ele>
        <time>2024-08-11T08:39:04.048Z</time>
      </trkpt>
      <trkpt lat="43.850124" lon="11.775165">
        <ele>1427.965</ele>
        <time>2024-08-11T08:39:29.048Z</time>
      </trkpt>
      <trkpt lat="43.849611" lon="11.775909">
        <ele>1438.962</ele>
        <time>2024-08-11T08:40:56.050Z</time>
      </trkpt>
      <trkpt lat="43.848471" lon="11.778222">
        <ele>1459.794</ele>
        <time>2024-08-11T08:45:50.054Z</time>
      </trkpt>
      <trkpt lat="43.847804" lon="11.780918">
        <ele>1481.330</ele>
        <time>2024-08-11T08:50:48.057Z</time>
      </trkpt>
      <trkpt lat="43.847519" lon="11.781585">
        <ele>1482.610</ele>
        <time>2024-08-11T08:51:42.059Z</time>
      </trkpt>
      <trkpt lat="43.847404" lon="11.783461">
        <ele>1482.814</ele>
        <time>2024-08-11T08:53:51.061Z</time>
      </trkpt>
      <trkpt lat="43.846933" lon="11.784526">
        <ele>1471.688</ele>
        <time>2024-08-11T08:55:46.063Z</time>
      </trkpt>
      <trkpt lat="43.846991" lon="11.785125">
        <ele>1469.585</ele>
        <time>2024-08-11T08:57:19.062Z</time>
      </trkpt>
      <trkpt lat="43.846664" lon="11.786347">
        <ele>1469.857</ele>
        <time>2024-08-11T08:59:41.065Z</time>
      </trkpt>
      <trkpt lat="43.845856" lon="11.786906">
        <ele>1473.356</ele>
        <time>2024-08-11T09:01:08.065Z</time>
      </trkpt>
      <trkpt lat="43.845224" lon="11.787793">
        <ele>1488.059</ele>
        <time>2024-08-11T09:04:31.067Z</time>
      </trkpt>
      <trkpt lat="43.844154" lon="11.788019">
        <ele>1494.814</ele>
        <time>2024-08-11T09:06:23.069Z</time>
      </trkpt>
      <trkpt lat="43.843907" lon="11.789599">
        <ele>1487.609</ele>
        <time>2024-08-11T09:22:04.070Z</time>
      </trkpt>
      <trkpt lat="43.843366" lon="11.790149">
        <ele>1482.166</ele>
        <time>2024-08-11T09:24:20.071Z</time>
      </trkpt>
      <trkpt lat="43.841924" lon="11.790480">
        <ele>1477.053</ele>
        <time>2024-08-11T09:26:35.073Z</time>
      </trkpt>
      <trkpt lat="43.841429" lon="11.791022">
        <ele>1475.665</ele>
        <time>2024-08-11T09:27:42.075Z</time>
      </trkpt>
      <trkpt lat="43.841336" lon="11.791446">
        <ele>1474.891</ele>
        <time>2024-08-11T09:28:08.075Z</time>
      </trkpt>
      <trkpt lat="43.840875" lon="11.791619">
        <ele>1475.351</ele>
        <time>2024-08-11T09:28:48.075Z</time>
      </trkpt>
      <trkpt lat="43.840502" lon="11.792140">
        <ele>1474.885</ele>
        <time>2024-08-11T09:29:33.077Z</time>
      </trkpt>
      <trkpt lat="43.839243" lon="11.792292">
        <ele>1472.639</ele>
        <time>2024-08-11T09:31:13.079Z</time>
      </trkpt>
      <trkpt lat="43.838284" lon="11.793180">
        <ele>1460.296</ele>
        <time>2024-08-11T09:33:15.081Z</time>
      </trkpt>
      <trkpt lat="43.838018" lon="11.793608">
        <ele>1454.578</ele>
        <time>2024-08-11T09:34:10.081Z</time>
      </trkpt>
      <trkpt lat="43.837556" lon="11.793733">
        <ele>1450.168</ele>
        <time>2024-08-11T09:34:52.081Z</time>
      </trkpt>
      <trkpt lat="43.836880" lon="11.793483">
        <ele>1440.142</ele>
        <time>2024-08-11T09:35:55.083Z</time>
      </trkpt>
      <trkpt lat="43.836722" lon="11.793997">
        <ele>1434.826</ele>
        <time>2024-08-11T09:36:33.083Z</time>
      </trkpt>
      <trkpt lat="43.836324" lon="11.794223">
        <ele>1427.509</ele>
        <time>2024-08-11T09:37:13.083Z</time>
      </trkpt>
      <trkpt lat="43.836491" lon="11.794847">
        <ele>1419.877</ele>
        <time>2024-08-11T09:38:02.085Z</time>
      </trkpt>
      <trkpt lat="43.836038" lon="11.794872">
        <ele>1411.264</ele>
        <time>2024-08-11T09:38:46.085Z</time>
      </trkpt>
      <trkpt lat="43.836040" lon="11.795395">
        <ele>1405.396</ele>
        <time>2024-08-11T09:39:21.087Z</time>
      </trkpt>
      <trkpt lat="43.835754" lon="11.796292">
        <ele>1395.892</ele>
        <time>2024-08-11T09:40:21.087Z</time>
      </trkpt>
      <trkpt lat="43.835345" lon="11.796951">
        <ele>1392.162</ele>
        <time>2024-08-11T09:41:15.087Z</time>
      </trkpt>
      <trkpt lat="43.834846" lon="11.798703">
        <ele>1378.186</ele>
        <time>2024-08-11T09:43:34.091Z</time>
      </trkpt>
      <trkpt lat="43.833903" lon="11.800774">
        <ele>1378.180</ele>
        <time>2024-08-11T09:46:49.093Z</time>
      </trkpt>
      <trkpt lat="43.833875" lon="11.800630">
        <ele>1377.947</ele>
        <time>2024-08-11T09:47:24.092Z</time>
      </trkpt>
      <trkpt lat="43.833595" lon="11.801343">
        <ele>1373.459</ele>
        <time>2024-08-11T09:49:24.094Z</time>
      </trkpt>
      <trkpt lat="43.833141" lon="11.801826">
        <ele>1366.176</ele>
        <time>2024-08-11T09:50:17.096Z</time>
      </trkpt>
      <trkpt lat="43.832746" lon="11.801830">
        <ele>1360.090</ele>
        <time>2024-08-11T09:51:10.096Z</time>
      </trkpt>
      <trkpt lat="43.832339" lon="11.802208">
        <ele>1352.419</ele>
        <time>2024-08-11T09:51:59.098Z</time>
      </trkpt>
      <trkpt lat="43.832118" lon="11.803462">
        <ele>1349.809</ele>
        <time>2024-08-11T09:53:31.098Z</time>
      </trkpt>
      <trkpt lat="43.831713" lon="11.804119">
        <ele>1359.468</ele>
        <time>2024-08-11T09:54:36.100Z</time>
      </trkpt>
      <trkpt lat="43.831799" lon="11.804409">
        <ele>1362.135</ele>
        <time>2024-08-11T09:55:03.100Z</time>
      </trkpt>
      <trkpt lat="43.831568" lon="11.805181">
        <ele>1369.887</ele>
        <time>2024-08-11T09:56:10.102Z</time>
      </trkpt>
      <trkpt lat="43.830802" lon="11.806382">
        <ele>1379.283</ele>
        <time>2024-08-11T09:58:05.102Z</time>
      </trkpt>
      <trkpt lat="43.829953" lon="11.806495">
        <ele>1388.313</ele>
        <time>2024-08-11T09:59:27.104Z</time>
      </trkpt>
      <trkpt lat="43.829590" lon="11.807087">
        <ele>1390.717</ele>
        <time>2024-08-11T10:00:13.104Z</time>
      </trkpt>
      <trkpt lat="43.828971" lon="11.807397">
        <ele>1389.381</ele>
        <time>2024-08-11T10:01:30.106Z</time>
      </trkpt>
      <trkpt lat="43.828750" lon="11.807656">
        <ele>1390.028</ele>
        <time>2024-08-11T10:02:33.108Z</time>
      </trkpt>
      <trkpt lat="43.827735" lon="11.807538">
        <ele>1386.180</ele>
        <time>2024-08-11T10:15:00.106Z</time>
      </trkpt>
      <trkpt lat="43.827621" lon="11.807417">
        <ele>1385.522</ele>
        <time>2024-08-11T10:16:02.107Z</time>
      </trkpt>
      <trkpt lat="43.827491" lon="11.807524">
        <ele>1384.762</ele>
        <time>2024-08-11T10:16:15.107Z</time>
      </trkpt>
      <trkpt lat="43.827343" lon="11.809033">
        <ele>1370.608</ele>
        <time>2024-08-11T10:18:29.109Z</time>
      </trkpt>
      <trkpt lat="43.827433" lon="11.808954">
        <ele>1369.209</ele>
        <time>2024-08-11T10:18:43.109Z</time>
      </trkpt>
      <trkpt lat="43.827719" lon="11.809592">
        <ele>1364.663</ele>
        <time>2024-08-11T10:19:34.111Z</time>
      </trkpt>
      <trkpt lat="43.827761" lon="11.810053">
        <ele>1359.010</ele>
        <time>2024-08-11T10:20:23.111Z</time>
      </trkpt>
      <trkpt lat="43.827696" lon="11.809967">
        <ele>1357.612</ele>
        <time>2024-08-11T10:20:30.111Z</time>
      </trkpt>
      <trkpt lat="43.827724" lon="11.810109">
        <ele>1356.758</ele>
        <time>2024-08-11T10:20:46.111Z</time>
      </trkpt>
      <trkpt lat="43.827555" lon="11.810055">
        <ele>1355.478</ele>
        <time>2024-08-11T10:21:13.111Z</time>
      </trkpt>
      <trkpt lat="43.827222" lon="11.810359">
        <ele>1354.052</ele>
        <time>2024-08-11T10:21:50.113Z</time>
      </trkpt>
      <trkpt lat="43.825540" lon="11.812866">
        <ele>1363.046</ele>
        <time>2024-08-11T10:26:13.117Z</time>
      </trkpt>
      <trkpt lat="43.825296" lon="11.812911">
        <ele>1363.263</ele>
        <time>2024-08-11T10:26:35.117Z</time>
      </trkpt>
      <trkpt lat="43.825199" lon="11.813144">
        <ele>1363.615</ele>
        <time>2024-08-11T10:26:50.117Z</time>
      </trkpt>
      <trkpt lat="43.823939" lon="11.813589">
        <ele>1364.832</ele>
        <time>2024-08-11T10:29:14.119Z</time>
      </trkpt>
      <trkpt lat="43.823524" lon="11.813962">
        <ele>1363.392</ele>
        <time>2024-08-11T10:29:54.121Z</time>
      </trkpt>
      <trkpt lat="43.823194" lon="11.814440">
        <ele>1358.911</ele>
        <time>2024-08-11T10:31:11.121Z</time>
      </trkpt>
      <trkpt lat="43.822572" lon="11.816148">
        <ele>1353.109</ele>
        <time>2024-08-11T10:33:30.123Z</time>
      </trkpt>
      <trkpt lat="43.821760" lon="11.816799">
        <ele>1342.414</ele>
        <time>2024-08-11T10:35:12.125Z</time>
      </trkpt>
      <trkpt lat="43.821990" lon="11.816893">
        <ele>1342.121</ele>
        <time>2024-08-11T11:22:28.126Z</time>
      </trkpt>
      <trkpt lat="43.821831" lon="11.816670">
        <ele>1341.233</ele>
        <time>2024-08-11T11:22:58.126Z</time>
      </trkpt>
      <trkpt lat="43.821411" lon="11.816676">
        <ele>1338.299</ele>
        <time>2024-08-11T11:24:06.126Z</time>
      </trkpt>
      <trkpt lat="43.820817" lon="11.816395">
        <ele>1329.859</ele>
        <time>2024-08-11T11:25:08.128Z</time>
      </trkpt>
      <trkpt lat="43.820118" lon="11.817084">
        <ele>1321.483</ele>
        <time>2024-08-11T11:26:48.130Z</time>
      </trkpt>
      <trkpt lat="43.819076" lon="11.817152">
        <ele>1315.387</ele>
        <time>2024-08-11T11:28:27.130Z</time>
      </trkpt>
      <trkpt lat="43.818233" lon="11.816280">
        <ele>1305.224</ele>
        <time>2024-08-11T11:30:04.132Z</time>
      </trkpt>
      <trkpt lat="43.817974" lon="11.815364">
        <ele>1300.036</ele>
        <time>2024-08-11T11:31:39.134Z</time>
      </trkpt>
      <trkpt lat="43.817362" lon="11.815341">
        <ele>1291.148</ele>
        <time>2024-08-11T11:33:04.136Z</time>
      </trkpt>
      <trkpt lat="43.816884" lon="11.815580">
        <ele>1280.461</ele>
        <time>2024-08-11T11:35:04.137Z</time>
      </trkpt>
      <trkpt lat="43.816785" lon="11.815429">
        <ele>1278.817</ele>
        <time>2024-08-11T11:35:32.137Z</time>
      </trkpt>
      <trkpt lat="43.816190" lon="11.815511">
        <ele>1264.409</ele>
        <time>2024-08-11T11:37:42.139Z</time>
      </trkpt>
      <trkpt lat="43.815697" lon="11.815276">
        <ele>1261.845</ele>
        <time>2024-08-11T11:39:35.140Z</time>
      </trkpt>
      <trkpt lat="43.815740" lon="11.815444">
        <ele>1261.852</ele>
        <time>2024-08-11T11:42:40.141Z</time>
      </trkpt>
      <trkpt lat="43.815473" lon="11.815494">
        <ele>1258.494</ele>
        <time>2024-08-11T11:43:13.143Z</time>
      </trkpt>
      <trkpt lat="43.815173" lon="11.815783">
        <ele>1253.240</ele>
        <time>2024-08-11T11:43:46.143Z</time>
      </trkpt>
      <trkpt lat="43.814801" lon="11.815835">
        <ele>1245.320</ele>
        <time>2024-08-11T11:44:40.143Z</time>
      </trkpt>
      <trkpt lat="43.814543" lon="11.815617">
        <ele>1238.824</ele>
        <time>2024-08-11T11:45:19.145Z</time>
      </trkpt>
      <trkpt lat="43.814377" lon="11.815920">
        <ele>1232.778</ele>
        <time>2024-08-11T11:45:55.145Z</time>
      </trkpt>
      <trkpt lat="43.814326" lon="11.815828">
        <ele>1231.255</ele>
        <time>2024-08-11T11:46:20.145Z</time>
      </trkpt>
      <trkpt lat="43.814291" lon="11.815974">
        <ele>1230.927</ele>
        <time>2024-08-11T11:46:35.145Z</time>
      </trkpt>
      <trkpt lat="43.813998" lon="11.816009">
        <ele>1225.061</ele>
        <time>2024-08-11T11:47:06.145Z</time>
      </trkpt>
      <trkpt lat="43.813708" lon="11.816396">
        <ele>1216.921</ele>
        <time>2024-08-11T11:47:56.147Z</time>
      </trkpt>
      <trkpt lat="43.813592" lon="11.816297">
        <ele>1213.813</ele>
        <time>2024-08-11T11:48:10.147Z</time>
      </trkpt>
      <trkpt lat="43.813563" lon="11.816499">
        <ele>1213.109</ele>
        <time>2024-08-11T11:48:20.147Z</time>
      </trkpt>
      <trkpt lat="43.813335" lon="11.816425">
        <ele>1208.897</ele>
        <time>2024-08-11T11:48:49.147Z</time>
      </trkpt>
      <trkpt lat="43.813452" lon="11.816630">
        <ele>1207.214</ele>
        <time>2024-08-11T11:49:05.147Z</time>
      </trkpt>
      <trkpt lat="43.813351" lon="11.816494">
        <ele>1206.866</ele>
        <time>2024-08-11T11:49:17.147Z</time>
      </trkpt>
      <trkpt lat="43.813469" lon="11.816324">
        <ele>1204.682</ele>
        <time>2024-08-11T11:49:34.149Z</time>
      </trkpt>
      <trkpt lat="43.813225" lon="11.816105">
        <ele>1198.852</ele>
        <time>2024-08-11T11:50:16.149Z</time>
      </trkpt>
      <trkpt lat="43.812646" lon="11.814487">
        <ele>1174.736</ele>
        <time>2024-08-11T11:53:08.151Z</time>
      </trkpt>
      <trkpt lat="43.812128" lon="11.814691">
        <ele>1167.120</ele>
        <time>2024-08-11T11:54:39.153Z</time>
      </trkpt>
      <trkpt lat="43.812120" lon="11.814533">
        <ele>1165.377</ele>
        <time>2024-08-11T11:54:47.153Z</time>
      </trkpt>
      <trkpt lat="43.811756" lon="11.814677">
        <ele>1155.079</ele>
        <time>2024-08-11T11:55:39.153Z</time>
      </trkpt>
      <trkpt lat="43.811106" lon="11.815557">
        <ele>1144.497</ele>
        <time>2024-08-11T11:59:14.155Z</time>
      </trkpt>
      <trkpt lat="43.810311" lon="11.815770">
        <ele>1139.423</ele>
        <time>2024-08-11T12:01:17.157Z</time>
      </trkpt>
      <trkpt lat="43.810059" lon="11.816474">
        <ele>1131.625</ele>
        <time>2024-08-11T12:02:53.159Z</time>
      </trkpt>
      <trkpt lat="43.809989" lon="11.817253">
        <ele>1132.209</ele>
        <time>2024-08-11T12:26:16.160Z</time>
      </trkpt>
      <trkpt lat="43.810142" lon="11.818137">
        <ele>1134.930</ele>
        <time>2024-08-11T12:28:05.160Z</time>
      </trkpt>
      <trkpt lat="43.809908" lon="11.818685">
        <ele>1139.497</ele>
        <time>2024-08-11T12:29:07.161Z</time>
      </trkpt>
      <trkpt lat="43.809891" lon="11.819220">
        <ele>1143.959</ele>
        <time>2024-08-11T12:29:55.161Z</time>
      </trkpt>
      <trkpt lat="43.810168" lon="11.820460">
        <ele>1151.345</ele>
        <time>2024-08-11T12:31:40.162Z</time>
      </trkpt>
      <trkpt lat="43.810249" lon="11.821631">
        <ele>1156.575</ele>
        <time>2024-08-11T12:33:11.163Z</time>
      </trkpt>
      <trkpt lat="43.809893" lon="11.821969">
        <ele>1157.389</ele>
        <time>2024-08-11T12:34:28.163Z</time>
      </trkpt>
      <trkpt lat="43.809819" lon="11.822615">
        <ele>1138.233</ele>
        <time>2024-08-11T12:35:42.164Z</time>
      </trkpt>
      <trkpt lat="43.809959" lon="11.822931">
        <ele>1141.020</ele>
        <time>2024-08-11T12:36:10.164Z</time>
      </trkpt>
      <trkpt lat="43.809920" lon="11.823538">
        <ele>1148.812</ele>
        <time>2024-08-11T12:37:45.166Z</time>
      </trkpt>
      <trkpt lat="43.810216" lon="11.824274">
        <ele>1159.568</ele>
        <time>2024-08-11T12:39:02.168Z</time>
      </trkpt>
      <trkpt lat="43.810421" lon="11.824446">
        <ele>1164.442</ele>
        <time>2024-08-11T12:39:36.168Z</time>
      </trkpt>
      <trkpt lat="43.810351" lon="11.824575">
        <ele>1166.526</ele>
        <time>2024-08-11T12:39:53.168Z</time>
      </trkpt>
      <trkpt lat="43.810442" lon="11.824425">
        <ele>1172.509</ele>
        <time>2024-08-11T12:40:00.168Z</time>
      </trkpt>
      <trkpt lat="43.810538" lon="11.824730">
        <ele>1174.567</ele>
        <time>2024-08-11T12:40:16.168Z</time>
      </trkpt>
      <trkpt lat="43.810643" lon="11.824688">
        <ele>1176.214</ele>
        <time>2024-08-11T12:40:32.168Z</time>
      </trkpt>
      <trkpt lat="43.810911" lon="11.825016">
        <ele>1180.926</ele>
        <time>2024-08-11T12:41:23.170Z</time>
      </trkpt>
      <trkpt lat="43.810706" lon="11.826927">
        <ele>1190.562</ele>
        <time>2024-08-11T12:44:29.172Z</time>
      </trkpt>
      <trkpt lat="43.810828" lon="11.828085">
        <ele>1198.522</ele>
        <time>2024-08-11T12:46:23.174Z</time>
      </trkpt>
      <trkpt lat="43.811005" lon="11.828251">
        <ele>1200.566</ele>
        <time>2024-08-11T12:46:41.174Z</time>
      </trkpt>
      <trkpt lat="43.811035" lon="11.828559">
        <ele>1205.440</ele>
        <time>2024-08-11T12:47:16.176Z</time>
      </trkpt>
      <trkpt lat="43.811370" lon="11.828635">
        <ele>1210.497</ele>
        <time>2024-08-11T12:47:55.176Z</time>
      </trkpt>
      <trkpt lat="43.811453" lon="11.829042">
        <ele>1215.069</ele>
        <time>2024-08-11T12:48:44.176Z</time>
      </trkpt>
      <trkpt lat="43.811623" lon="11.828875">
        <ele>1215.292</ele>
        <time>2024-08-11T12:49:01.176Z</time>
      </trkpt>
      <trkpt lat="43.811182" lon="11.829607">
        <ele>1221.073</ele>
        <time>2024-08-11T12:50:56.178Z</time>
      </trkpt>
      <trkpt lat="43.811227" lon="11.829855">
        <ele>1223.020</ele>
        <time>2024-08-11T12:51:15.178Z</time>
      </trkpt>
      <trkpt lat="43.811149" lon="11.829780">
        <ele>1224.609</ele>
        <time>2024-08-11T12:51:28.180Z</time>
      </trkpt>
      <trkpt lat="43.811039" lon="11.830035">
        <ele>1225.770</ele>
        <time>2024-08-11T12:51:37.180Z</time>
      </trkpt>
      <trkpt lat="43.811107" lon="11.830279">
        <ele>1227.117</ele>
        <time>2024-08-11T12:51:55.180Z</time>
      </trkpt>
      <trkpt lat="43.811685" lon="11.830343">
        <ele>1234.919</ele>
        <time>2024-08-11T12:52:58.180Z</time>
      </trkpt>
      <trkpt lat="43.811807" lon="11.830153">
        <ele>1235.965</ele>
        <time>2024-08-11T12:53:14.180Z</time>
      </trkpt>
      <trkpt lat="43.812340" lon="11.830756">
        <ele>1248.295</ele>
        <time>2024-08-11T12:55:09.182Z</time>
      </trkpt>
      <trkpt lat="43.812631" lon="11.830573">
        <ele>1253.419</ele>
        <time>2024-08-11T12:55:47.184Z</time>
      </trkpt>
      <trkpt lat="43.814106" lon="11.828045">
        <ele>1264.613</ele>
        <time>2024-08-11T13:00:41.187Z</time>
      </trkpt>
      <trkpt lat="43.814234" lon="11.826522">
        <ele>1255.830</ele>
        <time>2024-08-11T13:02:26.189Z</time>
      </trkpt>
      <trkpt lat="43.815063" lon="11.824527">
        <ele>1247.052</ele>
        <time>2024-08-11T13:05:48.191Z</time>
      </trkpt>
      <trkpt lat="43.815064" lon="11.824260">
        <ele>1248.938</ele>
        <time>2024-08-11T13:06:11.193Z</time>
      </trkpt>
      <trkpt lat="43.815410" lon="11.823613">
        <ele>1245.370</ele>
        <time>2024-08-11T13:07:51.193Z</time>
      </trkpt>
      <trkpt lat="43.815999" lon="11.823237">
        <ele>1237.817</ele>
        <time>2024-08-11T13:09:14.195Z</time>
      </trkpt>
      <trkpt lat="43.816330" lon="11.822828">
        <ele>1236.909</ele>
        <time>2024-08-11T13:10:24.197Z</time>
      </trkpt>
      <trkpt lat="43.816395" lon="11.822406">
        <ele>1241.384</ele>
        <time>2024-08-11T13:10:58.197Z</time>
      </trkpt>
      <trkpt lat="43.816230" lon="11.821712">
        <ele>1245.081</ele>
        <time>2024-08-11T13:12:28.199Z</time>
      </trkpt>
      <trkpt lat="43.815994" lon="11.821377">
        <ele>1249.443</ele>
        <time>2024-08-11T13:13:16.199Z</time>
      </trkpt>
      <trkpt lat="43.816284" lon="11.821178">
        <ele>1255.469</ele>
        <time>2024-08-11T13:14:04.199Z</time>
      </trkpt>
      <trkpt lat="43.816673" lon="11.820582">
        <ele>1260.519</ele>
        <time>2024-08-11T13:15:15.201Z</time>
      </trkpt>
      <trkpt lat="43.816109" lon="11.820414">
        <ele>1268.123</ele>
        <time>2024-08-11T13:16:31.201Z</time>
      </trkpt>
      <trkpt lat="43.816008" lon="11.820170">
        <ele>1271.467</ele>
        <time>2024-08-11T13:16:55.203Z</time>
      </trkpt>
      <trkpt lat="43.816114" lon="11.820213">
        <ele>1272.614</ele>
        <time>2024-08-11T13:17:01.203Z</time>
      </trkpt>
      <trkpt lat="43.816260" lon="11.819864">
        <ele>1277.216</ele>
        <time>2024-08-11T13:17:27.203Z</time>
      </trkpt>
      <trkpt lat="43.816008" lon="11.819833">
        <ele>1279.711</ele>
        <time>2024-08-11T13:18:00.203Z</time>
      </trkpt>
      <trkpt lat="43.815985" lon="11.819718">
        <ele>1280.721</ele>
        <time>2024-08-11T13:18:07.203Z</time>
      </trkpt>
      <trkpt lat="43.816394" lon="11.819453">
        <ele>1291.803</ele>
        <time>2024-08-11T13:19:50.205Z</time>
      </trkpt>
      <trkpt lat="43.816487" lon="11.818700">
        <ele>1300.809</ele>
        <time>2024-08-11T13:21:10.207Z</time>
      </trkpt>
      <trkpt lat="43.816906" lon="11.817951">
        <ele>1310.852</ele>
        <time>2024-08-11T13:22:19.207Z</time>
      </trkpt>
      <trkpt lat="43.817160" lon="11.817728">
        <ele>1312.339</ele>
        <time>2024-08-11T13:22:54.207Z</time>
      </trkpt>
      <trkpt lat="43.817348" lon="11.817942">
        <ele>1313.781</ele>
        <time>2024-08-11T13:23:21.209Z</time>
      </trkpt>
      <trkpt lat="43.818310" lon="11.817849">
        <ele>1318.417</ele>
        <time>2024-08-11T13:25:10.211Z</time>
      </trkpt>
      <trkpt lat="43.818877" lon="11.818188">
        <ele>1324.397</ele>
        <time>2024-08-11T13:38:50.211Z</time>
      </trkpt>
      <trkpt lat="43.819445" lon="11.818004">
        <ele>1325.731</ele>
        <time>2024-08-11T13:39:47.213Z</time>
      </trkpt>
      <trkpt lat="43.819771" lon="11.818216">
        <ele>1331.095</ele>
        <time>2024-08-11T13:40:28.213Z</time>
      </trkpt>
      <trkpt lat="43.820653" lon="11.817820">
        <ele>1339.762</ele>
        <time>2024-08-11T13:42:11.215Z</time>
      </trkpt>
      <trkpt lat="43.821391" lon="11.817120">
        <ele>1337.124</ele>
        <time>2024-08-11T13:43:47.215Z</time>
      </trkpt>
      <trkpt lat="43.822408" lon="11.816456">
        <ele>1339.293</ele>
        <time>2024-08-11T13:46:16.219Z</time>
      </trkpt>
      <trkpt lat="43.822658" lon="11.816121">
        <ele>1343.765</ele>
        <time>2024-08-11T13:46:52.219Z</time>
      </trkpt>
      <trkpt lat="43.823434" lon="11.814162">
        <ele>1353.021</ele>
        <time>2024-08-11T13:49:45.221Z</time>
      </trkpt>
      <trkpt lat="43.824373" lon="11.813476">
        <ele>1358.309</ele>
        <time>2024-08-11T13:51:33.223Z</time>
      </trkpt>
      <trkpt lat="43.825376" lon="11.813087">
        <ele>1356.580</ele>
        <time>2024-08-11T13:53:30.225Z</time>
      </trkpt>
      <trkpt lat="43.827538" lon="11.810255">
        <ele>1347.527</ele>
        <time>2024-08-11T13:59:14.231Z</time>
      </trkpt>
      <trkpt lat="43.827491" lon="11.809434">
        <ele>1352.279</ele>
        <time>2024-08-11T14:00:50.233Z</time>
      </trkpt>
      <trkpt lat="43.827341" lon="11.809099">
        <ele>1356.365</ele>
        <time>2024-08-11T14:01:22.233Z</time>
      </trkpt>
      <trkpt lat="43.827511" lon="11.808828">
        <ele>1360.895</ele>
        <time>2024-08-11T14:01:44.233Z</time>
      </trkpt>
      <trkpt lat="43.827375" lon="11.808884">
        <ele>1362.599</ele>
        <time>2024-08-11T14:01:48.233Z</time>
      </trkpt>
      <trkpt lat="43.827576" lon="11.808269">
        <ele>1366.953</ele>
        <time>2024-08-11T14:03:49.234Z</time>
      </trkpt>
      <trkpt lat="43.827432" lon="11.808197">
        <ele>1368.720</ele>
        <time>2024-08-11T14:04:00.234Z</time>
      </trkpt>
      <trkpt lat="43.827564" lon="11.807999">
        <ele>1369.342</ele>
        <time>2024-08-11T14:04:33.234Z</time>
      </trkpt>
      <trkpt lat="43.827551" lon="11.807472">
        <ele>1374.639</ele>
        <time>2024-08-11T14:05:19.236Z</time>
      </trkpt>
      <trkpt lat="43.828094" lon="11.807902">
        <ele>1380.301</ele>
        <time>2024-08-11T14:06:51.236Z</time>
      </trkpt>
      <trkpt lat="43.828458" lon="11.807983">
        <ele>1381.221</ele>
        <time>2024-08-11T14:07:28.238Z</time>
      </trkpt>
      <trkpt lat="43.829137" lon="11.807371">
        <ele>1382.309</ele>
        <time>2024-08-11T14:08:51.238Z</time>
      </trkpt>
      <trkpt lat="43.829652" lon="11.807114">
        <ele>1383.494</ele>
        <time>2024-08-11T14:09:58.240Z</time>
      </trkpt>
      <trkpt lat="43.830168" lon="11.806517">
        <ele>1382.031</ele>
        <time>2024-08-11T14:11:18.242Z</time>
      </trkpt>
      <trkpt lat="43.830617" lon="11.806584">
        <ele>1376.753</ele>
        <time>2024-08-11T14:11:58.242Z</time>
      </trkpt>
      <trkpt lat="43.830938" lon="11.806382">
        <ele>1373.799</ele>
        <time>2024-08-11T14:12:48.242Z</time>
      </trkpt>
      <trkpt lat="43.831037" lon="11.805912">
        <ele>1370.929</ele>
        <time>2024-08-11T14:16:18.244Z</time>
      </trkpt>
      <trkpt lat="43.831137" lon="11.806007">
        <ele>1371.363</ele>
        <time>2024-08-11T14:17:21.243Z</time>
      </trkpt>
      <trkpt lat="43.831511" lon="11.805397">
        <ele>1366.987</ele>
        <time>2024-08-11T14:18:46.245Z</time>
      </trkpt>
      <trkpt lat="43.831809" lon="11.804631">
        <ele>1360.754</ele>
        <time>2024-08-11T14:19:46.247Z</time>
      </trkpt>
      <trkpt lat="43.831761" lon="11.804162">
        <ele>1356.786</ele>
        <time>2024-08-11T14:20:24.247Z</time>
      </trkpt>
      <trkpt lat="43.831934" lon="11.804037">
        <ele>1354.371</ele>
        <time>2024-08-11T14:20:43.247Z</time>
      </trkpt>
      <trkpt lat="43.832169" lon="11.803424">
        <ele>1346.241</ele>
        <time>2024-08-11T14:22:16.249Z</time>
      </trkpt>
      <trkpt lat="43.832321" lon="11.802369">
        <ele>1339.615</ele>
        <time>2024-08-11T14:23:46.249Z</time>
      </trkpt>
      <trkpt lat="43.832765" lon="11.801970">
        <ele>1349.109</ele>
        <time>2024-08-11T14:25:19.251Z</time>
      </trkpt>
      <trkpt lat="43.833250" lon="11.801851">
        <ele>1355.438</ele>
        <time>2024-08-11T14:26:17.253Z</time>
      </trkpt>
      <trkpt lat="43.833842" lon="11.801113">
        <ele>1365.895</ele>
        <time>2024-08-11T14:28:19.255Z</time>
      </trkpt>
      <trkpt lat="43.834046" lon="11.800446">
        <ele>1370.747</ele>
        <time>2024-08-11T14:29:35.254Z</time>
      </trkpt>
      <trkpt lat="43.834406" lon="11.799992">
        <ele>1369.483</ele>
        <time>2024-08-11T14:30:28.256Z</time>
      </trkpt>
      <trkpt lat="43.834990" lon="11.798690">
        <ele>1369.123</ele>
        <time>2024-08-11T14:32:17.258Z</time>
      </trkpt>
      <trkpt lat="43.835522" lon="11.796708">
        <ele>1384.917</ele>
        <time>2024-08-11T14:36:01.260Z</time>
      </trkpt>
      <trkpt lat="43.835894" lon="11.796270">
        <ele>1386.881</ele>
        <time>2024-08-11T14:36:51.262Z</time>
      </trkpt>
      <trkpt lat="43.836148" lon="11.795316">
        <ele>1397.838</ele>
        <time>2024-08-11T14:38:18.262Z</time>
      </trkpt>
      <trkpt lat="43.836023" lon="11.795100">
        <ele>1400.360</ele>
        <time>2024-08-11T14:38:41.264Z</time>
      </trkpt>
      <trkpt lat="43.836222" lon="11.794885">
        <ele>1405.496</ele>
        <time>2024-08-11T14:39:08.264Z</time>
      </trkpt>
      <trkpt lat="43.836504" lon="11.794984">
        <ele>1409.931</ele>
        <time>2024-08-11T14:39:46.264Z</time>
      </trkpt>
      <trkpt lat="43.836609" lon="11.794774">
        <ele>1412.024</ele>
        <time>2024-08-11T14:40:02.264Z</time>
      </trkpt>
      <trkpt lat="43.836430" lon="11.794293">
        <ele>1419.909</ele>
        <time>2024-08-11T14:43:11.266Z</time>
      </trkpt>
      <trkpt lat="43.836752" lon="11.794040">
        <ele>1426.110</ele>
        <time>2024-08-11T14:44:15.266Z</time>
      </trkpt>
      <trkpt lat="43.836796" lon="11.793832">
        <ele>1427.857</ele>
        <time>2024-08-11T14:44:37.266Z</time>
      </trkpt>
      <trkpt lat="43.837102" lon="11.793694">
        <ele>1434.239</ele>
        <time>2024-08-11T14:45:37.268Z</time>
      </trkpt>
      <trkpt lat="43.837203" lon="11.793837">
        <ele>1437.215</ele>
        <time>2024-08-11T14:46:02.268Z</time>
      </trkpt>
      <trkpt lat="43.837974" lon="11.793788">
        <ele>1447.815</ele>
        <time>2024-08-11T14:48:32.268Z</time>
      </trkpt>
      <trkpt lat="43.838321" lon="11.793213">
        <ele>1453.719</ele>
        <time>2024-08-11T14:50:13.269Z</time>
      </trkpt>
      <trkpt lat="43.839082" lon="11.792680">
        <ele>1466.183</ele>
        <time>2024-08-11T14:51:49.270Z</time>
      </trkpt>
      <trkpt lat="43.839387" lon="11.792264">
        <ele>1470.140</ele>
        <time>2024-08-11T14:52:46.270Z</time>
      </trkpt>
      <trkpt lat="43.840335" lon="11.792311">
        <ele>1473.382</ele>
        <time>2024-08-11T14:54:38.271Z</time>
      </trkpt>
      <trkpt lat="43.840798" lon="11.791904">
        <ele>1473.626</ele>
        <time>2024-08-11T14:55:25.272Z</time>
      </trkpt>
      <trkpt lat="43.840907" lon="11.791629">
        <ele>1474.247</ele>
        <time>2024-08-11T14:55:57.272Z</time>
      </trkpt>
      <trkpt lat="43.841303" lon="11.791575">
        <ele>1473.911</ele>
        <time>2024-08-11T14:56:45.272Z</time>
      </trkpt>
      <trkpt lat="43.841939" lon="11.790470">
        <ele>1478.409</ele>
        <time>2024-08-11T14:58:44.273Z</time>
      </trkpt>
      <trkpt lat="43.843019" lon="11.790360">
        <ele>1479.453</ele>
        <time>2024-08-11T15:01:13.274Z</time>
      </trkpt>
      <trkpt lat="43.843473" lon="11.790110">
        <ele>1483.370</ele>
        <time>2024-08-11T15:02:02.275Z</time>
      </trkpt>
      <trkpt lat="43.844032" lon="11.789527">
        <ele>1489.152</ele>
        <time>2024-08-11T15:03:54.276Z</time>
      </trkpt>
      <trkpt lat="43.844228" lon="11.788007">
        <ele>1498.638</ele>
        <time>2024-08-11T15:06:21.277Z</time>
      </trkpt>
      <trkpt lat="43.844484" lon="11.788381">
        <ele>1507.348</ele>
        <time>2024-08-11T15:07:07.277Z</time>
      </trkpt>
      <trkpt lat="43.844988" lon="11.788456">
        <ele>1517.562</ele>
        <time>2024-08-11T15:08:35.278Z</time>
      </trkpt>
      <trkpt lat="43.844494" lon="11.788316">
        <ele>1513.526</ele>
        <time>2024-08-11T15:10:03.278Z</time>
      </trkpt>
      <trkpt lat="43.844165" lon="11.787982">
        <ele>1502.613</ele>
        <time>2024-08-11T15:14:51.280Z</time>
      </trkpt>
      <trkpt lat="43.844775" lon="11.787974">
        <ele>1501.185</ele>
        <time>2024-08-11T15:17:59.281Z</time>
      </trkpt>
      <trkpt lat="43.845311" lon="11.787754">
        <ele>1498.931</ele>
        <time>2024-08-11T15:18:47.282Z</time>
      </trkpt>
      <trkpt lat="43.846117" lon="11.786717">
        <ele>1485.461</ele>
        <time>2024-08-11T15:20:19.282Z</time>
      </trkpt>
      <trkpt lat="43.846671" lon="11.786435">
        <ele>1482.007</ele>
        <time>2024-08-11T15:21:06.283Z</time>
      </trkpt>
      <trkpt lat="43.846979" lon="11.785426">
        <ele>1481.609</ele>
        <time>2024-08-11T15:22:22.283Z</time>
      </trkpt>
      <trkpt lat="43.847049" lon="11.784331">
        <ele>1484.344</ele>
        <time>2024-08-11T15:23:35.284Z</time>
      </trkpt>
      <trkpt lat="43.847496" lon="11.783418">
        <ele>1493.981</ele>
        <time>2024-08-11T15:24:59.284Z</time>
      </trkpt>
      <trkpt lat="43.847576" lon="11.781593">
        <ele>1494.753</ele>
        <time>2024-08-11T15:26:48.284Z</time>
      </trkpt>
      <trkpt lat="43.847898" lon="11.780939">
        <ele>1495.279</ele>
        <time>2024-08-11T15:27:39.285Z</time>
      </trkpt>
      <trkpt lat="43.848359" lon="11.778807">
        <ele>1482.689</ele>
        <time>2024-08-11T15:30:14.286Z</time>
      </trkpt>
      <trkpt lat="43.849595" lon="11.776044">
        <ele>1447.043</ele>
        <time>2024-08-11T15:34:49.288Z</time>
      </trkpt>
      <trkpt lat="43.850203" lon="11.775210">
        <ele>1436.167</ele>
        <time>2024-08-11T15:36:27.289Z</time>
      </trkpt>
      <trkpt lat="43.850774" lon="11.773380">
        <ele>1421.544</ele>
        <time>2024-08-11T15:40:45.290Z</time>
      </trkpt>
      <trkpt lat="43.851039" lon="11.773313">
        <ele>1417.726</ele>
        <time>2024-08-11T15:41:35.291Z</time>
      </trkpt>
      <trkpt lat="43.851159" lon="11.772856">
        <ele>1415.117</ele>
        <time>2024-08-11T15:42:10.291Z</time>
      </trkpt>
      <trkpt lat="43.851229" lon="11.772243">
        <ele>1414.687</ele>
        <time>2024-08-11T15:43:01.291Z</time>
      </trkpt>
      <trkpt lat="43.850715" lon="11.771118">
        <ele>1403.115</ele>
        <time>2024-08-11T15:45:08.292Z</time>
      </trkpt>
      <trkpt lat="43.850707" lon="11.770119">
        <ele>1399.809</ele>
        <time>2024-08-11T15:46:09.293Z</time>
      </trkpt>
      <trkpt lat="43.851017" lon="11.769391">
        <ele>1406.052</ele>
        <time>2024-08-11T15:47:25.293Z</time>
      </trkpt>
      <trkpt lat="43.851075" lon="11.768655">
        <ele>1408.829</ele>
        <time>2024-08-11T15:48:21.294Z</time>
      </trkpt>
      <trkpt lat="43.851399" lon="11.767949">
        <ele>1412.771</ele>
        <time>2024-08-11T15:49:24.294Z</time>
      </trkpt>
      <trkpt lat="43.851878" lon="11.767933">
        <ele>1411.417</ele>
        <time>2024-08-11T15:50:04.295Z</time>
      </trkpt>
      <trkpt lat="43.852478" lon="11.767163">
        <ele>1416.557</ele>
        <time>2024-08-11T15:51:12.295Z</time>
      </trkpt>
      <trkpt lat="43.852855" lon="11.765006">
        <ele>1425.711</ele>
        <time>2024-08-11T15:53:22.296Z</time>
      </trkpt>
      <trkpt lat="43.852880" lon="11.764093">
        <ele>1426.065</ele>
        <time>2024-08-11T15:57:23.296Z</time>
      </trkpt>
      <trkpt lat="43.853114" lon="11.763333">
        <ele>1424.012</ele>
        <time>2024-08-11T15:58:20.297Z</time>
      </trkpt>
      <trkpt lat="43.853467" lon="11.762960">
        <ele>1421.254</ele>
        <time>2024-08-11T15:58:59.297Z</time>
      </trkpt>
      <trkpt lat="43.853844" lon="11.761981">
        <ele>1415.519</ele>
        <time>2024-08-11T16:00:22.297Z</time>
      </trkpt>
      <trkpt lat="43.854570" lon="11.759199">
        <ele>1427.709</ele>
        <time>2024-08-11T16:03:39.299Z</time>
      </trkpt>
      <trkpt lat="43.856523" lon="11.757997">
        <ele>1426.819</ele>
        <time>2024-08-11T16:06:20.301Z</time>
      </trkpt>
      <trkpt lat="43.856938" lon="11.755500">
        <ele>1392.009</ele>
        <time>2024-08-11T16:10:50.304Z</time>
      </trkpt>
      <trkpt lat="43.857391" lon="11.754879">
        <ele>1392.772</ele>
        <time>2024-08-11T16:11:59.306Z</time>
      </trkpt>
      <trkpt lat="43.857707" lon="11.753912">
        <ele>1389.079</ele>
        <time>2024-08-11T16:13:25.308Z</time>
      </trkpt>
      <trkpt lat="43.857444" lon="11.753255">
        <ele>1380.281</ele>
        <time>2024-08-11T16:14:20.308Z</time>
      </trkpt>
      <trkpt lat="43.857587" lon="11.752997">
        <ele>1375.027</ele>
        <time>2024-08-11T16:15:14.309Z</time>
      </trkpt>
      <trkpt lat="43.857453" lon="11.752148">
        <ele>1363.097</ele>
        <time>2024-08-11T16:16:25.309Z</time>
      </trkpt>
      <trkpt lat="43.857913" lon="11.751582">
        <ele>1347.621</ele>
        <time>2024-08-11T16:18:10.311Z</time>
      </trkpt>
      <trkpt lat="43.858159" lon="11.750754">
        <ele>1341.115</ele>
        <time>2024-08-11T16:19:08.311Z</time>
      </trkpt>
      <trkpt lat="43.857792" lon="11.748904">
        <ele>1331.952</ele>
        <time>2024-08-11T16:21:22.313Z</time>
      </trkpt>
      <trkpt lat="43.857943" lon="11.748632">
        <ele>1326.774</ele>
        <time>2024-08-11T16:21:45.315Z</time>
      </trkpt>
      <trkpt lat="43.858085" lon="11.747479">
        <ele>1323.066</ele>
        <time>2024-08-11T16:23:05.315Z</time>
      </trkpt>
      <trkpt lat="43.859007" lon="11.745400">
        <ele>1309.429</ele>
        <time>2024-08-11T16:26:35.319Z</time>
      </trkpt>
      <trkpt lat="43.859760" lon="11.744567">
        <ele>1299.721</ele>
        <time>2024-08-11T16:28:18.321Z</time>
      </trkpt>
    </trkseg>
  </trk></gpx>