<?xml version="1.0" encoding="UTF-8"?>
<gpx creator="Wikiloc - https://www.wikiloc.com" version="1.1" xmlns="http://www.topografix.com/GPX/1/1" xmlns:xsi="http://www.w3.org/2001/XMLSchema-instance" xsi:schemaLocation="http://www.topografix.com/GPX/1/1 http://www.topografix.com/GPX/1/1/gpx.xsd">
  <metadata>
    <name>Wikiloc - Purello, Monte Nero e Monte Penna da Roman catholic diocese ...</name>
    <link href="https://www.wikiloc.com/hiking-trails/purello-monte-nero-e-monte-penna-da-roman-catholic-diocese-of-gualdo-tadino-155204845">
      <text>Purello, Monte Nero e Monte Penna da Roman catholic diocese ... on Wikiloc</text>
    </link>
    <time>2023-12-08T13:35:24Z</time>
  </metadata>
  <trk>
    <name>Purello, Monte Nero e Monte Penna da Roman catholic diocese ... - Wikiloc</name>
    <cmt></cmt>
    <desc></desc>
    <trkseg>
      <trkpt lat="43.241549" lon="12.813441">
        <ele>1296.683</ele>
        <time>2023-12-08T09:17:59Z</time>
      </trkpt>
      <trkpt lat="43.241555" lon="12.813718">
        <ele>1296.825</ele>
        <time>2023-12-08T09:18:16Z</time>
      </trkpt>
      <trkpt lat="43.241392" lon="12.813959">
        <ele>1299.217</ele>
        <time>2023-12-08T09:18:37Z</time>
      </trkpt>
      <trkpt lat="43.240768" lon="12.814355">
        <ele>1315.409</ele>
        <time>2023-12-08T09:20:13Z</time>
      </trkpt>
      <trkpt lat="43.240490" lon="12.814423">
        <ele>1324.239</ele>
        <time>2023-12-08T09:21:04Z</time>
      </trkpt>
      <trkpt lat="43.240003" lon="12.814331">
        <ele>1337.153</ele>
        <time>2023-12-08T09:22:19Z</time>
      </trkpt>
      <trkpt lat="43.239601" lon="12.814470">
        <ele>1348.753</ele>
        <time>2023-12-08T09:23:50Z</time>
      </trkpt>
      <trkpt lat="43.239677" lon="12.814782">
        <ele>1351.150</ele>
        <time>2023-12-08T09:26:23Z</time>
      </trkpt>
      <trkpt lat="43.240139" lon="12.815458">
        <ele>1350.828</ele>
        <time>2023-12-08T09:27:45Z</time>
      </trkpt>
      <trkpt lat="43.241181" lon="12.817592">
        <ele>1354.432</ele>
        <time>2023-12-08T09:30:33Z</time>
      </trkpt>
      <trkpt lat="43.241870" lon="12.819397">
        <ele>1369.296</ele>
        <time>2023-12-08T09:32:57Z</time>
      </trkpt>
      <trkpt lat="43.241994" lon="12.820006">
        <ele>1372.342</ele>
        <time>2023-12-08T09:33:44Z</time>
      </trkpt>
      <trkpt lat="43.241823" lon="12.821821">
        <ele>1383.573</ele>
        <time>2023-12-08T09:36:03Z</time>
      </trkpt>
      <trkpt lat="43.241252" lon="12.823480">
        <ele>1392.469</ele>
        <time>2023-12-08T09:38:03Z</time>
      </trkpt>
      <trkpt lat="43.240756" lon="12.824066">
        <ele>1395.704</ele>
        <time>2023-12-08T09:39:04Z</time>
      </trkpt>
      <trkpt lat="43.240649" lon="12.824364">
        <ele>1397.824</ele>
        <time>2023-12-08T09:39:28Z</time>
      </trkpt>
      <trkpt lat="43.240500" lon="12.825224">
        <ele>1398.209</ele>
        <time>2023-12-08T09:40:28Z</time>
      </trkpt>
      <trkpt lat="43.240567" lon="12.826359">
        <ele>1396.457</ele>
        <time>2023-12-08T09:41:46Z</time>
      </trkpt>
      <trkpt lat="43.240089" lon="12.828579">
        <ele>1396.731</ele>
        <time>2023-12-08T09:44:41Z</time>
      </trkpt>
      <trkpt lat="43.239865" lon="12.828659">
        <ele>1397.571</ele>
        <time>2023-12-08T09:45:49Z</time>
      </trkpt>
      <trkpt lat="43.239441" lon="12.828446">
        <ele>1389.558</ele>
        <time>2023-12-08T09:46:47Z</time>
      </trkpt>
      <trkpt lat="43.238951" lon="12.827678">
        <ele>1380.886</ele>
        <time>2023-12-08T09:48:00Z</time>
      </trkpt>
      <trkpt lat="43.238578" lon="12.827341">
        <ele>1378.170</ele>
        <time>2023-12-08T09:48:49Z</time>
      </trkpt>
      <trkpt lat="43.235814" lon="12.825868">
        <ele>1350.694</ele>
        <time>2023-12-08T09:53:33Z</time>
      </trkpt>
      <trkpt lat="43.234965" lon="12.825559">
        <ele>1339.870</ele>
        <time>2023-12-08T09:54:34Z</time>
      </trkpt>
      <trkpt lat="43.234579" lon="12.825257">
        <ele>1331.871</ele>
        <time>2023-12-08T09:55:18Z</time>
      </trkpt>
      <trkpt lat="43.234095" lon="12.825207">
        <ele>1327.879</ele>
        <time>2023-12-08T09:56:02Z</time>
      </trkpt>
      <trkpt lat="43.233924" lon="12.825454">
        <ele>1326.905</ele>
        <time>2023-12-08T09:56:27Z</time>
      </trkpt>
      <trkpt lat="43.233583" lon="12.826712">
        <ele>1313.725</ele>
        <time>2023-12-08T09:57:53Z</time>
      </trkpt>
      <trkpt lat="43.233200" lon="12.828612">
        <ele>1298.809</ele>
        <time>2023-12-08T09:59:51Z</time>
      </trkpt>
      <trkpt lat="43.232711" lon="12.829912">
        <ele>1286.878</ele>
        <time>2023-12-08T10:01:15Z</time>
      </trkpt>
      <trkpt lat="43.231694" lon="12.831662">
        <ele>1296.162</ele>
        <time>2023-12-08T10:03:21Z</time>
      </trkpt>
      <trkpt lat="43.230714" lon="12.832738">
        <ele>1306.592</ele>
        <time>2023-12-08T10:05:11Z</time>
      </trkpt>
      <trkpt lat="43.231278" lon="12.832449">
        <ele>1304.369</ele>
        <time>2023-12-08T10:06:13Z</time>
      </trkpt>
      <trkpt lat="43.231224" lon="12.832341">
        <ele>1304.037</ele>
        <time>2023-12-08T10:10:37Z</time>
      </trkpt>
      <trkpt lat="43.231079" lon="12.832373">
        <ele>1304.021</ele>
        <time>2023-12-08T10:10:53Z</time>
      </trkpt>
      <trkpt lat="43.228789" lon="12.834599">
        <ele>1330.795</ele>
        <time>2023-12-08T10:15:43Z</time>
      </trkpt>
      <trkpt lat="43.228193" lon="12.835007">
        <ele>1337.381</ele>
        <time>2023-12-08T10:16:50Z</time>
      </trkpt>
      <trkpt lat="43.227182" lon="12.835561">
        <ele>1359.372</ele>
        <time>2023-12-08T10:19:09Z</time>
      </trkpt>
      <trkpt lat="43.226525" lon="12.835789">
        <ele>1376.638</ele>
        <time>2023-12-08T10:20:59Z</time>
      </trkpt>
      <trkpt lat="43.226108" lon="12.836089">
        <ele>1393.670</ele>
        <time>2023-12-08T10:22:21Z</time>
      </trkpt>
      <trkpt lat="43.225109" lon="12.837356">
        <ele>1409.217</ele>
        <time>2023-12-08T10:25:17Z</time>
      </trkpt>
      <trkpt lat="43.224548" lon="12.837203">
        <ele>1405.509</ele>
        <time>2023-12-08T10:26:48Z</time>
      </trkpt>
      <trkpt lat="43.221840" lon="12.837314">
        <ele>1409.284</ele>
        <time>2023-12-08T10:31:28Z</time>
      </trkpt>
      <trkpt lat="43.221291" lon="12.837106">
        <ele>1406.478</ele>
        <time>2023-12-08T10:32:25Z</time>
      </trkpt>
      <trkpt lat="43.220545" lon="12.837370">
        <ele>1410.928</ele>
        <time>2023-12-08T10:33:57Z</time>
      </trkpt>
      <trkpt lat="43.220426" lon="12.837651">
        <ele>1414.275</ele>
        <time>2023-12-08T10:34:24Z</time>
      </trkpt>
      <trkpt lat="43.219927" lon="12.838165">
        <ele>1417.353</ele>
        <time>2023-12-08T10:36:22Z</time>
      </trkpt>
      <trkpt lat="43.219057" lon="12.837496">
        <ele>1390.057</ele>
        <time>2023-12-08T10:37:51Z</time>
      </trkpt>
      <trkpt lat="43.218803" lon="12.836866">
        <ele>1366.981</ele>
        <time>2023-12-08T10:39:02Z</time>
      </trkpt>
      <trkpt lat="43.217320" lon="12.835645">
        <ele>1340.677</ele>
        <time>2023-12-08T10:51:09Z</time>
      </trkpt>
      <trkpt lat="43.216783" lon="12.834255">
        <ele>1358.278</ele>
        <time>2023-12-08T10:53:31Z</time>
      </trkpt>
      <trkpt lat="43.216154" lon="12.833494">
        <ele>1364.778</ele>
        <time>2023-12-08T10:55:04Z</time>
      </trkpt>
      <trkpt lat="43.215039" lon="12.832482">
        <ele>1379.733</ele>
        <time>2023-12-08T10:57:43Z</time>
      </trkpt>
      <trkpt lat="43.213502" lon="12.830055">
        <ele>1412.026</ele>
        <time>2023-12-08T11:02:52Z</time>
      </trkpt>
      <trkpt lat="43.212634" lon="12.829765">
        <ele>1420.809</ele>
        <time>2023-12-08T11:04:38Z</time>
      </trkpt>
      <trkpt lat="43.211893" lon="12.829799">
        <ele>1425.528</ele>
        <time>2023-12-08T11:06:21Z</time>
      </trkpt>
      <trkpt lat="43.211553" lon="12.829507">
        <ele>1421.292</ele>
        <time>2023-12-08T11:07:01Z</time>
      </trkpt>
      <trkpt lat="43.211159" lon="12.828714">
        <ele>1421.922</ele>
        <time>2023-12-08T11:08:17Z</time>
      </trkpt>
      <trkpt lat="43.211010" lon="12.826519">
        <ele>1420.819</ele>
        <time>2023-12-08T11:10:36Z</time>
      </trkpt>
      <trkpt lat="43.210714" lon="12.824734">
        <ele>1410.627</ele>
        <time>2023-12-08T11:12:28Z</time>
      </trkpt>
      <trkpt lat="43.210600" lon="12.822493">
        <ele>1404.061</ele>
        <time>2023-12-08T11:14:43Z</time>
      </trkpt>
      <trkpt lat="43.210682" lon="12.822113">
        <ele>1405.325</ele>
        <time>2023-12-08T11:15:12Z</time>
      </trkpt>
      <trkpt lat="43.210970" lon="12.821878">
        <ele>1413.161</ele>
        <time>2023-12-08T11:15:57Z</time>
      </trkpt>
      <trkpt lat="43.211241" lon="12.821723">
        <ele>1425.962</ele>
        <time>2023-12-08T11:16:50Z</time>
      </trkpt>
      <trkpt lat="43.211834" lon="12.821738">
        <ele>1438.511</ele>
        <time>2023-12-08T11:18:47Z</time>
      </trkpt>
      <trkpt lat="43.211454" lon="12.822493">
        <ele>1419.621</ele>
        <time>2023-12-08T11:23:11Z</time>
      </trkpt>
      <trkpt lat="43.211420" lon="12.823344">
        <ele>1411.803</ele>
        <time>2023-12-08T11:23:59Z</time>
      </trkpt>
      <trkpt lat="43.211445" lon="12.823956">
        <ele>1408.709</ele>
        <time>2023-12-08T11:25:37Z</time>
      </trkpt>
      <trkpt lat="43.211968" lon="12.825931">
        <ele>1410.832</ele>
        <time>2023-12-08T11:28:06Z</time>
      </trkpt>
      <trkpt lat="43.211704" lon="12.827668">
        <ele>1413.366</ele>
        <time>2023-12-08T11:30:17Z</time>
      </trkpt>
      <trkpt lat="43.211866" lon="12.828514">
        <ele>1412.986</ele>
        <time>2023-12-08T11:32:37Z</time>
      </trkpt>
      <trkpt lat="43.212193" lon="12.828960">
        <ele>1412.383</ele>
        <time>2023-12-08T11:33:19Z</time>
      </trkpt>
      <trkpt lat="43.213039" lon="12.829203">
        <ele>1413.691</ele>
        <time>2023-12-08T11:34:40Z</time>
      </trkpt>
      <trkpt lat="43.213788" lon="12.829686">
        <ele>1412.765</ele>
        <time>2023-12-08T11:35:52Z</time>
      </trkpt>
      <trkpt lat="43.214320" lon="12.830221">
        <ele>1411.859</ele>
        <time>2023-12-08T11:36:54Z</time>
      </trkpt>
      <trkpt lat="43.214700" lon="12.830963">
        <ele>1408.395</ele>
        <time>2023-12-08T11:37:57Z</time>
      </trkpt>
      <trkpt lat="43.214812" lon="12.831896">
        <ele>1403.356</ele>
        <time>2023-12-08T11:40:11Z</time>
      </trkpt>
      <trkpt lat="43.215027" lon="12.832459">
        <ele>1397.179</ele>
        <time>2023-12-08T11:40:49Z</time>
      </trkpt>
      <trkpt lat="43.216687" lon="12.834087">
        <ele>1377.105</ele>
        <time>2023-12-08T11:43:30Z</time>
      </trkpt>
      <trkpt lat="43.216945" lon="12.835163">
        <ele>1363.025</ele>
        <time>2023-12-08T11:44:46Z</time>
      </trkpt>
      <trkpt lat="43.217236" lon="12.835639">
        <ele>1358.609</ele>
        <time>2023-12-08T11:45:36Z</time>
      </trkpt>
      <trkpt lat="43.217839" lon="12.835989">
        <ele>1351.928</ele>
        <time>2023-12-08T11:46:51Z</time>
      </trkpt>
      <trkpt lat="43.218295" lon="12.836008">
        <ele>1355.572</ele>
        <time>2023-12-08T11:47:38Z</time>
      </trkpt>
      <trkpt lat="43.218566" lon="12.835881">
        <ele>1358.192</ele>
        <time>2023-12-08T11:48:10Z</time>
      </trkpt>
      <trkpt lat="43.219569" lon="12.835806">
        <ele>1366.999</ele>
        <time>2023-12-08T11:50:15Z</time>
      </trkpt>
      <trkpt lat="43.220515" lon="12.835355">
        <ele>1377.557</ele>
        <time>2023-12-08T11:52:05Z</time>
      </trkpt>
      <trkpt lat="43.220936" lon="12.835342">
        <ele>1381.141</ele>
        <time>2023-12-08T11:52:44Z</time>
      </trkpt>
      <trkpt lat="43.221704" lon="12.835653">
        <ele>1386.645</ele>
        <time>2023-12-08T11:54:03Z</time>
      </trkpt>
      <trkpt lat="43.222871" lon="12.836448">
        <ele>1391.461</ele>
        <time>2023-12-08T11:57:39Z</time>
      </trkpt>
      <trkpt lat="43.223744" lon="12.836582">
        <ele>1383.062</ele>
        <time>2023-12-08T11:59:09Z</time>
      </trkpt>
      <trkpt lat="43.224652" lon="12.836354">
        <ele>1382.318</ele>
        <time>2023-12-08T12:00:32Z</time>
      </trkpt>
      <trkpt lat="43.225708" lon="12.835366">
        <ele>1368.898</ele>
        <time>2023-12-08T12:03:01Z</time>
      </trkpt>
      <trkpt lat="43.227358" lon="12.835024">
        <ele>1346.917</ele>
        <time>2023-12-08T12:05:38Z</time>
      </trkpt>
      <trkpt lat="43.227603" lon="12.835060">
        <ele>1344.309</ele>
        <time>2023-12-08T12:06:05Z</time>
      </trkpt>
      <trkpt lat="43.228147" lon="12.834815">
        <ele>1334.972</ele>
        <time>2023-12-08T12:06:49Z</time>
      </trkpt>
      <trkpt lat="43.229178" lon="12.834094">
        <ele>1323.476</ele>
        <time>2023-12-08T12:08:15Z</time>
      </trkpt>
      <trkpt lat="43.229604" lon="12.833586">
        <ele>1319.486</ele>
        <time>2023-12-08T12:09:01Z</time>
      </trkpt>
      <trkpt lat="43.230494" lon="12.833076">
        <ele>1314.543</ele>
        <time>2023-12-08T12:13:13Z</time>
      </trkpt>
      <trkpt lat="43.231673" lon="12.831731">
        <ele>1298.451</ele>
        <time>2023-12-08T12:15:29Z</time>
      </trkpt>
      <trkpt lat="43.233064" lon="12.829161">
        <ele>1288.295</ele>
        <time>2023-12-08T12:18:46Z</time>
      </trkpt>
      <trkpt lat="43.233920" lon="12.825549">
        <ele>1320.939</ele>
        <time>2023-12-08T12:23:27Z</time>
      </trkpt>
      <trkpt lat="43.234156" lon="12.825203">
        <ele>1325.595</ele>
        <time>2023-12-08T12:24:04Z</time>
      </trkpt>
      <trkpt lat="43.234462" lon="12.825218">
        <ele>1326.936</ele>
        <time>2023-12-08T12:24:34Z</time>
      </trkpt>
      <trkpt lat="43.235039" lon="12.825636">
        <ele>1335.815</ele>
        <time>2023-12-08T12:25:43Z</time>
      </trkpt>
      <trkpt lat="43.236179" lon="12.826082">
        <ele>1352.665</ele>
        <time>2023-12-08T12:27:40Z</time>
      </trkpt>
      <trkpt lat="43.238602" lon="12.827331">
        <ele>1378.711</ele>
        <time>2023-12-08T12:31:37Z</time>
      </trkpt>
      <trkpt lat="43.238908" lon="12.827601">
        <ele>1381.809</ele>
        <time>2023-12-08T12:32:08Z</time>
      </trkpt>
      <trkpt lat="43.239396" lon="12.828384">
        <ele>1389.932</ele>
        <time>2023-12-08T12:33:19Z</time>
      </trkpt>
      <trkpt lat="43.239908" lon="12.828661">
        <ele>1395.436</ele>
        <time>2023-12-08T12:34:12Z</time>
      </trkpt>
      <trkpt lat="43.240088" lon="12.828588">
        <ele>1398.076</ele>
        <time>2023-12-08T12:34:34Z</time>
      </trkpt>
      <trkpt lat="43.240657" lon="12.827326">
        <ele>1394.773</ele>
        <time>2023-12-08T12:36:04Z</time>
      </trkpt>
      <trkpt lat="43.242404" lon="12.826081">
        <ele>1426.081</ele>
        <time>2023-12-08T12:42:17Z</time>
      </trkpt>
      <trkpt lat="43.242902" lon="12.826134">
        <ele>1427.625</ele>
        <time>2023-12-08T12:43:28Z</time>
      </trkpt>
      <trkpt lat="43.243142" lon="12.826015">
        <ele>1428.019</ele>
        <time>2023-12-08T12:43:55Z</time>
      </trkpt>
      <trkpt lat="43.243581" lon="12.826008">
        <ele>1425.585</ele>
        <time>2023-12-08T12:44:40Z</time>
      </trkpt>
      <trkpt lat="43.245090" lon="12.826191">
        <ele>1424.766</ele>
        <time>2023-12-08T12:47:30Z</time>
      </trkpt>
      <trkpt lat="43.244508" lon="12.825390">
        <ele>1420.298</ele>
        <time>2023-12-08T12:51:07Z</time>
      </trkpt>
      <trkpt lat="43.244112" lon="12.825482">
        <ele>1418.215</ele>
        <time>2023-12-08T12:51:48Z</time>
      </trkpt>
      <trkpt lat="43.243829" lon="12.825243">
        <ele>1418.526</ele>
        <time>2023-12-08T12:52:23Z</time>
      </trkpt>
      <trkpt lat="43.243109" lon="12.823814">
        <ele>1420.709</ele>
        <time>2023-12-08T12:54:45Z</time>
      </trkpt>
      <trkpt lat="43.242446" lon="12.821968">
        <ele>1401.230</ele>
        <time>2023-12-08T12:57:03Z</time>
      </trkpt>
      <trkpt lat="43.242060" lon="12.819906">
        <ele>1376.014</ele>
        <time>2023-12-08T12:59:27Z</time>
      </trkpt>
      <trkpt lat="43.241539" lon="12.818289">
        <ele>1365.454</ele>
        <time>2023-12-08T13:01:22Z</time>
      </trkpt>
      <trkpt lat="43.240153" lon="12.815401">
        <ele>1350.031</ele>
        <time>2023-12-08T13:05:33Z</time>
      </trkpt>
      <trkpt lat="43.239695" lon="12.814765">
        <ele>1354.179</ele>
        <time>2023-12-08T13:06:36Z</time>
      </trkpt>
      <trkpt lat="43.239647" lon="12.814372">
        <ele>1353.333</ele>
        <time>2023-12-08T13:25:39Z</time>
      </trkpt>
      <trkpt lat="43.240185" lon="12.814326">
        <ele>1342.087</ele>
        <time>2023-12-08T13:27:08Z</time>
      </trkpt>
      <trkpt lat="43.240600" lon="12.814462">
        <ele>1331.393</ele>
        <time>2023-12-08T13:28:12Z</time>
      </trkpt>
      <trkpt lat="43.240930" lon="12.814321">
        <ele>1321.834</ele>
        <time>2023-12-08T13:29:00Z</time>
      </trkpt>
      <trkpt lat="43.241438" lon="12.813910">
        <ele>1306.623</ele>
        <time>2023-12-08T13:30:17Z</time>
      </trkpt>
      <trkpt lat="43.241573" lon="12.813620">
        <ele>1300.883</ele>
        <time>2023-12-08T13:30:45Z</time>
      </trkpt>
      <trkpt lat="43.241532" lon="12.813419">
        <ele>1298.311</ele>
        <time>2023-12-08T13:30:59Z</time>
      </trkpt>
      <trkpt lat="43.241727" lon="12.813807">
        <ele>1295.709</ele>
        <time>2023-12-08T13:35:08Z</time>
      </trkpt>
      <trkpt lat="43.241390" lon="12.814957">
        <ele>1289.423</ele>
        <time>2023-12-08T13:35:24Z</time>
      </trkpt>
    </trkseg>
  </trk></gpx>