<?xml version="1.0" encoding="UTF-8"?>
<gpx creator="Wikiloc - https://www.wikiloc.com" version="1.1" xmlns="http://www.topografix.com/GPX/1/1" xmlns:xsi="http://www.w3.org/2001/XMLSchema-instance" xsi:schemaLocation="http://www.topografix.com/GPX/1/1 http://www.topografix.com/GPX/1/1/gpx.xsd">
  <metadata>
    <name>Wikiloc - Sentiero Italia da Serrasanta in direzione Monte Alago - Wik...</name>
    <link href="https://www.wikiloc.com/hiking-trails/sentiero-italia-da-serrasanta-in-direzione-monte-alago-62165813">
      <text>Sentiero Italia da Serrasanta in direzione Monte Alago - Wik... on Wikiloc</text>
    </link>
    <time>2020-12-13T13:38:41Z</time>
  </metadata>
  <trk>
    <name>Sentiero Italia da Serrasanta in direzione Monte Alago - Wik... - Wikiloc</name>
    <cmt></cmt>
    <desc></desc>
    <trkseg>
      <trkpt lat="43.241573" lon="12.813477">
        <ele>1281.015</ele>
        <time>2020-12-13T09:01:04Z</time>
      </trkpt>
      <trkpt lat="43.240886" lon="12.815234">
        <ele>1310.465</ele>
        <time>2020-12-13T09:04:54Z</time>
      </trkpt>
      <trkpt lat="43.241886" lon="12.818021">
        <ele>1339.811</ele>
        <time>2020-12-13T09:09:23Z</time>
      </trkpt>
      <trkpt lat="43.242067" lon="12.819694">
        <ele>1362.508</ele>
        <time>2020-12-13T09:12:19Z</time>
      </trkpt>
      <trkpt lat="43.241722" lon="12.822141">
        <ele>1377.127</ele>
        <time>2020-12-13T09:18:22Z</time>
      </trkpt>
      <trkpt lat="43.241230" lon="12.823464">
        <ele>1386.643</ele>
        <time>2020-12-13T09:20:17Z</time>
      </trkpt>
      <trkpt lat="43.240753" lon="12.824054">
        <ele>1390.752</ele>
        <time>2020-12-13T09:21:36Z</time>
      </trkpt>
      <trkpt lat="43.240575" lon="12.824611">
        <ele>1389.077</ele>
        <time>2020-12-13T09:24:46Z</time>
      </trkpt>
      <trkpt lat="43.240490" lon="12.825157">
        <ele>1388.526</ele>
        <time>2020-12-13T09:25:42Z</time>
      </trkpt>
      <trkpt lat="43.240526" lon="12.826555">
        <ele>1387.779</ele>
        <time>2020-12-13T09:27:34Z</time>
      </trkpt>
      <trkpt lat="43.240031" lon="12.828585">
        <ele>1383.222</ele>
        <time>2020-12-13T09:30:34Z</time>
      </trkpt>
      <trkpt lat="43.239859" lon="12.828637">
        <ele>1382.064</ele>
        <time>2020-12-13T09:31:01Z</time>
      </trkpt>
      <trkpt lat="43.239574" lon="12.828514">
        <ele>1381.842</ele>
        <time>2020-12-13T09:31:35Z</time>
      </trkpt>
      <trkpt lat="43.238613" lon="12.827262">
        <ele>1375.022</ele>
        <time>2020-12-13T09:34:02Z</time>
      </trkpt>
      <trkpt lat="43.235899" lon="12.825902">
        <ele>1343.614</ele>
        <time>2020-12-13T09:39:01Z</time>
      </trkpt>
      <trkpt lat="43.235007" lon="12.825564">
        <ele>1329.508</ele>
        <time>2020-12-13T09:40:31Z</time>
      </trkpt>
      <trkpt lat="43.234817" lon="12.825295">
        <ele>1325.420</ele>
        <time>2020-12-13T09:41:25Z</time>
      </trkpt>
      <trkpt lat="43.234680" lon="12.825327">
        <ele>1323.826</ele>
        <time>2020-12-13T09:42:12Z</time>
      </trkpt>
      <trkpt lat="43.234332" lon="12.825122">
        <ele>1321.265</ele>
        <time>2020-12-13T09:43:13Z</time>
      </trkpt>
      <trkpt lat="43.234131" lon="12.825175">
        <ele>1321.150</ele>
        <time>2020-12-13T09:44:13Z</time>
      </trkpt>
      <trkpt lat="43.233924" lon="12.825392">
        <ele>1322.139</ele>
        <time>2020-12-13T09:44:38Z</time>
      </trkpt>
      <trkpt lat="43.233558" lon="12.826651">
        <ele>1309.822</ele>
        <time>2020-12-13T09:46:33Z</time>
      </trkpt>
      <trkpt lat="43.233340" lon="12.828100">
        <ele>1294.265</ele>
        <time>2020-12-13T09:47:44Z</time>
      </trkpt>
      <trkpt lat="43.233065" lon="12.829038">
        <ele>1282.927</ele>
        <time>2020-12-13T09:48:38Z</time>
      </trkpt>
      <trkpt lat="43.232683" lon="12.829877">
        <ele>1274.665</ele>
        <time>2020-12-13T09:49:39Z</time>
      </trkpt>
      <trkpt lat="43.232369" lon="12.830034">
        <ele>1274.668</ele>
        <time>2020-12-13T09:50:47Z</time>
      </trkpt>
      <trkpt lat="43.232310" lon="12.830377">
        <ele>1273.114</ele>
        <time>2020-12-13T09:51:15Z</time>
      </trkpt>
      <trkpt lat="43.231858" lon="12.831330">
        <ele>1280.508</ele>
        <time>2020-12-13T09:53:23Z</time>
      </trkpt>
      <trkpt lat="43.231389" lon="12.832002">
        <ele>1284.862</ele>
        <time>2020-12-13T09:55:10Z</time>
      </trkpt>
      <trkpt lat="43.230722" lon="12.832727">
        <ele>1293.488</ele>
        <time>2020-12-13T09:57:18Z</time>
      </trkpt>
      <trkpt lat="43.229592" lon="12.833712">
        <ele>1304.127</ele>
        <time>2020-12-13T10:01:42Z</time>
      </trkpt>
      <trkpt lat="43.229403" lon="12.834206">
        <ele>1311.652</ele>
        <time>2020-12-13T10:02:52Z</time>
      </trkpt>
      <trkpt lat="43.228874" lon="12.834609">
        <ele>1321.611</ele>
        <time>2020-12-13T10:04:01Z</time>
      </trkpt>
      <trkpt lat="43.227750" lon="12.835107">
        <ele>1328.034</ele>
        <time>2020-12-13T10:07:12Z</time>
      </trkpt>
      <trkpt lat="43.226942" lon="12.835084">
        <ele>1336.277</ele>
        <time>2020-12-13T10:09:06Z</time>
      </trkpt>
      <trkpt lat="43.225661" lon="12.835387">
        <ele>1348.969</ele>
        <time>2020-12-13T10:11:41Z</time>
      </trkpt>
      <trkpt lat="43.225405" lon="12.835555">
        <ele>1353.176</ele>
        <time>2020-12-13T10:12:17Z</time>
      </trkpt>
      <trkpt lat="43.225108" lon="12.835960">
        <ele>1361.990</ele>
        <time>2020-12-13T10:13:42Z</time>
      </trkpt>
      <trkpt lat="43.224413" lon="12.836438">
        <ele>1373.019</ele>
        <time>2020-12-13T10:18:05Z</time>
      </trkpt>
      <trkpt lat="43.223591" lon="12.836610">
        <ele>1372.708</ele>
        <time>2020-12-13T10:20:06Z</time>
      </trkpt>
      <trkpt lat="43.222944" lon="12.836545">
        <ele>1375.013</ele>
        <time>2020-12-13T10:25:32Z</time>
      </trkpt>
      <trkpt lat="43.221665" lon="12.835658">
        <ele>1368.739</ele>
        <time>2020-12-13T10:29:58Z</time>
      </trkpt>
      <trkpt lat="43.220738" lon="12.835357">
        <ele>1357.978</ele>
        <time>2020-12-13T10:31:34Z</time>
      </trkpt>
      <trkpt lat="43.220220" lon="12.835477">
        <ele>1358.693</ele>
        <time>2020-12-13T10:32:29Z</time>
      </trkpt>
      <trkpt lat="43.219583" lon="12.835824">
        <ele>1347.122</ele>
        <time>2020-12-13T10:33:30Z</time>
      </trkpt>
      <trkpt lat="43.218410" lon="12.835959">
        <ele>1337.775</ele>
        <time>2020-12-13T10:35:14Z</time>
      </trkpt>
      <trkpt lat="43.217935" lon="12.836209">
        <ele>1332.138</ele>
        <time>2020-12-13T10:35:56Z</time>
      </trkpt>
      <trkpt lat="43.217726" lon="12.836145">
        <ele>1329.880</ele>
        <time>2020-12-13T10:36:32Z</time>
      </trkpt>
      <trkpt lat="43.216950" lon="12.835252">
        <ele>1343.316</ele>
        <time>2020-12-13T10:38:42Z</time>
      </trkpt>
      <trkpt lat="43.216661" lon="12.834136">
        <ele>1357.776</ele>
        <time>2020-12-13T10:40:36Z</time>
      </trkpt>
      <trkpt lat="43.216233" lon="12.833837">
        <ele>1351.113</ele>
        <time>2020-12-13T10:41:43Z</time>
      </trkpt>
      <trkpt lat="43.215727" lon="12.833225">
        <ele>1361.908</ele>
        <time>2020-12-13T10:43:01Z</time>
      </trkpt>
      <trkpt lat="43.215333" lon="12.832280">
        <ele>1366.967</ele>
        <time>2020-12-13T10:45:50Z</time>
      </trkpt>
      <trkpt lat="43.215377" lon="12.831609">
        <ele>1371.263</ele>
        <time>2020-12-13T10:47:06Z</time>
      </trkpt>
      <trkpt lat="43.214971" lon="12.830866">
        <ele>1376.762</ele>
        <time>2020-12-13T10:49:02Z</time>
      </trkpt>
      <trkpt lat="43.213745" lon="12.829367">
        <ele>1386.087</ele>
        <time>2020-12-13T10:52:44Z</time>
      </trkpt>
      <trkpt lat="43.213331" lon="12.829082">
        <ele>1384.596</ele>
        <time>2020-12-13T10:53:41Z</time>
      </trkpt>
      <trkpt lat="43.212777" lon="12.828860">
        <ele>1381.489</ele>
        <time>2020-12-13T10:54:48Z</time>
      </trkpt>
      <trkpt lat="43.212533" lon="12.828869">
        <ele>1386.662</ele>
        <time>2020-12-13T11:12:03Z</time>
      </trkpt>
      <trkpt lat="43.212202" lon="12.828660">
        <ele>1384.884</ele>
        <time>2020-12-13T11:12:43Z</time>
      </trkpt>
      <trkpt lat="43.211816" lon="12.827851">
        <ele>1380.039</ele>
        <time>2020-12-13T11:16:13Z</time>
      </trkpt>
      <trkpt lat="43.211889" lon="12.827359">
        <ele>1389.301</ele>
        <time>2020-12-13T11:18:29Z</time>
      </trkpt>
      <trkpt lat="43.211619" lon="12.827360">
        <ele>1381.321</ele>
        <time>2020-12-13T11:19:27Z</time>
      </trkpt>
      <trkpt lat="43.211553" lon="12.827176">
        <ele>1386.708</ele>
        <time>2020-12-13T11:20:20Z</time>
      </trkpt>
      <trkpt lat="43.211330" lon="12.827047">
        <ele>1405.469</ele>
        <time>2020-12-13T11:25:21Z</time>
      </trkpt>
      <trkpt lat="43.210891" lon="12.827317">
        <ele>1412.175</ele>
        <time>2020-12-13T11:26:17Z</time>
      </trkpt>
      <trkpt lat="43.210031" lon="12.828172">
        <ele>1401.854</ele>
        <time>2020-12-13T11:28:11Z</time>
      </trkpt>
      <trkpt lat="43.209684" lon="12.828837">
        <ele>1395.559</ele>
        <time>2020-12-13T11:29:14Z</time>
      </trkpt>
      <trkpt lat="43.208953" lon="12.829354">
        <ele>1399.158</ele>
        <time>2020-12-13T11:31:55Z</time>
      </trkpt>
      <trkpt lat="43.206340" lon="12.828300">
        <ele>1382.011</ele>
        <time>2020-12-13T11:37:29Z</time>
      </trkpt>
      <trkpt lat="43.205911" lon="12.827932">
        <ele>1371.444</ele>
        <time>2020-12-13T11:38:34Z</time>
      </trkpt>
      <trkpt lat="43.205564" lon="12.827370">
        <ele>1377.356</ele>
        <time>2020-12-13T11:39:31Z</time>
      </trkpt>
      <trkpt lat="43.205023" lon="12.827350">
        <ele>1371.147</ele>
        <time>2020-12-13T11:40:33Z</time>
      </trkpt>
      <trkpt lat="43.203834" lon="12.827721">
        <ele>1340.529</ele>
        <time>2020-12-13T11:43:21Z</time>
      </trkpt>
      <trkpt lat="43.203662" lon="12.827323">
        <ele>1338.121</ele>
        <time>2020-12-13T11:43:36Z</time>
      </trkpt>
      <trkpt lat="43.203928" lon="12.827459">
        <ele>1339.008</ele>
        <time>2020-12-13T11:43:41Z</time>
      </trkpt>
      <trkpt lat="43.203996" lon="12.827641">
        <ele>1339.070</ele>
        <time>2020-12-13T11:43:43Z</time>
      </trkpt>
      <trkpt lat="43.203400" lon="12.827844">
        <ele>1328.376</ele>
        <time>2020-12-13T11:46:00Z</time>
      </trkpt>
      <trkpt lat="43.203220" lon="12.828024">
        <ele>1320.445</ele>
        <time>2020-12-13T11:46:19Z</time>
      </trkpt>
      <trkpt lat="43.202931" lon="12.827990">
        <ele>1308.980</ele>
        <time>2020-12-13T11:46:48Z</time>
      </trkpt>
      <trkpt lat="43.202567" lon="12.828159">
        <ele>1299.379</ele>
        <time>2020-12-13T11:47:21Z</time>
      </trkpt>
      <trkpt lat="43.202094" lon="12.828613">
        <ele>1287.632</ele>
        <time>2020-12-13T11:48:05Z</time>
      </trkpt>
      <trkpt lat="43.201898" lon="12.828640">
        <ele>1285.145</ele>
        <time>2020-12-13T11:48:22Z</time>
      </trkpt>
      <trkpt lat="43.200852" lon="12.829390">
        <ele>1268.537</ele>
        <time>2020-12-13T11:50:24Z</time>
      </trkpt>
      <trkpt lat="43.199612" lon="12.830017">
        <ele>1282.717</ele>
        <time>2020-12-13T11:52:52Z</time>
      </trkpt>
      <trkpt lat="43.199452" lon="12.830262">
        <ele>1283.287</ele>
        <time>2020-12-13T11:53:19Z</time>
      </trkpt>
      <trkpt lat="43.199255" lon="12.830219">
        <ele>1284.015</ele>
        <time>2020-12-13T11:53:37Z</time>
      </trkpt>
      <trkpt lat="43.199109" lon="12.830398">
        <ele>1283.408</ele>
        <time>2020-12-13T11:53:53Z</time>
      </trkpt>
      <trkpt lat="43.198198" lon="12.830644">
        <ele>1267.487</ele>
        <time>2020-12-13T11:57:32Z</time>
      </trkpt>
      <trkpt lat="43.197798" lon="12.830464">
        <ele>1262.683</ele>
        <time>2020-12-13T11:58:08Z</time>
      </trkpt>
      <trkpt lat="43.197270" lon="12.830571">
        <ele>1255.242</ele>
        <time>2020-12-13T11:58:54Z</time>
      </trkpt>
      <trkpt lat="43.196603" lon="12.830439">
        <ele>1239.117</ele>
        <time>2020-12-13T12:00:03Z</time>
      </trkpt>
      <trkpt lat="43.195594" lon="12.830502">
        <ele>1220.576</ele>
        <time>2020-12-13T12:03:20Z</time>
      </trkpt>
      <trkpt lat="43.195422" lon="12.830375">
        <ele>1216.179</ele>
        <time>2020-12-13T12:03:34Z</time>
      </trkpt>
      <trkpt lat="43.194696" lon="12.830387">
        <ele>1202.762</ele>
        <time>2020-12-13T12:04:37Z</time>
      </trkpt>
      <trkpt lat="43.194380" lon="12.830252">
        <ele>1199.484</ele>
        <time>2020-12-13T12:05:07Z</time>
      </trkpt>
      <trkpt lat="43.193942" lon="12.829833">
        <ele>1192.785</ele>
        <time>2020-12-13T12:05:56Z</time>
      </trkpt>
      <trkpt lat="43.193122" lon="12.829502">
        <ele>1184.489</ele>
        <time>2020-12-13T12:07:17Z</time>
      </trkpt>
      <trkpt lat="43.192293" lon="12.828904">
        <ele>1165.817</ele>
        <time>2020-12-13T12:09:15Z</time>
      </trkpt>
      <trkpt lat="43.190974" lon="12.828173">
        <ele>1135.408</ele>
        <time>2020-12-13T12:11:46Z</time>
      </trkpt>
      <trkpt lat="43.190005" lon="12.827887">
        <ele>1122.114</ele>
        <time>2020-12-13T12:13:20Z</time>
      </trkpt>
      <trkpt lat="43.189072" lon="12.827414">
        <ele>1109.960</ele>
        <time>2020-12-13T12:14:44Z</time>
      </trkpt>
      <trkpt lat="43.187456" lon="12.826904">
        <ele>1098.719</ele>
        <time>2020-12-13T12:17:28Z</time>
      </trkpt>
      <trkpt lat="43.187309" lon="12.826586">
        <ele>1093.874</ele>
        <time>2020-12-13T12:17:50Z</time>
      </trkpt>
      <trkpt lat="43.186195" lon="12.826127">
        <ele>1084.333</ele>
        <time>2020-12-13T12:19:55Z</time>
      </trkpt>
      <trkpt lat="43.185742" lon="12.825773">
        <ele>1078.226</ele>
        <time>2020-12-13T12:20:40Z</time>
      </trkpt>
      <trkpt lat="43.185677" lon="12.825538">
        <ele>1074.969</ele>
        <time>2020-12-13T12:20:57Z</time>
      </trkpt>
      <trkpt lat="43.185386" lon="12.825221">
        <ele>1067.071</ele>
        <time>2020-12-13T12:21:44Z</time>
      </trkpt>
      <trkpt lat="43.184175" lon="12.825125">
        <ele>1052.826</ele>
        <time>2020-12-13T12:23:15Z</time>
      </trkpt>
      <trkpt lat="43.183969" lon="12.825201">
        <ele>1047.947</ele>
        <time>2020-12-13T12:23:48Z</time>
      </trkpt>
      <trkpt lat="43.183744" lon="12.825101">
        <ele>1045.111</ele>
        <time>2020-12-13T12:24:08Z</time>
      </trkpt>
      <trkpt lat="43.183334" lon="12.825225">
        <ele>1035.608</ele>
        <time>2020-12-13T12:24:43Z</time>
      </trkpt>
      <trkpt lat="43.182681" lon="12.825240">
        <ele>1033.528</ele>
        <time>2020-12-13T12:26:29Z</time>
      </trkpt>
      <trkpt lat="43.181983" lon="12.824970">
        <ele>1021.314</ele>
        <time>2020-12-13T12:29:11Z</time>
      </trkpt>
      <trkpt lat="43.181782" lon="12.824774">
        <ele>1014.993</ele>
        <time>2020-12-13T12:29:32Z</time>
      </trkpt>
      <trkpt lat="43.181689" lon="12.824808">
        <ele>1010.038</ele>
        <time>2020-12-13T12:29:47Z</time>
      </trkpt>
      <trkpt lat="43.181545" lon="12.824589">
        <ele>1004.037</ele>
        <time>2020-12-13T12:30:53Z</time>
      </trkpt>
      <trkpt lat="43.182148" lon="12.824072">
        <ele>1003.150</ele>
        <time>2020-12-13T12:32:17Z</time>
      </trkpt>
      <trkpt lat="43.182188" lon="12.823437">
        <ele>994.953</ele>
        <time>2020-12-13T12:37:11Z</time>
      </trkpt>
      <trkpt lat="43.181952" lon="12.822675">
        <ele>970.955</ele>
        <time>2020-12-13T12:38:48Z</time>
      </trkpt>
      <trkpt lat="43.181417" lon="12.822056">
        <ele>953.625</ele>
        <time>2020-12-13T12:41:05Z</time>
      </trkpt>
      <trkpt lat="43.181339" lon="12.821547">
        <ele>940.826</ele>
        <time>2020-12-13T12:41:45Z</time>
      </trkpt>
      <trkpt lat="43.181434" lon="12.821009">
        <ele>927.708</ele>
        <time>2020-12-13T12:43:38Z</time>
      </trkpt>
      <trkpt lat="43.181229" lon="12.820483">
        <ele>912.808</ele>
        <time>2020-12-13T12:46:28Z</time>
      </trkpt>
      <trkpt lat="43.181196" lon="12.819809">
        <ele>899.858</ele>
        <time>2020-12-13T12:49:02Z</time>
      </trkpt>
      <trkpt lat="43.180728" lon="12.819431">
        <ele>893.384</ele>
        <time>2020-12-13T12:50:16Z</time>
      </trkpt>
      <trkpt lat="43.179780" lon="12.819387">
        <ele>886.693</ele>
        <time>2020-12-13T12:51:33Z</time>
      </trkpt>
      <trkpt lat="43.179462" lon="12.819774">
        <ele>877.858</ele>
        <time>2020-12-13T12:52:10Z</time>
      </trkpt>
      <trkpt lat="43.178861" lon="12.821001">
        <ele>863.827</ele>
        <time>2020-12-13T12:53:54Z</time>
      </trkpt>
      <trkpt lat="43.178481" lon="12.820968">
        <ele>857.110</ele>
        <time>2020-12-13T12:54:44Z</time>
      </trkpt>
      <trkpt lat="43.178371" lon="12.820869">
        <ele>857.013</ele>
        <time>2020-12-13T12:55:06Z</time>
      </trkpt>
      <trkpt lat="43.178435" lon="12.820326">
        <ele>854.255</ele>
        <time>2020-12-13T12:55:53Z</time>
      </trkpt>
      <trkpt lat="43.179181" lon="12.818730">
        <ele>859.128</ele>
        <time>2020-12-13T12:57:52Z</time>
      </trkpt>
      <trkpt lat="43.179118" lon="12.818224">
        <ele>856.689</ele>
        <time>2020-12-13T12:58:56Z</time>
      </trkpt>
      <trkpt lat="43.179224" lon="12.817123">
        <ele>851.617</ele>
        <time>2020-12-13T13:00:17Z</time>
      </trkpt>
      <trkpt lat="43.179511" lon="12.816240">
        <ele>850.408</ele>
        <time>2020-12-13T13:01:45Z</time>
      </trkpt>
      <trkpt lat="43.179452" lon="12.813835">
        <ele>835.058</ele>
        <time>2020-12-13T13:04:18Z</time>
      </trkpt>
      <trkpt lat="43.179329" lon="12.813631">
        <ele>833.784</ele>
        <time>2020-12-13T13:04:31Z</time>
      </trkpt>
      <trkpt lat="43.179334" lon="12.812907">
        <ele>821.893</ele>
        <time>2020-12-13T13:05:28Z</time>
      </trkpt>
      <trkpt lat="43.179148" lon="12.812334">
        <ele>815.778</ele>
        <time>2020-12-13T13:06:21Z</time>
      </trkpt>
      <trkpt lat="43.179127" lon="12.811536">
        <ele>811.657</ele>
        <time>2020-12-13T13:07:06Z</time>
      </trkpt>
      <trkpt lat="43.178936" lon="12.811007">
        <ele>805.190</ele>
        <time>2020-12-13T13:07:46Z</time>
      </trkpt>
      <trkpt lat="43.178980" lon="12.810707">
        <ele>801.863</ele>
        <time>2020-12-13T13:08:02Z</time>
      </trkpt>
      <trkpt lat="43.178504" lon="12.808405">
        <ele>764.015</ele>
        <time>2020-12-13T13:11:15Z</time>
      </trkpt>
      <trkpt lat="43.178603" lon="12.807841">
        <ele>756.549</ele>
        <time>2020-12-13T13:12:17Z</time>
      </trkpt>
      <trkpt lat="43.178494" lon="12.807189">
        <ele>741.302</ele>
        <time>2020-12-13T13:13:00Z</time>
      </trkpt>
      <trkpt lat="43.178676" lon="12.806498">
        <ele>733.422</ele>
        <time>2020-12-13T13:13:41Z</time>
      </trkpt>
      <trkpt lat="43.178681" lon="12.805410">
        <ele>706.908</ele>
        <time>2020-12-13T13:15:02Z</time>
      </trkpt>
      <trkpt lat="43.178259" lon="12.803499">
        <ele>680.310</ele>
        <time>2020-12-13T13:17:14Z</time>
      </trkpt>
      <trkpt lat="43.178335" lon="12.803291">
        <ele>678.456</ele>
        <time>2020-12-13T13:17:34Z</time>
      </trkpt>
      <trkpt lat="43.178160" lon="12.803006">
        <ele>674.225</ele>
        <time>2020-12-13T13:17:52Z</time>
      </trkpt>
      <trkpt lat="43.178184" lon="12.802708">
        <ele>667.060</ele>
        <time>2020-12-13T13:18:16Z</time>
      </trkpt>
      <trkpt lat="43.178000" lon="12.802125">
        <ele>659.019</ele>
        <time>2020-12-13T13:21:32Z</time>
      </trkpt>
      <trkpt lat="43.177995" lon="12.801400">
        <ele>646.862</ele>
        <time>2020-12-13T13:22:34Z</time>
      </trkpt>
      <trkpt lat="43.177846" lon="12.801062">
        <ele>639.895</ele>
        <time>2020-12-13T13:22:53Z</time>
      </trkpt>
      <trkpt lat="43.177875" lon="12.800286">
        <ele>631.097</ele>
        <time>2020-12-13T13:24:01Z</time>
      </trkpt>
      <trkpt lat="43.177752" lon="12.799570">
        <ele>620.956</ele>
        <time>2020-12-13T13:24:45Z</time>
      </trkpt>
      <trkpt lat="43.177831" lon="12.798496">
        <ele>606.459</ele>
        <time>2020-12-13T13:25:50Z</time>
      </trkpt>
      <trkpt lat="43.177661" lon="12.797855">
        <ele>602.614</ele>
        <time>2020-12-13T13:26:35Z</time>
      </trkpt>
      <trkpt lat="43.177339" lon="12.797375">
        <ele>596.908</ele>
        <time>2020-12-13T13:27:16Z</time>
      </trkpt>
      <trkpt lat="43.177182" lon="12.796734">
        <ele>554.931</ele>
        <time>2020-12-13T13:28:12Z</time>
      </trkpt>
      <trkpt lat="43.176908" lon="12.796413">
        <ele>514.997</ele>
        <time>2020-12-13T13:28:47Z</time>
      </trkpt>
      <trkpt lat="43.176663" lon="12.795735">
        <ele>506.996</ele>
        <time>2020-12-13T13:29:44Z</time>
      </trkpt>
      <trkpt lat="43.175684" lon="12.794596">
        <ele>527.021</ele>
        <time>2020-12-13T13:35:55Z</time>
      </trkpt>
      <trkpt lat="43.175587" lon="12.793471">
        <ele>526.530</ele>
        <time>2020-12-13T13:37:52Z</time>
      </trkpt>
      <trkpt lat="43.175173" lon="12.793413">
        <ele>530.563</ele>
        <time>2020-12-13T13:38:41Z</time>
      </trkpt>
    </trkseg>
  </trk></gpx>